timestamp,wind_speed_value,wind_speed_unit,wind_speed_status,wind_direction_value,wind_direction_unit,wind_direction_status,wind_gust_value,wind_gust_unit,wind_gust_status,temperature_value,temperature_unit,temperature_status,dewpoint_value,dewpoint_unit,dewpoint_status,pressure_value,pressure_unit,pressure_status,visibility_value,visibility_unit,visibility_status,ceiling_value,ceiling_unit,ceiling_status,precipitation_value,precipitation_unit,precipitation_status,rvr_touchdown_value,rvr_touchdown_unit,rvr_touchdown_status,rvr_midpoint_value,rvr_midpoint_unit,rvr_midpoint_status,rvr_rollout_value,rvr_rollout_unit,rvr_rollout_status
2025-01-26T19:36:31.864083,7.4,knots,OK,249.0,degrees,OK,12.6,knots,OK,24.9,°C,OK,19.5,°C,OK,1014.5,hPa,OK,7444.0,meters,OK,2136.0,feet,OK,0.2,mm/hr,OK,1592.0,meters,OK,1630.0,meters,OK,1976.0,meters,OK
2025-01-26T19:36:32.868561,6.3,knots,OK,111.0,degrees,OK,16.0,knots,OK,20.0,°C,OK,12.5,°C,OK,1013.5,hPa,OK,5198.0,meters,OK,1420.0,feet,OK,0.1,mm/hr,OK,1713.0,meters,OK,1816.0,meters,OK,1872.0,meters,OK
2025-01-26T19:36:33.872571,13.5,knots,OK,12.0,degrees,OK,11.2,knots,OK,19.7,°C,OK,12.5,°C,OK,1013.8,hPa,OK,5545.0,meters,OK,2012.0,feet,OK,0.3,mm/hr,OK,1649.0,meters,OK,1778.0,meters,OK,1845.0,meters,OK
2025-01-26T19:36:34.876117,9.0,knots,OK,227.0,degrees,OK,12.3,knots,OK,18.6,°C,OK,18.1,°C,OK,1014.9,hPa,OK,9807.0,meters,OK,1435.0,feet,OK,0.2,mm/hr,OK,1818.0,meters,OK,1710.0,meters,OK,1899.0,meters,OK
2025-01-26T19:36:35.878818,12.8,knots,OK,171.0,degrees,OK,15.9,knots,OK,15.7,°C,OK,11.7,°C,OK,1014.2,hPa,OK,9720.0,meters,OK,1957.0,feet,OK,0.1,mm/hr,OK,1690.0,meters,OK,1728.0,meters,OK,1529.0,meters,OK
2025-01-26T19:36:36.883098,5.8,knots,OK,111.0,degrees,OK,24.7,knots,OK,18.2,°C,OK,12.5,°C,OK,1014.1,hPa,OK,6266.0,meters,OK,1912.0,feet,OK,0.3,mm/hr,OK,1719.0,meters,OK,1928.0,meters,OK,1949.0,meters,OK
2025-01-26T19:36:37.887502,8.0,knots,OK,24.0,degrees,OK,18.4,knots,OK,15.6,°C,OK,14.0,°C,OK,1013.4,hPa,OK,9569.0,meters,OK,2233.0,feet,OK,0.0,mm/hr,OK,1821.0,meters,OK,1893.0,meters,OK,1508.0,meters,OK
2025-01-26T19:36:38.891602,7.6,knots,OK,41.0,degrees,OK,17.1,knots,OK,15.7,°C,OK,12.4,°C,OK,1014.7,hPa,OK,7253.0,meters,OK,1101.0,feet,OK,0.3,mm/hr,OK,1965.0,meters,OK,1612.0,meters,OK,1531.0,meters,OK
2025-01-26T19:36:39.894664,11.5,knots,OK,177.0,degrees,OK,14.7,knots,OK,20.2,°C,OK,10.8,°C,OK,1013.8,hPa,OK,6949.0,meters,OK,1045.0,feet,OK,0.3,mm/hr,OK,1887.0,meters,OK,1851.0,meters,OK,1794.0,meters,OK
2025-01-26T19:36:40.899119,11.5,knots,OK,66.0,degrees,OK,11.6,knots,OK,15.7,°C,OK,12.0,°C,OK,1013.9,hPa,OK,5722.0,meters,OK,1714.0,feet,OK,0.4,mm/hr,OK,1831.0,meters,OK,1727.0,meters,OK,1883.0,meters,OK
2025-01-26T19:36:41.902965,14.6,knots,OK,30.0,degrees,OK,21.7,knots,OK,18.7,°C,OK,11.9,°C,OK,1013.2,hPa,OK,9120.0,meters,OK,2166.0,feet,OK,0.5,mm/hr,OK,1642.0,meters,OK,1867.0,meters,OK,1556.0,meters,OK
2025-01-26T19:36:42.907308,5.6,knots,OK,117.0,degrees,OK,16.6,knots,OK,21.6,°C,OK,16.2,°C,OK,1013.3,hPa,OK,7753.0,meters,OK,2491.0,feet,OK,0.4,mm/hr,OK,1515.0,meters,OK,1572.0,meters,OK,1985.0,meters,OK
2025-01-26T19:36:43.911036,7.4,knots,OK,80.0,degrees,OK,14.1,knots,OK,23.4,°C,OK,12.3,°C,OK,1013.3,hPa,OK,5262.0,meters,OK,2515.0,feet,OK,0.1,mm/hr,OK,1532.0,meters,OK,1587.0,meters,OK,1533.0,meters,OK
2025-01-26T19:36:44.916632,14.7,knots,OK,328.0,degrees,OK,16.5,knots,OK,15.9,°C,OK,10.8,°C,OK,1014.4,hPa,OK,5373.0,meters,OK,2125.0,feet,OK,0.4,mm/hr,OK,1924.0,meters,OK,1788.0,meters,OK,1598.0,meters,OK
2025-01-26T19:36:45.921427,11.1,knots,OK,45.0,degrees,OK,23.3,knots,OK,17.5,°C,OK,12.1,°C,OK,1014.9,hPa,OK,9411.0,meters,OK,2588.0,feet,OK,0.4,mm/hr,OK,1899.0,meters,OK,1556.0,meters,OK,1542.0,meters,OK
2025-01-26T19:36:46.926642,11.4,knots,OK,83.0,degrees,OK,18.0,knots,OK,23.4,°C,OK,13.3,°C,OK,1014.5,hPa,OK,8093.0,meters,OK,1042.0,feet,OK,0.3,mm/hr,OK,1962.0,meters,OK,1848.0,meters,OK,1743.0,meters,OK
2025-01-26T19:36:47.932165,14.6,knots,OK,241.0,degrees,OK,19.1,knots,OK,23.0,°C,OK,18.5,°C,OK,1014.4,hPa,OK,8212.0,meters,OK,2431.0,feet,OK,0.1,mm/hr,OK,1800.0,meters,OK,1702.0,meters,OK,1718.0,meters,OK
2025-01-26T19:36:48.936455,7.5,knots,OK,136.0,degrees,OK,18.3,knots,OK,21.6,°C,OK,16.7,°C,OK,1013.5,hPa,OK,5829.0,meters,OK,1530.0,feet,OK,0.3,mm/hr,OK,1505.0,meters,OK,1741.0,meters,OK,1597.0,meters,OK
2025-01-26T19:36:49.940953,6.1,knots,OK,28.0,degrees,OK,13.4,knots,OK,22.8,°C,OK,16.5,°C,OK,1013.6,hPa,OK,9673.0,meters,OK,2270.0,feet,OK,0.5,mm/hr,OK,1627.0,meters,OK,1521.0,meters,OK,1699.0,meters,OK
2025-01-26T19:36:50.945518,9.6,knots,OK,253.0,degrees,OK,12.8,knots,OK,17.4,°C,OK,16.0,°C,OK,1013.7,hPa,OK,8696.0,meters,OK,1928.0,feet,OK,0.3,mm/hr,OK,1959.0,meters,OK,1503.0,meters,OK,1893.0,meters,OK
2025-01-26T19:36:51.949540,11.4,knots,OK,108.0,degrees,OK,11.8,knots,OK,18.9,°C,OK,19.1,°C,OK,1015.0,hPa,OK,7277.0,meters,OK,1957.0,feet,OK,0.0,mm/hr,OK,1554.0,meters,OK,1982.0,meters,OK,1543.0,meters,OK
2025-01-26T19:36:52.954464,5.5,knots,OK,40.0,degrees,OK,10.0,knots,OK,15.1,°C,OK,11.1,°C,OK,1014.7,hPa,OK,6021.0,meters,OK,1372.0,feet,OK,0.0,mm/hr,OK,1525.0,meters,OK,1997.0,meters,OK,1729.0,meters,OK
2025-01-26T19:36:53.958512,11.7,knots,OK,303.0,degrees,OK,20.1,knots,OK,16.7,°C,OK,10.4,°C,OK,1014.7,hPa,OK,6589.0,meters,OK,2986.0,feet,OK,0.3,mm/hr,OK,1942.0,meters,OK,1941.0,meters,OK,1994.0,meters,OK
2025-01-26T19:36:54.962381,5.3,knots,OK,56.0,degrees,OK,22.5,knots,OK,17.1,°C,OK,13.9,°C,OK,1014.7,hPa,OK,5239.0,meters,OK,1090.0,feet,OK,0.4,mm/hr,OK,1891.0,meters,OK,1532.0,meters,OK,1958.0,meters,OK
2025-01-26T19:36:55.965828,5.6,knots,OK,127.0,degrees,OK,16.5,knots,OK,16.3,°C,OK,11.2,°C,OK,1014.6,hPa,OK,8921.0,meters,OK,1347.0,feet,OK,0.3,mm/hr,OK,1827.0,meters,OK,1893.0,meters,OK,1694.0,meters,OK
2025-01-26T19:36:56.969215,8.9,knots,OK,194.0,degrees,OK,13.1,knots,OK,15.5,°C,OK,19.7,°C,OK,1013.9,hPa,OK,5218.0,meters,OK,1125.0,feet,OK,0.2,mm/hr,OK,1637.0,meters,OK,1547.0,meters,OK,1903.0,meters,OK
2025-01-26T19:36:57.973145,14.9,knots,OK,124.0,degrees,OK,23.1,knots,OK,23.4,°C,OK,15.2,°C,OK,1014.8,hPa,OK,7399.0,meters,OK,2432.0,feet,OK,0.1,mm/hr,OK,1853.0,meters,OK,1806.0,meters,OK,1742.0,meters,OK
2025-01-26T19:36:58.976990,8.0,knots,OK,337.0,degrees,OK,23.9,knots,OK,15.1,°C,OK,16.5,°C,OK,1014.9,hPa,OK,5512.0,meters,OK,2487.0,feet,OK,0.2,mm/hr,OK,1880.0,meters,OK,1588.0,meters,OK,1997.0,meters,OK
2025-01-26T19:36:59.982263,7.6,knots,OK,239.0,degrees,OK,19.1,knots,OK,24.0,°C,OK,19.5,°C,OK,1014.4,hPa,OK,5599.0,meters,OK,1653.0,feet,OK,0.2,mm/hr,OK,1670.0,meters,OK,1952.0,meters,OK,1871.0,meters,OK
2025-01-26T19:37:00.987581,8.2,knots,OK,33.0,degrees,OK,21.5,knots,OK,16.0,°C,OK,15.4,°C,OK,1014.0,hPa,OK,9781.0,meters,OK,1500.0,feet,OK,0.3,mm/hr,OK,1880.0,meters,OK,1637.0,meters,OK,1661.0,meters,OK
2025-01-26T19:37:01.991955,11.7,knots,OK,267.0,degrees,OK,19.7,knots,OK,15.7,°C,OK,14.9,°C,OK,1013.5,hPa,OK,7353.0,meters,OK,1191.0,feet,OK,0.3,mm/hr,OK,1918.0,meters,OK,1729.0,meters,OK,1619.0,meters,OK
2025-01-26T19:37:02.996509,7.8,knots,OK,252.0,degrees,OK,20.3,knots,OK,22.4,°C,OK,11.7,°C,OK,1013.1,hPa,OK,6803.0,meters,OK,2576.0,feet,OK,0.2,mm/hr,OK,1854.0,meters,OK,1975.0,meters,OK,1699.0,meters,OK
2025-01-26T19:37:03.999787,12.0,knots,OK,91.0,degrees,OK,10.7,knots,OK,17.3,°C,OK,19.5,°C,OK,1013.5,hPa,OK,9245.0,meters,OK,1087.0,feet,OK,0.1,mm/hr,OK,1970.0,meters,OK,1530.0,meters,OK,1505.0,meters,OK
2025-01-26T19:37:05.004649,13.2,knots,OK,276.0,degrees,OK,24.3,knots,OK,18.3,°C,OK,14.8,°C,OK,1013.3,hPa,OK,9853.0,meters,OK,2132.0,feet,OK,0.4,mm/hr,OK,1988.0,meters,OK,1619.0,meters,OK,1557.0,meters,OK
2025-01-26T19:37:06.009082,11.9,knots,OK,149.0,degrees,OK,10.6,knots,OK,22.5,°C,OK,17.6,°C,OK,1015.0,hPa,OK,7727.0,meters,OK,2263.0,feet,OK,0.4,mm/hr,OK,1713.0,meters,OK,1620.0,meters,OK,1545.0,meters,OK
2025-01-26T19:37:07.013221,5.1,knots,OK,239.0,degrees,OK,22.0,knots,OK,22.0,°C,OK,19.7,°C,OK,1013.6,hPa,OK,6743.0,meters,OK,1557.0,feet,OK,0.1,mm/hr,OK,1792.0,meters,OK,1562.0,meters,OK,1737.0,meters,OK
2025-01-26T19:37:08.017846,14.7,knots,OK,209.0,degrees,OK,18.6,knots,OK,20.8,°C,OK,19.9,°C,OK,1014.3,hPa,OK,9116.0,meters,OK,2030.0,feet,OK,0.4,mm/hr,OK,1608.0,meters,OK,1620.0,meters,OK,1727.0,meters,OK
2025-01-26T19:37:09.021374,6.2,knots,OK,264.0,degrees,OK,19.5,knots,OK,15.3,°C,OK,17.9,°C,OK,1014.7,hPa,OK,5433.0,meters,OK,1724.0,feet,OK,0.0,mm/hr,OK,1751.0,meters,OK,1601.0,meters,OK,1643.0,meters,OK
2025-01-26T19:37:10.024789,13.3,knots,OK,157.0,degrees,OK,23.7,knots,OK,21.4,°C,OK,14.4,°C,OK,1014.1,hPa,OK,5301.0,meters,OK,2002.0,feet,OK,0.2,mm/hr,OK,1895.0,meters,OK,1806.0,meters,OK,1801.0,meters,OK
2025-01-26T19:37:11.028333,11.0,knots,OK,313.0,degrees,OK,21.1,knots,OK,20.7,°C,OK,12.7,°C,OK,1014.1,hPa,OK,7160.0,meters,OK,1522.0,feet,OK,0.5,mm/hr,OK,1903.0,meters,OK,1573.0,meters,OK,1570.0,meters,OK
2025-01-26T19:37:12.032853,10.9,knots,OK,206.0,degrees,OK,23.9,knots,OK,19.7,°C,OK,13.9,°C,OK,1013.1,hPa,OK,9052.0,meters,OK,2249.0,feet,OK,0.5,mm/hr,OK,1855.0,meters,OK,1904.0,meters,OK,1926.0,meters,OK
2025-01-26T19:37:13.037856,8.6,knots,OK,289.0,degrees,OK,19.9,knots,OK,24.7,°C,OK,10.4,°C,OK,1013.4,hPa,OK,5781.0,meters,OK,2283.0,feet,OK,0.0,mm/hr,OK,1875.0,meters,OK,1999.0,meters,OK,1501.0,meters,OK
2025-01-26T19:37:14.042341,13.0,knots,OK,139.0,degrees,OK,21.0,knots,OK,15.9,°C,OK,13.4,°C,OK,1013.6,hPa,OK,8619.0,meters,OK,1682.0,feet,OK,0.1,mm/hr,OK,1876.0,meters,OK,1844.0,meters,OK,1844.0,meters,OK
2025-01-26T19:37:15.047149,7.8,knots,OK,38.0,degrees,OK,23.9,knots,OK,18.5,°C,OK,16.2,°C,OK,1014.2,hPa,OK,6926.0,meters,OK,2243.0,feet,OK,0.0,mm/hr,OK,1561.0,meters,OK,1708.0,meters,OK,1660.0,meters,OK
2025-01-26T19:37:16.052288,13.5,knots,OK,334.0,degrees,OK,12.5,knots,OK,24.7,°C,OK,19.7,°C,OK,1014.2,hPa,OK,6344.0,meters,OK,2227.0,feet,OK,0.4,mm/hr,OK,1551.0,meters,OK,1862.0,meters,OK,1629.0,meters,OK
2025-01-26T19:37:17.056465,10.5,knots,OK,93.0,degrees,OK,21.3,knots,OK,16.0,°C,OK,12.3,°C,OK,1013.6,hPa,OK,7981.0,meters,OK,2277.0,feet,OK,0.0,mm/hr,OK,1542.0,meters,OK,1884.0,meters,OK,1831.0,meters,OK
2025-01-26T19:37:18.061749,14.4,knots,OK,100.0,degrees,OK,14.2,knots,OK,18.8,°C,OK,10.1,°C,OK,1013.1,hPa,OK,8214.0,meters,OK,2813.0,feet,OK,0.3,mm/hr,OK,1516.0,meters,OK,1868.0,meters,OK,1988.0,meters,OK
2025-01-26T19:37:19.068491,11.4,knots,OK,101.0,degrees,OK,20.3,knots,OK,20.2,°C,OK,14.1,°C,OK,1014.0,hPa,OK,6299.0,meters,OK,1731.0,feet,OK,0.5,mm/hr,OK,1722.0,meters,OK,1859.0,meters,OK,1944.0,meters,OK
2025-01-26T19:37:20.075832,8.6,knots,OK,357.0,degrees,OK,15.8,knots,OK,23.6,°C,OK,18.1,°C,OK,1014.4,hPa,OK,6711.0,meters,OK,1399.0,feet,OK,0.2,mm/hr,OK,1876.0,meters,OK,1597.0,meters,OK,1635.0,meters,OK
2025-01-26T19:37:21.081840,12.6,knots,OK,35.0,degrees,OK,19.9,knots,OK,18.3,°C,OK,13.8,°C,OK,1013.4,hPa,OK,8696.0,meters,OK,1785.0,feet,OK,0.4,mm/hr,OK,1804.0,meters,OK,1922.0,meters,OK,1780.0,meters,OK
2025-01-26T19:37:22.085849,12.6,knots,OK,6.0,degrees,OK,22.3,knots,OK,24.8,°C,OK,17.3,°C,OK,1013.9,hPa,OK,9803.0,meters,OK,2274.0,feet,OK,0.3,mm/hr,OK,1656.0,meters,OK,1843.0,meters,OK,1688.0,meters,OK
2025-01-26T19:37:23.090215,13.7,knots,OK,239.0,degrees,OK,18.7,knots,OK,19.3,°C,OK,13.4,°C,OK,1013.2,hPa,OK,9891.0,meters,OK,1519.0,feet,OK,0.3,mm/hr,OK,1999.0,meters,OK,1983.0,meters,OK,1655.0,meters,OK
2025-01-26T19:37:24.096858,7.0,knots,OK,214.0,degrees,OK,10.2,knots,OK,23.1,°C,OK,13.8,°C,OK,1015.0,hPa,OK,6440.0,meters,OK,1158.0,feet,OK,0.3,mm/hr,OK,1871.0,meters,OK,1904.0,meters,OK,1751.0,meters,OK
2025-01-26T19:37:25.102567,8.1,knots,OK,196.0,degrees,OK,14.0,knots,OK,16.3,°C,OK,11.0,°C,OK,1013.1,hPa,OK,5974.0,meters,OK,2793.0,feet,OK,0.5,mm/hr,OK,1597.0,meters,OK,1708.0,meters,OK,1879.0,meters,OK
2025-01-26T19:37:26.108688,10.6,knots,OK,157.0,degrees,OK,19.2,knots,OK,20.7,°C,OK,12.4,°C,OK,1014.8,hPa,OK,7112.0,meters,OK,1629.0,feet,OK,0.5,mm/hr,OK,1876.0,meters,OK,1504.0,meters,OK,1522.0,meters,OK
2025-01-26T19:37:27.115648,9.7,knots,OK,42.0,degrees,OK,22.1,knots,OK,22.6,°C,OK,15.4,°C,OK,1014.4,hPa,OK,8522.0,meters,OK,2737.0,feet,OK,0.4,mm/hr,OK,1834.0,meters,OK,1527.0,meters,OK,1894.0,meters,OK
2025-01-26T19:37:28.120925,5.8,knots,OK,5.0,degrees,OK,17.7,knots,OK,19.8,°C,OK,17.8,°C,OK,1013.9,hPa,OK,8497.0,meters,OK,2000.0,feet,OK,0.4,mm/hr,OK,1639.0,meters,OK,1700.0,meters,OK,1998.0,meters,OK
2025-01-26T19:37:29.125046,9.5,knots,OK,20.0,degrees,OK,21.6,knots,OK,22.4,°C,OK,14.8,°C,OK,1013.4,hPa,OK,7714.0,meters,OK,1975.0,feet,OK,0.4,mm/hr,OK,1747.0,meters,OK,1818.0,meters,OK,1614.0,meters,OK
2025-01-26T19:37:30.130108,12.0,knots,OK,273.0,degrees,OK,13.6,knots,OK,24.5,°C,OK,19.4,°C,OK,1013.4,hPa,OK,6463.0,meters,OK,2792.0,feet,OK,0.3,mm/hr,OK,1748.0,meters,OK,1880.0,meters,OK,1707.0,meters,OK
2025-01-26T19:37:31.135791,7.6,knots,OK,299.0,degrees,OK,16.7,knots,OK,16.1,°C,OK,19.8,°C,OK,1013.1,hPa,OK,7962.0,meters,OK,1540.0,feet,OK,0.5,mm/hr,OK,1908.0,meters,OK,1571.0,meters,OK,1744.0,meters,OK
2025-01-26T19:37:32.142974,14.5,knots,OK,276.0,degrees,OK,21.9,knots,OK,21.6,°C,OK,14.0,°C,OK,1015.0,hPa,OK,8655.0,meters,OK,2732.0,feet,OK,0.2,mm/hr,OK,1801.0,meters,OK,1775.0,meters,OK,1521.0,meters,OK
2025-01-26T19:37:33.148817,13.9,knots,OK,289.0,degrees,OK,16.8,knots,OK,24.6,°C,OK,11.1,°C,OK,1014.7,hPa,OK,5222.0,meters,OK,2497.0,feet,OK,0.1,mm/hr,OK,1827.0,meters,OK,1877.0,meters,OK,1593.0,meters,OK
2025-01-26T19:37:34.154255,12.2,knots,OK,259.0,degrees,OK,24.3,knots,OK,23.7,°C,OK,17.0,°C,OK,1014.2,hPa,OK,6857.0,meters,OK,1093.0,feet,OK,0.2,mm/hr,OK,1989.0,meters,OK,1764.0,meters,OK,1756.0,meters,OK
2025-01-26T19:37:35.159351,8.6,knots,OK,74.0,degrees,OK,12.6,knots,OK,24.0,°C,OK,14.5,°C,OK,1013.9,hPa,OK,7445.0,meters,OK,1131.0,feet,OK,0.3,mm/hr,OK,1685.0,meters,OK,1624.0,meters,OK,1732.0,meters,OK
2025-01-26T19:37:36.163793,11.4,knots,OK,101.0,degrees,OK,20.0,knots,OK,19.0,°C,OK,16.8,°C,OK,1013.5,hPa,OK,8937.0,meters,OK,2293.0,feet,OK,0.5,mm/hr,OK,1914.0,meters,OK,1956.0,meters,OK,1840.0,meters,OK
2025-01-26T19:37:37.170851,6.4,knots,OK,112.0,degrees,OK,15.7,knots,OK,17.4,°C,OK,13.6,°C,OK,1014.3,hPa,OK,6310.0,meters,OK,1391.0,feet,OK,0.2,mm/hr,OK,1838.0,meters,OK,1551.0,meters,OK,1609.0,meters,OK
2025-01-26T19:37:38.178447,14.1,knots,OK,148.0,degrees,OK,14.1,knots,OK,18.0,°C,OK,13.2,°C,OK,1013.9,hPa,OK,8571.0,meters,OK,2694.0,feet,OK,0.0,mm/hr,OK,1609.0,meters,OK,1915.0,meters,OK,1732.0,meters,OK
2025-01-26T19:37:39.184503,13.6,knots,OK,241.0,degrees,OK,18.1,knots,OK,23.3,°C,OK,12.9,°C,OK,1014.9,hPa,OK,6211.0,meters,OK,1771.0,feet,OK,0.4,mm/hr,OK,1837.0,meters,OK,1832.0,meters,OK,1523.0,meters,OK
2025-01-26T19:37:40.189544,10.0,knots,OK,68.0,degrees,OK,10.3,knots,OK,23.6,°C,OK,14.5,°C,OK,1014.5,hPa,OK,7786.0,meters,OK,1721.0,feet,OK,0.4,mm/hr,OK,1553.0,meters,OK,1834.0,meters,OK,1857.0,meters,OK
2025-01-26T19:37:41.196066,9.3,knots,OK,30.0,degrees,OK,21.2,knots,OK,24.5,°C,OK,14.0,°C,OK,1014.9,hPa,OK,8018.0,meters,OK,2703.0,feet,OK,0.1,mm/hr,OK,1954.0,meters,OK,1564.0,meters,OK,1588.0,meters,OK
2025-01-26T19:37:42.201898,7.2,knots,OK,31.0,degrees,OK,10.9,knots,OK,21.8,°C,OK,15.2,°C,OK,1013.4,hPa,OK,5476.0,meters,OK,2747.0,feet,OK,0.4,mm/hr,OK,1995.0,meters,OK,1738.0,meters,OK,1588.0,meters,OK
2025-01-26T19:37:43.207900,10.1,knots,OK,137.0,degrees,OK,19.4,knots,OK,18.3,°C,OK,15.8,°C,OK,1014.1,hPa,OK,8357.0,meters,OK,2153.0,feet,OK,0.3,mm/hr,OK,1827.0,meters,OK,1970.0,meters,OK,1738.0,meters,OK
2025-01-26T19:37:44.214835,8.8,knots,OK,322.0,degrees,OK,16.7,knots,OK,15.3,°C,OK,18.7,°C,OK,1014.3,hPa,OK,6645.0,meters,OK,2352.0,feet,OK,0.1,mm/hr,OK,1850.0,meters,OK,1677.0,meters,OK,1748.0,meters,OK
2025-01-26T19:37:45.221356,10.3,knots,OK,282.0,degrees,OK,15.4,knots,OK,18.5,°C,OK,16.1,°C,OK,1014.2,hPa,OK,8034.0,meters,OK,2513.0,feet,OK,0.4,mm/hr,OK,1700.0,meters,OK,1826.0,meters,OK,1622.0,meters,OK
2025-01-26T19:37:46.227374,12.1,knots,OK,160.0,degrees,OK,10.4,knots,OK,20.3,°C,OK,15.9,°C,OK,1013.0,hPa,OK,6003.0,meters,OK,2453.0,feet,OK,0.0,mm/hr,OK,1898.0,meters,OK,1835.0,meters,OK,1517.0,meters,OK
2025-01-26T19:37:47.233608,13.6,knots,OK,308.0,degrees,OK,20.1,knots,OK,19.9,°C,OK,14.5,°C,OK,1013.3,hPa,OK,9732.0,meters,OK,2535.0,feet,OK,0.4,mm/hr,OK,1971.0,meters,OK,1807.0,meters,OK,1746.0,meters,OK
2025-01-26T19:37:48.239102,12.5,knots,OK,222.0,degrees,OK,22.6,knots,OK,16.6,°C,OK,13.7,°C,OK,1014.4,hPa,OK,5612.0,meters,OK,2967.0,feet,OK,0.4,mm/hr,OK,1929.0,meters,OK,1831.0,meters,OK,1905.0,meters,OK
2025-01-26T19:37:49.244790,5.2,knots,OK,143.0,degrees,OK,11.8,knots,OK,17.3,°C,OK,16.3,°C,OK,1014.4,hPa,OK,8236.0,meters,OK,1011.0,feet,OK,0.3,mm/hr,OK,1694.0,meters,OK,1700.0,meters,OK,1515.0,meters,OK
2025-01-26T19:37:50.251627,11.2,knots,OK,272.0,degrees,OK,17.9,knots,OK,22.5,°C,OK,13.0,°C,OK,1013.1,hPa,OK,5604.0,meters,OK,2544.0,feet,OK,0.3,mm/hr,OK,1706.0,meters,OK,1743.0,meters,OK,1860.0,meters,OK
2025-01-26T19:37:51.258003,9.6,knots,OK,71.0,degrees,OK,14.4,knots,OK,24.0,°C,OK,19.7,°C,OK,1014.4,hPa,OK,8371.0,meters,OK,2680.0,feet,OK,0.5,mm/hr,OK,1760.0,meters,OK,1636.0,meters,OK,1756.0,meters,OK
2025-01-26T19:37:52.264709,12.3,knots,OK,298.0,degrees,OK,18.7,knots,OK,16.7,°C,OK,15.5,°C,OK,1014.6,hPa,OK,9641.0,meters,OK,2703.0,feet,OK,0.3,mm/hr,OK,1715.0,meters,OK,1883.0,meters,OK,1859.0,meters,OK
2025-01-26T19:37:53.270852,14.7,knots,OK,211.0,degrees,OK,21.4,knots,OK,21.8,°C,OK,17.0,°C,OK,1013.4,hPa,OK,9597.0,meters,OK,2590.0,feet,OK,0.0,mm/hr,OK,1757.0,meters,OK,1928.0,meters,OK,1764.0,meters,OK
2025-01-26T19:37:54.276948,9.2,knots,OK,58.0,degrees,OK,17.5,knots,OK,16.6,°C,OK,12.4,°C,OK,1014.3,hPa,OK,7355.0,meters,OK,1818.0,feet,OK,0.3,mm/hr,OK,1888.0,meters,OK,1746.0,meters,OK,1778.0,meters,OK
2025-01-26T19:37:55.282977,9.9,knots,OK,43.0,degrees,OK,12.7,knots,OK,21.9,°C,OK,10.4,°C,OK,1013.3,hPa,OK,8208.0,meters,OK,1749.0,feet,OK,0.0,mm/hr,OK,1604.0,meters,OK,1845.0,meters,OK,1528.0,meters,OK
2025-01-26T19:37:56.290371,5.8,knots,OK,114.0,degrees,OK,12.6,knots,OK,20.7,°C,OK,19.8,°C,OK,1013.5,hPa,OK,6579.0,meters,OK,1856.0,feet,OK,0.1,mm/hr,OK,1607.0,meters,OK,1509.0,meters,OK,1651.0,meters,OK
2025-01-26T19:37:57.297440,8.3,knots,OK,355.0,degrees,OK,19.8,knots,OK,20.6,°C,OK,12.4,°C,OK,1014.8,hPa,OK,6406.0,meters,OK,2986.0,feet,OK,0.2,mm/hr,OK,1507.0,meters,OK,1773.0,meters,OK,1714.0,meters,OK
2025-01-26T19:37:58.304965,9.8,knots,OK,354.0,degrees,OK,24.2,knots,OK,17.1,°C,OK,19.6,°C,OK,1013.4,hPa,OK,7495.0,meters,OK,1029.0,feet,OK,0.0,mm/hr,OK,1658.0,meters,OK,1560.0,meters,OK,1693.0,meters,OK
2025-01-26T19:37:59.311934,10.6,knots,OK,207.0,degrees,OK,17.9,knots,OK,24.8,°C,OK,12.7,°C,OK,1013.8,hPa,OK,7321.0,meters,OK,2520.0,feet,OK,0.5,mm/hr,OK,1830.0,meters,OK,1815.0,meters,OK,1954.0,meters,OK
2025-01-26T19:38:00.318461,13.3,knots,OK,196.0,degrees,OK,16.8,knots,OK,21.2,°C,OK,13.1,°C,OK,1013.2,hPa,OK,6548.0,meters,OK,1175.0,feet,OK,0.0,mm/hr,OK,1633.0,meters,OK,1643.0,meters,OK,1739.0,meters,OK
2025-01-26T19:38:01.324845,10.4,knots,OK,176.0,degrees,OK,11.9,knots,OK,17.6,°C,OK,14.2,°C,OK,1013.3,hPa,OK,6758.0,meters,OK,2513.0,feet,OK,0.2,mm/hr,OK,1559.0,meters,OK,1950.0,meters,OK,1505.0,meters,OK
2025-01-26T19:38:02.332552,5.9,knots,OK,358.0,degrees,OK,13.8,knots,OK,21.9,°C,OK,17.7,°C,OK,1014.7,hPa,OK,7498.0,meters,OK,2108.0,feet,OK,0.5,mm/hr,OK,1814.0,meters,OK,1662.0,meters,OK,1574.0,meters,OK
2025-01-26T19:38:03.340353,11.8,knots,OK,104.0,degrees,OK,15.3,knots,OK,15.8,°C,OK,10.7,°C,OK,1014.6,hPa,OK,7463.0,meters,OK,2263.0,feet,OK,0.3,mm/hr,OK,1563.0,meters,OK,1710.0,meters,OK,1624.0,meters,OK
2025-01-26T19:38:04.347010,8.4,knots,OK,113.0,degrees,OK,24.7,knots,OK,17.7,°C,OK,13.7,°C,OK,1014.3,hPa,OK,5880.0,meters,OK,2617.0,feet,OK,0.2,mm/hr,OK,1725.0,meters,OK,1796.0,meters,OK,1805.0,meters,OK
2025-01-26T19:38:05.353690,12.6,knots,OK,142.0,degrees,OK,11.8,knots,OK,19.1,°C,OK,13.5,°C,OK,1013.6,hPa,OK,7308.0,meters,OK,2078.0,feet,OK,0.2,mm/hr,OK,1822.0,meters,OK,1734.0,meters,OK,1656.0,meters,OK
2025-01-26T19:38:06.360588,8.2,knots,OK,170.0,degrees,OK,16.1,knots,OK,23.8,°C,OK,18.6,°C,OK,1014.7,hPa,OK,9274.0,meters,OK,1389.0,feet,OK,0.3,mm/hr,OK,1635.0,meters,OK,1803.0,meters,OK,1877.0,meters,OK
2025-01-26T19:38:07.367410,10.2,knots,OK,59.0,degrees,OK,23.4,knots,OK,18.4,°C,OK,17.2,°C,OK,1014.7,hPa,OK,8215.0,meters,OK,2950.0,feet,OK,0.2,mm/hr,OK,1595.0,meters,OK,1721.0,meters,OK,1827.0,meters,OK
2025-01-26T19:38:08.374855,10.4,knots,OK,102.0,degrees,OK,20.7,knots,OK,20.5,°C,OK,19.6,°C,OK,1014.2,hPa,OK,9159.0,meters,OK,2545.0,feet,OK,0.0,mm/hr,OK,1725.0,meters,OK,1653.0,meters,OK,1592.0,meters,OK
2025-01-26T19:38:09.381818,7.3,knots,OK,255.0,degrees,OK,24.8,knots,OK,24.9,°C,OK,14.4,°C,OK,1013.2,hPa,OK,6450.0,meters,OK,1164.0,feet,OK,0.3,mm/hr,OK,1760.0,meters,OK,1715.0,meters,OK,1798.0,meters,OK
2025-01-26T19:38:10.388530,10.3,knots,OK,52.0,degrees,OK,18.2,knots,OK,19.9,°C,OK,16.3,°C,OK,1014.8,hPa,OK,7361.0,meters,OK,2957.0,feet,OK,0.5,mm/hr,OK,1524.0,meters,OK,1738.0,meters,OK,1501.0,meters,OK
2025-01-26T19:38:11.394987,13.7,knots,OK,47.0,degrees,OK,14.6,knots,OK,24.9,°C,OK,14.1,°C,OK,1013.4,hPa,OK,6515.0,meters,OK,1969.0,feet,OK,0.1,mm/hr,OK,1995.0,meters,OK,1658.0,meters,OK,1887.0,meters,OK
2025-01-26T19:38:12.402470,8.3,knots,OK,357.0,degrees,OK,12.2,knots,OK,19.3,°C,OK,11.9,°C,OK,1013.1,hPa,OK,9426.0,meters,OK,2204.0,feet,OK,0.2,mm/hr,OK,1654.0,meters,OK,1724.0,meters,OK,1542.0,meters,OK
2025-01-26T19:38:13.408118,9.1,knots,OK,291.0,degrees,OK,13.8,knots,OK,16.4,°C,OK,10.6,°C,OK,1014.1,hPa,OK,5984.0,meters,OK,1336.0,feet,OK,0.2,mm/hr,OK,1893.0,meters,OK,1815.0,meters,OK,1785.0,meters,OK
2025-01-26T19:38:14.413480,14.9,knots,OK,340.0,degrees,OK,20.1,knots,OK,24.0,°C,OK,14.6,°C,OK,1014.2,hPa,OK,5030.0,meters,OK,1686.0,feet,OK,0.2,mm/hr,OK,1870.0,meters,OK,1784.0,meters,OK,1928.0,meters,OK
2025-01-26T19:38:15.420115,9.2,knots,OK,165.0,degrees,OK,18.2,knots,OK,24.8,°C,OK,13.6,°C,OK,1014.0,hPa,OK,8962.0,meters,OK,2299.0,feet,OK,0.2,mm/hr,OK,1835.0,meters,OK,1538.0,meters,OK,1920.0,meters,OK
2025-01-26T19:38:16.426553,5.1,knots,OK,161.0,degrees,OK,21.8,knots,OK,24.5,°C,OK,11.0,°C,OK,1014.3,hPa,OK,7705.0,meters,OK,2466.0,feet,OK,0.2,mm/hr,OK,1794.0,meters,OK,1975.0,meters,OK,1643.0,meters,OK
2025-01-26T19:38:17.433396,14.0,knots,OK,86.0,degrees,OK,10.4,knots,OK,22.4,°C,OK,17.3,°C,OK,1013.0,hPa,OK,7298.0,meters,OK,1640.0,feet,OK,0.0,mm/hr,OK,1847.0,meters,OK,1697.0,meters,OK,1955.0,meters,OK
2025-01-26T19:38:18.440427,11.4,knots,OK,269.0,degrees,OK,24.8,knots,OK,21.0,°C,OK,10.7,°C,OK,1013.7,hPa,OK,8666.0,meters,OK,2182.0,feet,OK,0.2,mm/hr,OK,1516.0,meters,OK,1803.0,meters,OK,1553.0,meters,OK
2025-01-26T19:38:19.446790,10.4,knots,OK,347.0,degrees,OK,16.2,knots,OK,24.0,°C,OK,17.3,°C,OK,1013.8,hPa,OK,7294.0,meters,OK,1925.0,feet,OK,0.0,mm/hr,OK,1764.0,meters,OK,1941.0,meters,OK,1943.0,meters,OK
2025-01-26T19:38:20.454246,11.1,knots,OK,324.0,degrees,OK,20.4,knots,OK,23.1,°C,OK,13.7,°C,OK,1013.5,hPa,OK,8718.0,meters,OK,1930.0,feet,OK,0.1,mm/hr,OK,1598.0,meters,OK,1729.0,meters,OK,1610.0,meters,OK
2025-01-26T19:38:21.460987,10.2,knots,OK,80.0,degrees,OK,24.9,knots,OK,23.8,°C,OK,10.4,°C,OK,1014.5,hPa,OK,7492.0,meters,OK,2397.0,feet,OK,0.4,mm/hr,OK,1749.0,meters,OK,1649.0,meters,OK,1867.0,meters,OK
2025-01-26T19:38:22.466992,11.3,knots,OK,43.0,degrees,OK,15.5,knots,OK,21.2,°C,OK,18.8,°C,OK,1013.3,hPa,OK,6409.0,meters,OK,2183.0,feet,OK,0.4,mm/hr,OK,1871.0,meters,OK,1770.0,meters,OK,1974.0,meters,OK
2025-01-26T19:38:23.473440,14.9,knots,OK,32.0,degrees,OK,13.8,knots,OK,17.5,°C,OK,18.8,°C,OK,1014.9,hPa,OK,9202.0,meters,OK,1684.0,feet,OK,0.4,mm/hr,OK,1672.0,meters,OK,1597.0,meters,OK,1754.0,meters,OK
2025-01-26T19:38:24.480387,8.1,knots,OK,107.0,degrees,OK,14.0,knots,OK,17.2,°C,OK,13.2,°C,OK,1015.0,hPa,OK,9240.0,meters,OK,1820.0,feet,OK,0.4,mm/hr,OK,1946.0,meters,OK,1595.0,meters,OK,1663.0,meters,OK
2025-01-26T19:38:25.487208,10.6,knots,OK,50.0,degrees,OK,15.5,knots,OK,18.5,°C,OK,17.7,°C,OK,1014.4,hPa,OK,5826.0,meters,OK,1944.0,feet,OK,0.4,mm/hr,OK,1735.0,meters,OK,1890.0,meters,OK,1754.0,meters,OK
2025-01-26T19:38:26.492895,10.1,knots,OK,346.0,degrees,OK,21.4,knots,OK,16.7,°C,OK,15.8,°C,OK,1014.3,hPa,OK,9327.0,meters,OK,1948.0,feet,OK,0.5,mm/hr,OK,1919.0,meters,OK,1673.0,meters,OK,1981.0,meters,OK
2025-01-26T19:38:27.498976,11.0,knots,OK,212.0,degrees,OK,10.1,knots,OK,17.9,°C,OK,19.7,°C,OK,1013.3,hPa,OK,8965.0,meters,OK,2217.0,feet,OK,0.1,mm/hr,OK,1937.0,meters,OK,1949.0,meters,OK,1852.0,meters,OK
2025-01-26T19:38:28.504879,6.6,knots,OK,82.0,degrees,OK,14.6,knots,OK,16.3,°C,OK,10.9,°C,OK,1014.6,hPa,OK,8431.0,meters,OK,1569.0,feet,OK,0.1,mm/hr,OK,1951.0,meters,OK,1952.0,meters,OK,1625.0,meters,OK
2025-01-26T19:38:29.512411,8.1,knots,OK,173.0,degrees,OK,19.1,knots,OK,15.2,°C,OK,16.3,°C,OK,1013.0,hPa,OK,9621.0,meters,OK,2309.0,feet,OK,0.4,mm/hr,OK,1684.0,meters,OK,1991.0,meters,OK,1842.0,meters,OK
2025-01-26T19:38:30.519584,7.9,knots,OK,254.0,degrees,OK,22.9,knots,OK,20.1,°C,OK,19.4,°C,OK,1014.4,hPa,OK,7314.0,meters,OK,1269.0,feet,OK,0.0,mm/hr,OK,1955.0,meters,OK,1880.0,meters,OK,1788.0,meters,OK
2025-01-26T19:38:31.527044,10.5,knots,OK,295.0,degrees,OK,16.2,knots,OK,16.1,°C,OK,12.0,°C,OK,1013.5,hPa,OK,5518.0,meters,OK,1372.0,feet,OK,0.5,mm/hr,OK,1813.0,meters,OK,1558.0,meters,OK,1738.0,meters,OK
2025-01-26T19:38:32.532235,5.1,knots,OK,276.0,degrees,OK,23.7,knots,OK,20.6,°C,OK,15.5,°C,OK,1014.9,hPa,OK,6167.0,meters,OK,2809.0,feet,OK,0.1,mm/hr,OK,1835.0,meters,OK,1681.0,meters,OK,1809.0,meters,OK
2025-01-26T19:38:33.539285,14.1,knots,OK,4.0,degrees,OK,18.1,knots,OK,21.8,°C,OK,12.9,°C,OK,1014.3,hPa,OK,6605.0,meters,OK,2673.0,feet,OK,0.2,mm/hr,OK,1584.0,meters,OK,1847.0,meters,OK,1501.0,meters,OK
2025-01-26T19:38:34.546739,5.1,knots,OK,15.0,degrees,OK,17.7,knots,OK,22.2,°C,OK,12.6,°C,OK,1013.5,hPa,OK,8481.0,meters,OK,1310.0,feet,OK,0.0,mm/hr,OK,1733.0,meters,OK,1739.0,meters,OK,1919.0,meters,OK
2025-01-26T19:38:35.553380,15.0,knots,OK,193.0,degrees,OK,14.9,knots,OK,20.0,°C,OK,19.7,°C,OK,1013.1,hPa,OK,8355.0,meters,OK,1563.0,feet,OK,0.1,mm/hr,OK,1660.0,meters,OK,1768.0,meters,OK,1723.0,meters,OK
2025-01-26T19:38:36.560574,8.9,knots,OK,107.0,degrees,OK,24.4,knots,OK,21.7,°C,OK,13.3,°C,OK,1014.2,hPa,OK,5261.0,meters,OK,1520.0,feet,OK,0.1,mm/hr,OK,1930.0,meters,OK,1731.0,meters,OK,1906.0,meters,OK
2025-01-26T19:38:37.567881,7.9,knots,OK,51.0,degrees,OK,13.1,knots,OK,24.4,°C,OK,11.8,°C,OK,1014.6,hPa,OK,8320.0,meters,OK,2179.0,feet,OK,0.4,mm/hr,OK,1780.0,meters,OK,1739.0,meters,OK,1553.0,meters,OK
2025-01-26T19:38:38.573214,13.6,knots,OK,336.0,degrees,OK,14.1,knots,OK,23.7,°C,OK,18.6,°C,OK,1013.0,hPa,OK,9661.0,meters,OK,1587.0,feet,OK,0.3,mm/hr,OK,1817.0,meters,OK,1794.0,meters,OK,1588.0,meters,OK
2025-01-26T19:38:39.580610,6.7,knots,OK,341.0,degrees,OK,13.0,knots,OK,23.4,°C,OK,10.1,°C,OK,1013.9,hPa,OK,8938.0,meters,OK,2665.0,feet,OK,0.1,mm/hr,OK,1530.0,meters,OK,1787.0,meters,OK,1771.0,meters,OK
2025-01-26T19:38:40.587495,5.6,knots,OK,195.0,degrees,OK,18.1,knots,OK,24.7,°C,OK,15.1,°C,OK,1014.3,hPa,OK,6838.0,meters,OK,1961.0,feet,OK,0.5,mm/hr,OK,1778.0,meters,OK,1653.0,meters,OK,1506.0,meters,OK
2025-01-26T19:38:41.595036,13.3,knots,OK,246.0,degrees,OK,20.1,knots,OK,21.9,°C,OK,18.6,°C,OK,1013.6,hPa,OK,9343.0,meters,OK,2809.0,feet,OK,0.4,mm/hr,OK,1715.0,meters,OK,1606.0,meters,OK,1660.0,meters,OK
2025-01-26T19:38:42.600510,7.9,knots,OK,264.0,degrees,OK,21.2,knots,OK,15.9,°C,OK,10.8,°C,OK,1013.5,hPa,OK,5772.0,meters,OK,1266.0,feet,OK,0.4,mm/hr,OK,1975.0,meters,OK,1565.0,meters,OK,1954.0,meters,OK
2025-01-26T19:38:43.607911,14.7,knots,OK,219.0,degrees,OK,19.3,knots,OK,20.1,°C,OK,11.3,°C,OK,1013.3,hPa,OK,8191.0,meters,OK,1431.0,feet,OK,0.1,mm/hr,OK,1920.0,meters,OK,1838.0,meters,OK,1829.0,meters,OK
2025-01-26T19:38:44.615101,6.5,knots,OK,317.0,degrees,OK,17.8,knots,OK,16.9,°C,OK,12.0,°C,OK,1013.3,hPa,OK,8561.0,meters,OK,2210.0,feet,OK,0.4,mm/hr,OK,1928.0,meters,OK,1547.0,meters,OK,1941.0,meters,OK
2025-01-26T19:38:45.622040,13.6,knots,OK,346.0,degrees,OK,23.1,knots,OK,21.2,°C,OK,16.5,°C,OK,1013.0,hPa,OK,7246.0,meters,OK,1975.0,feet,OK,0.3,mm/hr,OK,1583.0,meters,OK,1991.0,meters,OK,1745.0,meters,OK
2025-01-26T19:38:46.629860,11.7,knots,OK,145.0,degrees,OK,16.1,knots,OK,16.6,°C,OK,17.4,°C,OK,1013.4,hPa,OK,5894.0,meters,OK,1333.0,feet,OK,0.1,mm/hr,OK,1611.0,meters,OK,1547.0,meters,OK,1928.0,meters,OK
2025-01-26T19:38:47.637907,13.9,knots,OK,201.0,degrees,OK,12.1,knots,OK,15.1,°C,OK,16.8,°C,OK,1014.1,hPa,OK,5079.0,meters,OK,1927.0,feet,OK,0.0,mm/hr,OK,1588.0,meters,OK,1942.0,meters,OK,1929.0,meters,OK
2025-01-26T19:38:48.645974,11.1,knots,OK,164.0,degrees,OK,16.3,knots,OK,21.1,°C,OK,13.8,°C,OK,1013.9,hPa,OK,5279.0,meters,OK,2502.0,feet,OK,0.4,mm/hr,OK,1872.0,meters,OK,1899.0,meters,OK,1948.0,meters,OK
2025-01-26T19:38:49.653366,5.8,knots,OK,274.0,degrees,OK,14.6,knots,OK,16.7,°C,OK,13.8,°C,OK,1014.7,hPa,OK,9131.0,meters,OK,2361.0,feet,OK,0.5,mm/hr,OK,1926.0,meters,OK,1776.0,meters,OK,1984.0,meters,OK
2025-01-26T19:38:50.670697,11.3,knots,OK,40.0,degrees,OK,15.5,knots,OK,19.8,°C,OK,12.2,°C,OK,1014.8,hPa,OK,8402.0,meters,OK,2375.0,feet,OK,0.2,mm/hr,OK,1907.0,meters,OK,1632.0,meters,OK,1718.0,meters,OK
2025-01-26T19:38:51.677966,14.0,knots,OK,201.0,degrees,OK,15.8,knots,OK,23.1,°C,OK,12.1,°C,OK,1014.7,hPa,OK,7042.0,meters,OK,1330.0,feet,OK,0.0,mm/hr,OK,1530.0,meters,OK,1817.0,meters,OK,1812.0,meters,OK
2025-01-26T19:38:52.684509,11.4,knots,OK,322.0,degrees,OK,13.0,knots,OK,24.8,°C,OK,17.7,°C,OK,1013.4,hPa,OK,5822.0,meters,OK,1695.0,feet,OK,0.2,mm/hr,OK,1906.0,meters,OK,1737.0,meters,OK,1806.0,meters,OK
2025-01-26T19:38:53.692375,13.9,knots,OK,17.0,degrees,OK,24.5,knots,OK,23.0,°C,OK,19.4,°C,OK,1015.0,hPa,OK,5305.0,meters,OK,2436.0,feet,OK,0.0,mm/hr,OK,1558.0,meters,OK,1784.0,meters,OK,1622.0,meters,OK
2025-01-26T19:38:54.699823,9.3,knots,OK,41.0,degrees,OK,12.2,knots,OK,17.3,°C,OK,18.3,°C,OK,1013.9,hPa,OK,7612.0,meters,OK,2300.0,feet,OK,0.3,mm/hr,OK,1826.0,meters,OK,1814.0,meters,OK,1694.0,meters,OK
2025-01-26T19:38:55.706974,9.0,knots,OK,95.0,degrees,OK,16.8,knots,OK,19.5,°C,OK,19.6,°C,OK,1014.9,hPa,OK,9628.0,meters,OK,1606.0,feet,OK,0.3,mm/hr,OK,1747.0,meters,OK,1959.0,meters,OK,1788.0,meters,OK
2025-01-26T19:38:56.713406,8.5,knots,OK,143.0,degrees,OK,18.2,knots,OK,15.4,°C,OK,19.0,°C,OK,1014.7,hPa,OK,7435.0,meters,OK,2204.0,feet,OK,0.2,mm/hr,OK,1984.0,meters,OK,1907.0,meters,OK,1905.0,meters,OK
2025-01-26T19:38:57.720755,5.4,knots,OK,151.0,degrees,OK,19.4,knots,OK,21.9,°C,OK,19.9,°C,OK,1014.8,hPa,OK,6892.0,meters,OK,1385.0,feet,OK,0.4,mm/hr,OK,1989.0,meters,OK,1810.0,meters,OK,1767.0,meters,OK
2025-01-26T19:38:58.728120,11.1,knots,OK,12.0,degrees,OK,15.0,knots,OK,17.1,°C,OK,19.4,°C,OK,1014.1,hPa,OK,8016.0,meters,OK,1900.0,feet,OK,0.5,mm/hr,OK,1828.0,meters,OK,1540.0,meters,OK,1816.0,meters,OK
2025-01-26T19:38:59.735670,12.5,knots,OK,224.0,degrees,OK,12.8,knots,OK,22.8,°C,OK,11.1,°C,OK,1013.5,hPa,OK,9448.0,meters,OK,2405.0,feet,OK,0.1,mm/hr,OK,1923.0,meters,OK,1861.0,meters,OK,1806.0,meters,OK
2025-01-26T19:39:00.742991,6.9,knots,OK,355.0,degrees,OK,11.2,knots,OK,19.4,°C,OK,15.1,°C,OK,1013.1,hPa,OK,6849.0,meters,OK,2047.0,feet,OK,0.2,mm/hr,OK,1758.0,meters,OK,1946.0,meters,OK,1825.0,meters,OK
2025-01-26T19:39:01.749921,6.4,knots,OK,167.0,degrees,OK,13.8,knots,OK,17.4,°C,OK,17.0,°C,OK,1013.6,hPa,OK,6875.0,meters,OK,1308.0,feet,OK,0.1,mm/hr,OK,1724.0,meters,OK,1758.0,meters,OK,1556.0,meters,OK
2025-01-26T19:39:02.757780,10.1,knots,OK,124.0,degrees,OK,15.6,knots,OK,21.9,°C,OK,12.8,°C,OK,1014.1,hPa,OK,8120.0,meters,OK,2928.0,feet,OK,0.3,mm/hr,OK,1579.0,meters,OK,1939.0,meters,OK,1921.0,meters,OK
2025-01-26T19:39:03.765420,10.9,knots,OK,76.0,degrees,OK,16.8,knots,OK,18.4,°C,OK,18.5,°C,OK,1013.5,hPa,OK,8557.0,meters,OK,1789.0,feet,OK,0.2,mm/hr,OK,1806.0,meters,OK,1769.0,meters,OK,1761.0,meters,OK
2025-01-26T19:39:04.773223,7.5,knots,OK,2.0,degrees,OK,20.5,knots,OK,21.1,°C,OK,14.6,°C,OK,1013.0,hPa,OK,8801.0,meters,OK,2134.0,feet,OK,0.4,mm/hr,OK,1895.0,meters,OK,1858.0,meters,OK,1889.0,meters,OK
2025-01-26T19:39:05.781476,11.9,knots,OK,116.0,degrees,OK,13.0,knots,OK,21.7,°C,OK,14.8,°C,OK,1014.7,hPa,OK,9283.0,meters,OK,2799.0,feet,OK,0.2,mm/hr,OK,1654.0,meters,OK,1702.0,meters,OK,1512.0,meters,OK
2025-01-26T19:39:06.787961,9.3,knots,OK,28.0,degrees,OK,17.6,knots,OK,18.3,°C,OK,15.5,°C,OK,1013.4,hPa,OK,7566.0,meters,OK,1607.0,feet,OK,0.5,mm/hr,OK,1672.0,meters,OK,1920.0,meters,OK,1927.0,meters,OK
2025-01-26T19:39:07.796210,9.6,knots,OK,18.0,degrees,OK,12.7,knots,OK,21.4,°C,OK,16.4,°C,OK,1014.4,hPa,OK,5154.0,meters,OK,2289.0,feet,OK,0.4,mm/hr,OK,1541.0,meters,OK,1570.0,meters,OK,1990.0,meters,OK
2025-01-26T19:39:08.804463,6.3,knots,OK,334.0,degrees,OK,19.8,knots,OK,23.5,°C,OK,17.4,°C,OK,1014.7,hPa,OK,8414.0,meters,OK,1341.0,feet,OK,0.4,mm/hr,OK,1700.0,meters,OK,1701.0,meters,OK,1625.0,meters,OK
2025-01-26T19:39:09.810426,11.3,knots,OK,110.0,degrees,OK,18.8,knots,OK,21.8,°C,OK,11.8,°C,OK,1013.8,hPa,OK,9490.0,meters,OK,1124.0,feet,OK,0.0,mm/hr,OK,1719.0,meters,OK,1725.0,meters,OK,1528.0,meters,OK
2025-01-26T19:39:10.819001,6.8,knots,OK,226.0,degrees,OK,21.4,knots,OK,20.4,°C,OK,13.4,°C,OK,1013.6,hPa,OK,5211.0,meters,OK,2625.0,feet,OK,0.2,mm/hr,OK,1746.0,meters,OK,1771.0,meters,OK,1942.0,meters,OK
2025-01-26T19:39:11.822700,11.9,knots,OK,34.0,degrees,OK,24.9,knots,OK,22.6,°C,OK,18.4,°C,OK,1013.3,hPa,OK,9721.0,meters,OK,1140.0,feet,OK,0.0,mm/hr,OK,1991.0,meters,OK,1672.0,meters,OK,1504.0,meters,OK
2025-01-26T19:39:12.825890,13.2,knots,OK,80.0,degrees,OK,15.8,knots,OK,24.4,°C,OK,10.3,°C,OK,1014.1,hPa,OK,5300.0,meters,OK,2589.0,feet,OK,0.3,mm/hr,OK,1896.0,meters,OK,1830.0,meters,OK,1607.0,meters,OK
2025-01-26T19:39:13.830392,5.3,knots,OK,189.0,degrees,OK,11.3,knots,OK,15.6,°C,OK,14.1,°C,OK,1014.3,hPa,OK,8299.0,meters,OK,1540.0,feet,OK,0.3,mm/hr,OK,1842.0,meters,OK,1614.0,meters,OK,1582.0,meters,OK
2025-01-26T19:39:14.834746,12.4,knots,OK,107.0,degrees,OK,12.9,knots,OK,24.3,°C,OK,11.7,°C,OK,1013.5,hPa,OK,6062.0,meters,OK,2004.0,feet,OK,0.2,mm/hr,OK,1816.0,meters,OK,1531.0,meters,OK,1985.0,meters,OK
2025-01-26T19:39:15.838726,9.5,knots,OK,200.0,degrees,OK,24.7,knots,OK,17.6,°C,OK,18.6,°C,OK,1014.5,hPa,OK,6579.0,meters,OK,1493.0,feet,OK,0.4,mm/hr,OK,1853.0,meters,OK,1750.0,meters,OK,1985.0,meters,OK
2025-01-26T19:39:16.843070,9.2,knots,OK,17.0,degrees,OK,19.1,knots,OK,22.1,°C,OK,11.6,°C,OK,1014.9,hPa,OK,7242.0,meters,OK,1692.0,feet,OK,0.4,mm/hr,OK,1784.0,meters,OK,1743.0,meters,OK,1967.0,meters,OK
2025-01-26T19:39:17.847964,6.6,knots,OK,129.0,degrees,OK,22.7,knots,OK,16.8,°C,OK,11.9,°C,OK,1013.7,hPa,OK,5065.0,meters,OK,1841.0,feet,OK,0.4,mm/hr,OK,1766.0,meters,OK,1650.0,meters,OK,1998.0,meters,OK
2025-01-26T19:39:18.852071,10.6,knots,OK,136.0,degrees,OK,10.0,knots,OK,21.4,°C,OK,12.1,°C,OK,1014.6,hPa,OK,6286.0,meters,OK,2958.0,feet,OK,0.2,mm/hr,OK,1592.0,meters,OK,1534.0,meters,OK,1807.0,meters,OK
2025-01-26T19:39:19.855122,14.2,knots,OK,18.0,degrees,OK,18.6,knots,OK,23.9,°C,OK,11.6,°C,OK,1013.2,hPa,OK,6938.0,meters,OK,2950.0,feet,OK,0.3,mm/hr,OK,1593.0,meters,OK,1969.0,meters,OK,1817.0,meters,OK
2025-01-26T19:39:20.858505,13.1,knots,OK,1.0,degrees,OK,21.0,knots,OK,16.0,°C,OK,13.4,°C,OK,1013.7,hPa,OK,8311.0,meters,OK,1997.0,feet,OK,0.3,mm/hr,OK,1828.0,meters,OK,1719.0,meters,OK,1745.0,meters,OK
2025-01-26T19:39:21.861937,8.0,knots,OK,186.0,degrees,OK,14.3,knots,OK,22.7,°C,OK,13.8,°C,OK,1014.5,hPa,OK,8594.0,meters,OK,2194.0,feet,OK,0.0,mm/hr,OK,1635.0,meters,OK,1865.0,meters,OK,1598.0,meters,OK
2025-01-26T19:39:22.865810,12.9,knots,OK,263.0,degrees,OK,17.2,knots,OK,22.0,°C,OK,19.4,°C,OK,1013.3,hPa,OK,9033.0,meters,OK,1873.0,feet,OK,0.3,mm/hr,OK,1655.0,meters,OK,1726.0,meters,OK,1744.0,meters,OK
2025-01-26T19:39:23.869867,11.3,knots,OK,180.0,degrees,OK,21.5,knots,OK,15.7,°C,OK,19.4,°C,OK,1013.5,hPa,OK,7907.0,meters,OK,1994.0,feet,OK,0.1,mm/hr,OK,1852.0,meters,OK,1583.0,meters,OK,1589.0,meters,OK
2025-01-26T19:39:24.873574,7.0,knots,OK,193.0,degrees,OK,14.0,knots,OK,20.3,°C,OK,15.0,°C,OK,1013.1,hPa,OK,9384.0,meters,OK,1768.0,feet,OK,0.1,mm/hr,OK,1748.0,meters,OK,1976.0,meters,OK,1904.0,meters,OK
2025-01-26T19:39:25.878027,8.2,knots,OK,109.0,degrees,OK,23.8,knots,OK,22.1,°C,OK,12.0,°C,OK,1014.2,hPa,OK,8856.0,meters,OK,1539.0,feet,OK,0.2,mm/hr,OK,1753.0,meters,OK,1622.0,meters,OK,1817.0,meters,OK
2025-01-26T19:39:26.881950,14.9,knots,OK,83.0,degrees,OK,19.5,knots,OK,20.7,°C,OK,12.2,°C,OK,1014.6,hPa,OK,6255.0,meters,OK,1229.0,feet,OK,0.3,mm/hr,OK,1883.0,meters,OK,1587.0,meters,OK,1503.0,meters,OK
2025-01-26T19:39:27.885628,10.3,knots,OK,123.0,degrees,OK,23.9,knots,OK,21.5,°C,OK,19.7,°C,OK,1014.5,hPa,OK,6643.0,meters,OK,1351.0,feet,OK,0.4,mm/hr,OK,1865.0,meters,OK,1887.0,meters,OK,1603.0,meters,OK
2025-01-26T19:39:28.889951,13.2,knots,OK,201.0,degrees,OK,18.8,knots,OK,21.0,°C,OK,16.2,°C,OK,1014.6,hPa,OK,7477.0,meters,OK,2245.0,feet,OK,0.4,mm/hr,OK,1954.0,meters,OK,1742.0,meters,OK,1667.0,meters,OK
2025-01-26T19:39:29.893795,10.9,knots,OK,284.0,degrees,OK,19.1,knots,OK,20.0,°C,OK,18.9,°C,OK,1014.5,hPa,OK,8713.0,meters,OK,1038.0,feet,OK,0.3,mm/hr,OK,1517.0,meters,OK,1584.0,meters,OK,1710.0,meters,OK
2025-01-26T19:39:30.898463,9.8,knots,OK,49.0,degrees,OK,17.8,knots,OK,15.0,°C,OK,17.8,°C,OK,1013.4,hPa,OK,8694.0,meters,OK,1012.0,feet,OK,0.2,mm/hr,OK,1849.0,meters,OK,1575.0,meters,OK,1626.0,meters,OK
2025-01-26T19:39:31.902340,10.8,knots,OK,187.0,degrees,OK,19.8,knots,OK,19.6,°C,OK,17.4,°C,OK,1013.7,hPa,OK,7381.0,meters,OK,2484.0,feet,OK,0.4,mm/hr,OK,1863.0,meters,OK,1937.0,meters,OK,1645.0,meters,OK
2025-01-26T19:39:32.906680,7.8,knots,OK,92.0,degrees,OK,19.5,knots,OK,21.4,°C,OK,18.0,°C,OK,1014.1,hPa,OK,6721.0,meters,OK,2351.0,feet,OK,0.4,mm/hr,OK,1975.0,meters,OK,1532.0,meters,OK,1603.0,meters,OK
2025-01-26T19:39:33.911271,7.4,knots,OK,102.0,degrees,OK,20.6,knots,OK,22.6,°C,OK,16.4,°C,OK,1014.2,hPa,OK,5446.0,meters,OK,1058.0,feet,OK,0.5,mm/hr,OK,1767.0,meters,OK,1880.0,meters,OK,1738.0,meters,OK
2025-01-26T19:39:34.914553,12.9,knots,OK,82.0,degrees,OK,23.5,knots,OK,24.5,°C,OK,19.5,°C,OK,1014.8,hPa,OK,9503.0,meters,OK,1498.0,feet,OK,0.2,mm/hr,OK,1934.0,meters,OK,1975.0,meters,OK,1713.0,meters,OK
2025-01-26T19:39:35.917783,5.4,knots,OK,294.0,degrees,OK,16.8,knots,OK,17.5,°C,OK,11.5,°C,OK,1014.7,hPa,OK,7628.0,meters,OK,2282.0,feet,OK,0.3,mm/hr,OK,1626.0,meters,OK,1558.0,meters,OK,1705.0,meters,OK
2025-01-26T19:39:36.922413,9.7,knots,OK,347.0,degrees,OK,18.6,knots,OK,17.6,°C,OK,11.7,°C,OK,1013.8,hPa,OK,6495.0,meters,OK,2682.0,feet,OK,0.2,mm/hr,OK,1769.0,meters,OK,1837.0,meters,OK,1845.0,meters,OK
2025-01-26T19:39:37.926756,8.7,knots,OK,58.0,degrees,OK,10.6,knots,OK,16.7,°C,OK,15.5,°C,OK,1013.5,hPa,OK,7144.0,meters,OK,1875.0,feet,OK,0.0,mm/hr,OK,1598.0,meters,OK,1928.0,meters,OK,1981.0,meters,OK
2025-01-26T19:39:38.931114,14.8,knots,OK,64.0,degrees,OK,25.0,knots,OK,21.5,°C,OK,19.3,°C,OK,1014.0,hPa,OK,9220.0,meters,OK,1098.0,feet,OK,0.1,mm/hr,OK,1572.0,meters,OK,1598.0,meters,OK,1835.0,meters,OK
2025-01-26T19:39:39.935939,8.3,knots,OK,330.0,degrees,OK,21.4,knots,OK,19.4,°C,OK,17.1,°C,OK,1013.3,hPa,OK,5003.0,meters,OK,1466.0,feet,OK,0.2,mm/hr,OK,1736.0,meters,OK,1734.0,meters,OK,1802.0,meters,OK
2025-01-26T19:39:40.940968,11.2,knots,OK,214.0,degrees,OK,16.6,knots,OK,15.7,°C,OK,17.1,°C,OK,1014.8,hPa,OK,6771.0,meters,OK,2427.0,feet,OK,0.0,mm/hr,OK,1518.0,meters,OK,1940.0,meters,OK,1621.0,meters,OK
2025-01-26T19:39:41.945099,5.9,knots,OK,356.0,degrees,OK,19.7,knots,OK,18.7,°C,OK,16.0,°C,OK,1014.1,hPa,OK,5091.0,meters,OK,2229.0,feet,OK,0.4,mm/hr,OK,1674.0,meters,OK,1562.0,meters,OK,1845.0,meters,OK
2025-01-26T19:39:42.950086,10.1,knots,OK,238.0,degrees,OK,14.2,knots,OK,17.7,°C,OK,15.9,°C,OK,1014.4,hPa,OK,5940.0,meters,OK,1862.0,feet,OK,0.4,mm/hr,OK,2000.0,meters,OK,1985.0,meters,OK,1875.0,meters,OK
2025-01-26T19:39:43.954825,6.8,knots,OK,101.0,degrees,OK,15.7,knots,OK,17.8,°C,OK,15.9,°C,OK,1013.5,hPa,OK,9430.0,meters,OK,1880.0,feet,OK,0.1,mm/hr,OK,1982.0,meters,OK,1897.0,meters,OK,1799.0,meters,OK
2025-01-26T19:39:44.958634,10.2,knots,OK,211.0,degrees,OK,15.5,knots,OK,16.7,°C,OK,13.6,°C,OK,1013.5,hPa,OK,8260.0,meters,OK,1275.0,feet,OK,0.5,mm/hr,OK,1679.0,meters,OK,1667.0,meters,OK,1560.0,meters,OK
2025-01-26T19:39:45.961609,6.3,knots,OK,137.0,degrees,OK,10.8,knots,OK,17.3,°C,OK,12.1,°C,OK,1014.2,hPa,OK,8300.0,meters,OK,1789.0,feet,OK,0.1,mm/hr,OK,1627.0,meters,OK,1882.0,meters,OK,1603.0,meters,OK
2025-01-26T19:39:46.971814,13.6,knots,OK,255.0,degrees,OK,23.7,knots,OK,20.5,°C,OK,14.1,°C,OK,1013.5,hPa,OK,7294.0,meters,OK,2542.0,feet,OK,0.1,mm/hr,OK,1698.0,meters,OK,1684.0,meters,OK,1823.0,meters,OK
2025-01-26T19:39:47.976789,12.1,knots,OK,66.0,degrees,OK,14.9,knots,OK,15.9,°C,OK,13.1,°C,OK,1013.2,hPa,OK,6773.0,meters,OK,2730.0,feet,OK,0.3,mm/hr,OK,1963.0,meters,OK,1861.0,meters,OK,1779.0,meters,OK
2025-01-26T19:39:48.981192,11.7,knots,OK,101.0,degrees,OK,23.7,knots,OK,24.3,°C,OK,18.0,°C,OK,1014.5,hPa,OK,6329.0,meters,OK,1952.0,feet,OK,0.4,mm/hr,OK,1696.0,meters,OK,1688.0,meters,OK,1978.0,meters,OK
2025-01-26T19:39:49.985927,13.8,knots,OK,16.0,degrees,OK,21.7,knots,OK,19.6,°C,OK,19.0,°C,OK,1013.8,hPa,OK,5070.0,meters,OK,1637.0,feet,OK,0.3,mm/hr,OK,1913.0,meters,OK,1875.0,meters,OK,1740.0,meters,OK
2025-01-26T19:39:50.990116,14.5,knots,OK,104.0,degrees,OK,16.5,knots,OK,16.4,°C,OK,11.2,°C,OK,1014.0,hPa,OK,8460.0,meters,OK,1785.0,feet,OK,0.5,mm/hr,OK,1662.0,meters,OK,1774.0,meters,OK,1732.0,meters,OK
2025-01-26T19:39:51.994351,10.9,knots,OK,192.0,degrees,OK,24.8,knots,OK,16.8,°C,OK,11.2,°C,OK,1014.7,hPa,OK,5481.0,meters,OK,1439.0,feet,OK,0.3,mm/hr,OK,1835.0,meters,OK,1554.0,meters,OK,1978.0,meters,OK
2025-01-26T19:39:52.998295,9.0,knots,OK,291.0,degrees,OK,15.1,knots,OK,21.4,°C,OK,18.4,°C,OK,1013.5,hPa,OK,5179.0,meters,OK,1247.0,feet,OK,0.4,mm/hr,OK,1531.0,meters,OK,1691.0,meters,OK,1879.0,meters,OK
2025-01-26T19:39:54.002952,9.1,knots,OK,298.0,degrees,OK,21.2,knots,OK,15.9,°C,OK,18.4,°C,OK,1013.2,hPa,OK,7701.0,meters,OK,1714.0,feet,OK,0.3,mm/hr,OK,1916.0,meters,OK,1826.0,meters,OK,1935.0,meters,OK
2025-01-26T19:39:55.007307,7.2,knots,OK,259.0,degrees,OK,12.1,knots,OK,23.2,°C,OK,16.7,°C,OK,1013.3,hPa,OK,8469.0,meters,OK,1246.0,feet,OK,0.5,mm/hr,OK,1636.0,meters,OK,1501.0,meters,OK,1994.0,meters,OK
2025-01-26T19:39:56.011243,9.5,knots,OK,215.0,degrees,OK,10.8,knots,OK,16.1,°C,OK,17.1,°C,OK,1014.7,hPa,OK,9157.0,meters,OK,1807.0,feet,OK,0.1,mm/hr,OK,1944.0,meters,OK,1847.0,meters,OK,1974.0,meters,OK
2025-01-26T19:39:57.015077,9.3,knots,OK,237.0,degrees,OK,13.6,knots,OK,19.8,°C,OK,15.4,°C,OK,1013.9,hPa,OK,5275.0,meters,OK,1791.0,feet,OK,0.4,mm/hr,OK,1813.0,meters,OK,1761.0,meters,OK,1972.0,meters,OK
2025-01-26T19:39:58.018864,11.9,knots,OK,273.0,degrees,OK,23.6,knots,OK,22.5,°C,OK,12.9,°C,OK,1014.2,hPa,OK,5905.0,meters,OK,1559.0,feet,OK,0.3,mm/hr,OK,1767.0,meters,OK,1923.0,meters,OK,1518.0,meters,OK
2025-01-26T19:39:59.022573,9.5,knots,OK,352.0,degrees,OK,10.9,knots,OK,21.3,°C,OK,12.3,°C,OK,1014.3,hPa,OK,7890.0,meters,OK,2320.0,feet,OK,0.5,mm/hr,OK,1734.0,meters,OK,1650.0,meters,OK,1724.0,meters,OK
2025-01-26T19:40:00.026965,7.7,knots,OK,36.0,degrees,OK,22.3,knots,OK,18.7,°C,OK,15.7,°C,OK,1013.4,hPa,OK,9162.0,meters,OK,2291.0,feet,OK,0.2,mm/hr,OK,1579.0,meters,OK,1858.0,meters,OK,1995.0,meters,OK
2025-01-26T19:40:01.030839,10.2,knots,OK,82.0,degrees,OK,12.4,knots,OK,20.4,°C,OK,14.7,°C,OK,1014.1,hPa,OK,5950.0,meters,OK,1219.0,feet,OK,0.3,mm/hr,OK,1734.0,meters,OK,1563.0,meters,OK,1609.0,meters,OK
2025-01-26T19:40:02.035094,6.0,knots,OK,239.0,degrees,OK,20.4,knots,OK,20.0,°C,OK,15.2,°C,OK,1013.2,hPa,OK,8888.0,meters,OK,2004.0,feet,OK,0.3,mm/hr,OK,1622.0,meters,OK,1742.0,meters,OK,1755.0,meters,OK
2025-01-26T19:40:03.039362,13.7,knots,OK,153.0,degrees,OK,14.5,knots,OK,16.6,°C,OK,11.1,°C,OK,1014.2,hPa,OK,5994.0,meters,OK,2440.0,feet,OK,0.3,mm/hr,OK,1641.0,meters,OK,1746.0,meters,OK,1802.0,meters,OK
2025-01-26T19:40:04.043513,9.3,knots,OK,167.0,degrees,OK,21.7,knots,OK,19.4,°C,OK,16.7,°C,OK,1013.8,hPa,OK,7322.0,meters,OK,2777.0,feet,OK,0.4,mm/hr,OK,1997.0,meters,OK,1601.0,meters,OK,1729.0,meters,OK
2025-01-26T19:40:05.047996,7.0,knots,OK,122.0,degrees,OK,13.4,knots,OK,23.0,°C,OK,17.9,°C,OK,1013.5,hPa,OK,5566.0,meters,OK,1677.0,feet,OK,0.4,mm/hr,OK,1641.0,meters,OK,1676.0,meters,OK,1725.0,meters,OK
2025-01-26T19:40:06.052305,9.8,knots,OK,207.0,degrees,OK,25.0,knots,OK,20.9,°C,OK,17.9,°C,OK,1014.9,hPa,OK,5723.0,meters,OK,1828.0,feet,OK,0.2,mm/hr,OK,1659.0,meters,OK,1872.0,meters,OK,1963.0,meters,OK
2025-01-26T19:40:07.055800,8.5,knots,OK,152.0,degrees,OK,15.2,knots,OK,16.2,°C,OK,17.2,°C,OK,1013.3,hPa,OK,7337.0,meters,OK,2105.0,feet,OK,0.3,mm/hr,OK,1592.0,meters,OK,1887.0,meters,OK,1860.0,meters,OK
2025-01-26T19:40:08.060200,13.2,knots,OK,183.0,degrees,OK,13.6,knots,OK,19.7,°C,OK,17.8,°C,OK,1013.7,hPa,OK,5567.0,meters,OK,1504.0,feet,OK,0.4,mm/hr,OK,1646.0,meters,OK,1744.0,meters,OK,1723.0,meters,OK
2025-01-26T19:40:09.063840,12.1,knots,OK,245.0,degrees,OK,22.5,knots,OK,24.8,°C,OK,16.5,°C,OK,1014.3,hPa,OK,6565.0,meters,OK,1529.0,feet,OK,0.1,mm/hr,OK,1648.0,meters,OK,1585.0,meters,OK,1931.0,meters,OK
2025-01-26T19:40:10.068251,8.4,knots,OK,152.0,degrees,OK,14.8,knots,OK,15.5,°C,OK,15.4,°C,OK,1014.7,hPa,OK,8671.0,meters,OK,1128.0,feet,OK,0.5,mm/hr,OK,1835.0,meters,OK,1866.0,meters,OK,1795.0,meters,OK
2025-01-26T19:40:11.071409,10.6,knots,OK,300.0,degrees,OK,19.7,knots,OK,16.1,°C,OK,15.5,°C,OK,1013.2,hPa,OK,5182.0,meters,OK,1435.0,feet,OK,0.5,mm/hr,OK,1866.0,meters,OK,1525.0,meters,OK,1826.0,meters,OK
2025-01-26T19:40:12.075736,8.6,knots,OK,278.0,degrees,OK,16.4,knots,OK,23.1,°C,OK,19.2,°C,OK,1014.8,hPa,OK,9274.0,meters,OK,1742.0,feet,OK,0.1,mm/hr,OK,1927.0,meters,OK,1636.0,meters,OK,1551.0,meters,OK
2025-01-26T19:40:13.079812,10.2,knots,OK,272.0,degrees,OK,20.6,knots,OK,17.7,°C,OK,10.8,°C,OK,1014.2,hPa,OK,6680.0,meters,OK,1819.0,feet,OK,0.2,mm/hr,OK,1943.0,meters,OK,1658.0,meters,OK,1679.0,meters,OK
2025-01-26T19:40:14.084486,8.2,knots,OK,185.0,degrees,OK,18.9,knots,OK,17.5,°C,OK,11.4,°C,OK,1013.4,hPa,OK,5400.0,meters,OK,2030.0,feet,OK,0.3,mm/hr,OK,1645.0,meters,OK,1598.0,meters,OK,1744.0,meters,OK
2025-01-26T19:40:15.089217,6.2,knots,OK,28.0,degrees,OK,16.0,knots,OK,23.8,°C,OK,17.6,°C,OK,1014.4,hPa,OK,6538.0,meters,OK,1108.0,feet,OK,0.1,mm/hr,OK,1758.0,meters,OK,1969.0,meters,OK,1821.0,meters,OK
2025-01-26T19:40:16.093958,12.1,knots,OK,355.0,degrees,OK,15.2,knots,OK,24.7,°C,OK,14.0,°C,OK,1015.0,hPa,OK,6526.0,meters,OK,2803.0,feet,OK,0.5,mm/hr,OK,1597.0,meters,OK,1635.0,meters,OK,1612.0,meters,OK
2025-01-26T19:40:17.098823,12.9,knots,OK,225.0,degrees,OK,17.8,knots,OK,15.3,°C,OK,19.8,°C,OK,1013.6,hPa,OK,7646.0,meters,OK,1937.0,feet,OK,0.2,mm/hr,OK,1529.0,meters,OK,1945.0,meters,OK,1812.0,meters,OK
2025-01-26T19:40:18.104120,9.2,knots,OK,43.0,degrees,OK,19.9,knots,OK,17.6,°C,OK,16.1,°C,OK,1014.9,hPa,OK,7499.0,meters,OK,2731.0,feet,OK,0.5,mm/hr,OK,1923.0,meters,OK,1964.0,meters,OK,1722.0,meters,OK
2025-01-26T19:40:19.109189,11.1,knots,OK,276.0,degrees,OK,14.2,knots,OK,18.0,°C,OK,15.9,°C,OK,1013.7,hPa,OK,6624.0,meters,OK,1091.0,feet,OK,0.3,mm/hr,OK,1784.0,meters,OK,1786.0,meters,OK,1921.0,meters,OK
2025-01-26T19:40:20.113021,9.2,knots,OK,128.0,degrees,OK,15.2,knots,OK,23.6,°C,OK,11.3,°C,OK,1013.1,hPa,OK,7311.0,meters,OK,1871.0,feet,OK,0.3,mm/hr,OK,1914.0,meters,OK,1550.0,meters,OK,1734.0,meters,OK
2025-01-26T19:40:21.117675,8.2,knots,OK,195.0,degrees,OK,15.2,knots,OK,24.3,°C,OK,16.4,°C,OK,1014.7,hPa,OK,8322.0,meters,OK,1100.0,feet,OK,0.3,mm/hr,OK,1955.0,meters,OK,1770.0,meters,OK,1837.0,meters,OK
2025-01-26T19:40:22.121816,9.4,knots,OK,285.0,degrees,OK,17.8,knots,OK,23.2,°C,OK,16.7,°C,OK,1014.3,hPa,OK,9529.0,meters,OK,1332.0,feet,OK,0.2,mm/hr,OK,1874.0,meters,OK,1916.0,meters,OK,1793.0,meters,OK
2025-01-26T19:40:23.126956,7.7,knots,OK,9.0,degrees,OK,23.6,knots,OK,23.0,°C,OK,19.0,°C,OK,1014.9,hPa,OK,9620.0,meters,OK,2565.0,feet,OK,0.0,mm/hr,OK,1947.0,meters,OK,1685.0,meters,OK,1510.0,meters,OK
2025-01-26T19:40:24.131022,13.7,knots,OK,9.0,degrees,OK,13.1,knots,OK,22.2,°C,OK,15.7,°C,OK,1014.6,hPa,OK,5069.0,meters,OK,2399.0,feet,OK,0.2,mm/hr,OK,1866.0,meters,OK,1927.0,meters,OK,1574.0,meters,OK
2025-01-26T19:40:25.135044,12.4,knots,OK,59.0,degrees,OK,10.6,knots,OK,19.6,°C,OK,19.1,°C,OK,1013.4,hPa,OK,6363.0,meters,OK,2749.0,feet,OK,0.2,mm/hr,OK,1596.0,meters,OK,1695.0,meters,OK,1814.0,meters,OK
2025-01-26T19:40:26.139557,11.2,knots,OK,82.0,degrees,OK,20.4,knots,OK,15.6,°C,OK,13.0,°C,OK,1013.9,hPa,OK,7113.0,meters,OK,1477.0,feet,OK,0.0,mm/hr,OK,1825.0,meters,OK,1765.0,meters,OK,1860.0,meters,OK
2025-01-26T19:40:27.153749,14.4,knots,OK,325.0,degrees,OK,20.2,knots,OK,21.4,°C,OK,12.7,°C,OK,1013.4,hPa,OK,5556.0,meters,OK,1821.0,feet,OK,0.3,mm/hr,OK,1502.0,meters,OK,1815.0,meters,OK,1513.0,meters,OK
2025-01-26T19:40:28.159436,5.8,knots,OK,269.0,degrees,OK,21.7,knots,OK,21.3,°C,OK,15.1,°C,OK,1014.3,hPa,OK,6237.0,meters,OK,2818.0,feet,OK,0.2,mm/hr,OK,1990.0,meters,OK,1945.0,meters,OK,1602.0,meters,OK
2025-01-26T19:40:29.164219,6.4,knots,OK,329.0,degrees,OK,11.3,knots,OK,19.6,°C,OK,18.0,°C,OK,1013.2,hPa,OK,8549.0,meters,OK,2673.0,feet,OK,0.1,mm/hr,OK,1946.0,meters,OK,1501.0,meters,OK,1768.0,meters,OK
2025-01-26T19:40:30.168899,5.9,knots,OK,216.0,degrees,OK,12.3,knots,OK,19.6,°C,OK,11.6,°C,OK,1014.2,hPa,OK,6798.0,meters,OK,2197.0,feet,OK,0.4,mm/hr,OK,1556.0,meters,OK,1604.0,meters,OK,1962.0,meters,OK
2025-01-26T19:40:31.173734,13.1,knots,OK,340.0,degrees,OK,17.8,knots,OK,19.5,°C,OK,11.8,°C,OK,1014.6,hPa,OK,8149.0,meters,OK,2488.0,feet,OK,0.4,mm/hr,OK,1638.0,meters,OK,1852.0,meters,OK,1777.0,meters,OK
2025-01-26T19:40:32.177150,6.3,knots,OK,110.0,degrees,OK,16.0,knots,OK,15.2,°C,OK,14.2,°C,OK,1013.6,hPa,OK,9849.0,meters,OK,2895.0,feet,OK,0.2,mm/hr,OK,1725.0,meters,OK,1538.0,meters,OK,1842.0,meters,OK
2025-01-26T19:40:33.180657,11.4,knots,OK,80.0,degrees,OK,16.1,knots,OK,17.1,°C,OK,14.1,°C,OK,1013.6,hPa,OK,5561.0,meters,OK,2465.0,feet,OK,0.2,mm/hr,OK,1923.0,meters,OK,1942.0,meters,OK,1982.0,meters,OK
2025-01-26T19:40:34.185114,5.4,knots,OK,340.0,degrees,OK,16.2,knots,OK,23.3,°C,OK,10.8,°C,OK,1013.1,hPa,OK,9169.0,meters,OK,2880.0,feet,OK,0.3,mm/hr,OK,1539.0,meters,OK,1930.0,meters,OK,1575.0,meters,OK
2025-01-26T19:40:35.189646,10.2,knots,OK,55.0,degrees,OK,21.1,knots,OK,15.2,°C,OK,16.3,°C,OK,1014.3,hPa,OK,7352.0,meters,OK,1099.0,feet,OK,0.1,mm/hr,OK,1643.0,meters,OK,1980.0,meters,OK,1700.0,meters,OK
2025-01-26T19:40:36.194805,10.6,knots,OK,53.0,degrees,OK,20.3,knots,OK,19.1,°C,OK,17.0,°C,OK,1013.9,hPa,OK,6591.0,meters,OK,1355.0,feet,OK,0.1,mm/hr,OK,1505.0,meters,OK,1947.0,meters,OK,1910.0,meters,OK
2025-01-26T19:40:37.199626,8.5,knots,OK,270.0,degrees,OK,15.7,knots,OK,18.7,°C,OK,11.2,°C,OK,1014.8,hPa,OK,8576.0,meters,OK,1006.0,feet,OK,0.1,mm/hr,OK,1545.0,meters,OK,1628.0,meters,OK,1892.0,meters,OK
2025-01-26T19:40:38.203404,7.0,knots,OK,191.0,degrees,OK,10.3,knots,OK,22.0,°C,OK,10.9,°C,OK,1013.8,hPa,OK,9502.0,meters,OK,2932.0,feet,OK,0.1,mm/hr,OK,1698.0,meters,OK,1501.0,meters,OK,1699.0,meters,OK
2025-01-26T19:40:39.207592,7.4,knots,OK,104.0,degrees,OK,23.3,knots,OK,21.0,°C,OK,18.8,°C,OK,1013.9,hPa,OK,6709.0,meters,OK,1419.0,feet,OK,0.3,mm/hr,OK,1802.0,meters,OK,1892.0,meters,OK,1997.0,meters,OK
2025-01-26T19:40:40.211416,13.9,knots,OK,212.0,degrees,OK,11.4,knots,OK,22.1,°C,OK,19.7,°C,OK,1013.3,hPa,OK,9682.0,meters,OK,2638.0,feet,OK,0.4,mm/hr,OK,1693.0,meters,OK,1924.0,meters,OK,1812.0,meters,OK
2025-01-26T19:40:41.215407,7.0,knots,OK,218.0,degrees,OK,15.2,knots,OK,17.5,°C,OK,11.7,°C,OK,1014.7,hPa,OK,8604.0,meters,OK,2161.0,feet,OK,0.2,mm/hr,OK,1885.0,meters,OK,1518.0,meters,OK,1707.0,meters,OK
2025-01-26T19:40:42.219695,14.9,knots,OK,44.0,degrees,OK,22.3,knots,OK,22.0,°C,OK,10.2,°C,OK,1014.7,hPa,OK,8268.0,meters,OK,1952.0,feet,OK,0.1,mm/hr,OK,1844.0,meters,OK,1805.0,meters,OK,1782.0,meters,OK
2025-01-26T19:40:43.223706,14.9,knots,OK,133.0,degrees,OK,15.2,knots,OK,17.9,°C,OK,11.3,°C,OK,1014.0,hPa,OK,7420.0,meters,OK,2893.0,feet,OK,0.2,mm/hr,OK,1592.0,meters,OK,1650.0,meters,OK,1768.0,meters,OK
2025-01-26T19:40:44.228595,9.2,knots,OK,248.0,degrees,OK,22.5,knots,OK,22.2,°C,OK,11.1,°C,OK,1013.7,hPa,OK,5168.0,meters,OK,2466.0,feet,OK,0.3,mm/hr,OK,1831.0,meters,OK,1760.0,meters,OK,1719.0,meters,OK
2025-01-26T19:40:45.232107,10.8,knots,OK,146.0,degrees,OK,14.2,knots,OK,15.1,°C,OK,15.3,°C,OK,1014.6,hPa,OK,9006.0,meters,OK,1571.0,feet,OK,0.2,mm/hr,OK,1730.0,meters,OK,1578.0,meters,OK,1995.0,meters,OK
2025-01-26T19:40:46.236719,12.8,knots,OK,268.0,degrees,OK,20.7,knots,OK,19.5,°C,OK,15.0,°C,OK,1013.9,hPa,OK,6770.0,meters,OK,2961.0,feet,OK,0.4,mm/hr,OK,1914.0,meters,OK,1756.0,meters,OK,1624.0,meters,OK
2025-01-26T19:40:47.241924,12.3,knots,OK,164.0,degrees,OK,13.9,knots,OK,19.7,°C,OK,15.1,°C,OK,1013.3,hPa,OK,7248.0,meters,OK,2072.0,feet,OK,0.1,mm/hr,OK,1967.0,meters,OK,1695.0,meters,OK,1979.0,meters,OK
2025-01-26T19:40:48.248391,10.4,knots,OK,233.0,degrees,OK,20.1,knots,OK,22.2,°C,OK,16.1,°C,OK,1013.8,hPa,OK,8713.0,meters,OK,2518.0,feet,OK,0.0,mm/hr,OK,1621.0,meters,OK,1633.0,meters,OK,1604.0,meters,OK
2025-01-26T19:40:49.252401,7.0,knots,OK,64.0,degrees,OK,14.5,knots,OK,18.8,°C,OK,16.9,°C,OK,1014.6,hPa,OK,7404.0,meters,OK,1570.0,feet,OK,0.4,mm/hr,OK,1721.0,meters,OK,1727.0,meters,OK,1854.0,meters,OK
2025-01-26T19:40:50.256682,13.8,knots,OK,36.0,degrees,OK,23.1,knots,OK,17.9,°C,OK,15.1,°C,OK,1013.9,hPa,OK,5243.0,meters,OK,2016.0,feet,OK,0.4,mm/hr,OK,1710.0,meters,OK,1557.0,meters,OK,1847.0,meters,OK
2025-01-26T19:40:51.261763,9.5,knots,OK,115.0,degrees,OK,18.0,knots,OK,18.7,°C,OK,17.4,°C,OK,1013.5,hPa,OK,5740.0,meters,OK,1852.0,feet,OK,0.3,mm/hr,OK,1961.0,meters,OK,1721.0,meters,OK,1656.0,meters,OK
2025-01-26T19:40:52.266218,12.1,knots,OK,69.0,degrees,OK,10.1,knots,OK,21.6,°C,OK,15.5,°C,OK,1013.6,hPa,OK,6866.0,meters,OK,2620.0,feet,OK,0.1,mm/hr,OK,1742.0,meters,OK,1679.0,meters,OK,1522.0,meters,OK
2025-01-26T19:40:53.271157,9.4,knots,OK,304.0,degrees,OK,18.2,knots,OK,15.7,°C,OK,19.2,°C,OK,1013.9,hPa,OK,6040.0,meters,OK,2738.0,feet,OK,0.5,mm/hr,OK,1534.0,meters,OK,1550.0,meters,OK,1601.0,meters,OK
2025-01-26T19:40:54.276048,12.1,knots,OK,152.0,degrees,OK,23.2,knots,OK,18.4,°C,OK,17.8,°C,OK,1014.7,hPa,OK,6647.0,meters,OK,1340.0,feet,OK,0.4,mm/hr,OK,1842.0,meters,OK,1657.0,meters,OK,1615.0,meters,OK
2025-01-26T19:40:55.280547,11.9,knots,OK,160.0,degrees,OK,18.9,knots,OK,19.1,°C,OK,18.3,°C,OK,1013.1,hPa,OK,8562.0,meters,OK,2926.0,feet,OK,0.2,mm/hr,OK,1586.0,meters,OK,1669.0,meters,OK,1579.0,meters,OK
2025-01-26T19:40:56.284317,10.7,knots,OK,127.0,degrees,OK,18.3,knots,OK,23.4,°C,OK,19.7,°C,OK,1014.6,hPa,OK,8025.0,meters,OK,2620.0,feet,OK,0.2,mm/hr,OK,1521.0,meters,OK,1808.0,meters,OK,1881.0,meters,OK
2025-01-26T19:40:57.287182,8.6,knots,OK,141.0,degrees,OK,24.3,knots,OK,16.8,°C,OK,11.3,°C,OK,1013.3,hPa,OK,5642.0,meters,OK,2543.0,feet,OK,0.4,mm/hr,OK,1955.0,meters,OK,1812.0,meters,OK,1680.0,meters,OK
2025-01-26T19:40:58.290763,6.8,knots,OK,356.0,degrees,OK,11.0,knots,OK,15.4,°C,OK,16.3,°C,OK,1013.4,hPa,OK,8819.0,meters,OK,1882.0,feet,OK,0.2,mm/hr,OK,1640.0,meters,OK,1513.0,meters,OK,1816.0,meters,OK
2025-01-26T19:40:59.294527,12.5,knots,OK,282.0,degrees,OK,14.7,knots,OK,18.8,°C,OK,15.0,°C,OK,1015.0,hPa,OK,6409.0,meters,OK,1327.0,feet,OK,0.4,mm/hr,OK,1692.0,meters,OK,1519.0,meters,OK,1711.0,meters,OK
2025-01-26T19:41:00.298443,13.1,knots,OK,128.0,degrees,OK,22.1,knots,OK,19.1,°C,OK,17.4,°C,OK,1013.7,hPa,OK,5437.0,meters,OK,2652.0,feet,OK,0.5,mm/hr,OK,1620.0,meters,OK,1646.0,meters,OK,1557.0,meters,OK
2025-01-26T19:41:01.303328,5.2,knots,OK,348.0,degrees,OK,23.0,knots,OK,22.0,°C,OK,15.2,°C,OK,1013.9,hPa,OK,5156.0,meters,OK,2860.0,feet,OK,0.3,mm/hr,OK,1796.0,meters,OK,1585.0,meters,OK,1922.0,meters,OK
2025-01-26T19:41:02.307701,12.7,knots,OK,267.0,degrees,OK,17.6,knots,OK,24.0,°C,OK,15.5,°C,OK,1013.8,hPa,OK,8116.0,meters,OK,2093.0,feet,OK,0.2,mm/hr,OK,1892.0,meters,OK,1613.0,meters,OK,1623.0,meters,OK
2025-01-26T19:41:03.312458,7.3,knots,OK,221.0,degrees,OK,15.0,knots,OK,15.8,°C,OK,10.8,°C,OK,1013.2,hPa,OK,7196.0,meters,OK,1333.0,feet,OK,0.4,mm/hr,OK,1539.0,meters,OK,1810.0,meters,OK,1631.0,meters,OK
2025-01-26T19:41:04.316850,7.8,knots,OK,31.0,degrees,OK,16.1,knots,OK,22.7,°C,OK,19.8,°C,OK,1014.0,hPa,OK,9740.0,meters,OK,1244.0,feet,OK,0.5,mm/hr,OK,1715.0,meters,OK,1700.0,meters,OK,1937.0,meters,OK
2025-01-26T19:41:05.320600,5.2,knots,OK,338.0,degrees,OK,24.3,knots,OK,15.6,°C,OK,17.0,°C,OK,1014.8,hPa,OK,7363.0,meters,OK,1146.0,feet,OK,0.0,mm/hr,OK,1806.0,meters,OK,1775.0,meters,OK,1667.0,meters,OK
2025-01-26T19:41:06.324452,13.1,knots,OK,222.0,degrees,OK,22.3,knots,OK,20.6,°C,OK,15.6,°C,OK,1014.5,hPa,OK,8778.0,meters,OK,1853.0,feet,OK,0.4,mm/hr,OK,1668.0,meters,OK,1750.0,meters,OK,1999.0,meters,OK
2025-01-26T19:41:07.328897,12.1,knots,OK,132.0,degrees,OK,11.5,knots,OK,24.2,°C,OK,14.8,°C,OK,1014.4,hPa,OK,7455.0,meters,OK,1031.0,feet,OK,0.5,mm/hr,OK,1514.0,meters,OK,1876.0,meters,OK,1553.0,meters,OK
2025-01-26T19:41:08.333234,5.1,knots,OK,125.0,degrees,OK,18.3,knots,OK,19.4,°C,OK,18.4,°C,OK,1013.9,hPa,OK,5375.0,meters,OK,1170.0,feet,OK,0.2,mm/hr,OK,1793.0,meters,OK,1678.0,meters,OK,1572.0,meters,OK
2025-01-26T19:41:09.337795,13.8,knots,OK,118.0,degrees,OK,22.9,knots,OK,23.4,°C,OK,12.7,°C,OK,1013.4,hPa,OK,5791.0,meters,OK,2297.0,feet,OK,0.1,mm/hr,OK,1755.0,meters,OK,1920.0,meters,OK,1611.0,meters,OK
2025-01-26T19:41:10.342208,12.0,knots,OK,151.0,degrees,OK,23.6,knots,OK,19.8,°C,OK,15.1,°C,OK,1013.7,hPa,OK,7807.0,meters,OK,1218.0,feet,OK,0.4,mm/hr,OK,1632.0,meters,OK,1652.0,meters,OK,1977.0,meters,OK
2025-01-26T19:41:11.347267,5.4,knots,OK,209.0,degrees,OK,12.3,knots,OK,19.2,°C,OK,15.7,°C,OK,1014.7,hPa,OK,6242.0,meters,OK,2680.0,feet,OK,0.2,mm/hr,OK,1885.0,meters,OK,1676.0,meters,OK,1887.0,meters,OK
2025-01-26T19:41:12.351146,9.2,knots,OK,321.0,degrees,OK,19.4,knots,OK,21.0,°C,OK,10.7,°C,OK,1013.4,hPa,OK,6856.0,meters,OK,2238.0,feet,OK,0.1,mm/hr,OK,1754.0,meters,OK,1928.0,meters,OK,1981.0,meters,OK
2025-01-26T19:41:13.355273,11.9,knots,OK,276.0,degrees,OK,19.7,knots,OK,17.5,°C,OK,12.9,°C,OK,1013.9,hPa,OK,8002.0,meters,OK,1772.0,feet,OK,0.1,mm/hr,OK,1784.0,meters,OK,1839.0,meters,OK,1768.0,meters,OK
2025-01-26T19:41:14.359333,9.0,knots,OK,339.0,degrees,OK,14.1,knots,OK,15.9,°C,OK,14.8,°C,OK,1014.7,hPa,OK,9132.0,meters,OK,2511.0,feet,OK,0.2,mm/hr,OK,1729.0,meters,OK,1830.0,meters,OK,1572.0,meters,OK
2025-01-26T19:41:15.363764,10.8,knots,OK,161.0,degrees,OK,14.0,knots,OK,21.0,°C,OK,15.8,°C,OK,1013.9,hPa,OK,9865.0,meters,OK,2281.0,feet,OK,0.3,mm/hr,OK,1635.0,meters,OK,1961.0,meters,OK,1832.0,meters,OK
2025-01-26T19:41:16.368474,9.7,knots,OK,24.0,degrees,OK,14.0,knots,OK,21.8,°C,OK,11.4,°C,OK,1014.3,hPa,OK,9033.0,meters,OK,2097.0,feet,OK,0.4,mm/hr,OK,1667.0,meters,OK,1934.0,meters,OK,1661.0,meters,OK
2025-01-26T19:41:17.371954,5.2,knots,OK,306.0,degrees,OK,19.6,knots,OK,18.2,°C,OK,14.3,°C,OK,1013.4,hPa,OK,5070.0,meters,OK,2085.0,feet,OK,0.3,mm/hr,OK,1906.0,meters,OK,1611.0,meters,OK,1823.0,meters,OK
2025-01-26T19:41:18.375781,14.4,knots,OK,216.0,degrees,OK,12.6,knots,OK,18.1,°C,OK,12.9,°C,OK,1014.8,hPa,OK,5051.0,meters,OK,2216.0,feet,OK,0.0,mm/hr,OK,1829.0,meters,OK,1860.0,meters,OK,1739.0,meters,OK
2025-01-26T19:41:19.381004,6.1,knots,OK,10.0,degrees,OK,13.4,knots,OK,19.1,°C,OK,13.3,°C,OK,1014.7,hPa,OK,7118.0,meters,OK,2368.0,feet,OK,0.1,mm/hr,OK,1699.0,meters,OK,1700.0,meters,OK,1669.0,meters,OK
2025-01-26T19:41:20.385905,12.1,knots,OK,174.0,degrees,OK,19.3,knots,OK,22.5,°C,OK,18.7,°C,OK,1013.7,hPa,OK,7014.0,meters,OK,2029.0,feet,OK,0.2,mm/hr,OK,1896.0,meters,OK,1692.0,meters,OK,1618.0,meters,OK
2025-01-26T19:41:21.390346,14.4,knots,OK,95.0,degrees,OK,11.3,knots,OK,18.2,°C,OK,14.4,°C,OK,1014.7,hPa,OK,5721.0,meters,OK,2220.0,feet,OK,0.3,mm/hr,OK,1642.0,meters,OK,1751.0,meters,OK,1586.0,meters,OK
2025-01-26T19:41:22.394407,14.3,knots,OK,75.0,degrees,OK,10.4,knots,OK,15.3,°C,OK,14.1,°C,OK,1014.2,hPa,OK,6879.0,meters,OK,1486.0,feet,OK,0.4,mm/hr,OK,1989.0,meters,OK,1566.0,meters,OK,1682.0,meters,OK
2025-01-26T19:41:23.398187,12.1,knots,OK,346.0,degrees,OK,18.0,knots,OK,24.2,°C,OK,16.7,°C,OK,1013.5,hPa,OK,9409.0,meters,OK,1958.0,feet,OK,0.2,mm/hr,OK,1837.0,meters,OK,1556.0,meters,OK,1540.0,meters,OK
2025-01-26T19:41:24.400992,8.3,knots,OK,146.0,degrees,OK,16.2,knots,OK,23.4,°C,OK,15.6,°C,OK,1014.8,hPa,OK,7028.0,meters,OK,1869.0,feet,OK,0.2,mm/hr,OK,1517.0,meters,OK,1841.0,meters,OK,1941.0,meters,OK
2025-01-26T19:41:25.404567,10.0,knots,OK,65.0,degrees,OK,12.3,knots,OK,22.7,°C,OK,18.9,°C,OK,1013.7,hPa,OK,7476.0,meters,OK,2101.0,feet,OK,0.5,mm/hr,OK,1771.0,meters,OK,1757.0,meters,OK,1760.0,meters,OK
2025-01-26T19:41:26.408216,9.2,knots,OK,158.0,degrees,OK,20.2,knots,OK,17.6,°C,OK,15.0,°C,OK,1013.1,hPa,OK,9187.0,meters,OK,2999.0,feet,OK,0.2,mm/hr,OK,1558.0,meters,OK,1917.0,meters,OK,1683.0,meters,OK
2025-01-26T19:41:27.412062,10.3,knots,OK,254.0,degrees,OK,20.1,knots,OK,22.7,°C,OK,13.2,°C,OK,1014.3,hPa,OK,6716.0,meters,OK,1487.0,feet,OK,0.4,mm/hr,OK,1809.0,meters,OK,1896.0,meters,OK,1663.0,meters,OK
2025-01-26T19:41:28.421134,9.8,knots,OK,256.0,degrees,OK,18.2,knots,OK,18.6,°C,OK,19.9,°C,OK,1014.5,hPa,OK,8883.0,meters,OK,2213.0,feet,OK,0.2,mm/hr,OK,1959.0,meters,OK,1552.0,meters,OK,1747.0,meters,OK
2025-01-26T19:41:29.425352,12.4,knots,OK,156.0,degrees,OK,19.5,knots,OK,17.9,°C,OK,17.9,°C,OK,1014.8,hPa,OK,7794.0,meters,OK,1119.0,feet,OK,0.1,mm/hr,OK,1669.0,meters,OK,1972.0,meters,OK,1926.0,meters,OK
2025-01-26T19:41:30.429192,5.0,knots,OK,23.0,degrees,OK,10.9,knots,OK,17.2,°C,OK,17.8,°C,OK,1014.4,hPa,OK,7530.0,meters,OK,2375.0,feet,OK,0.3,mm/hr,OK,1899.0,meters,OK,1580.0,meters,OK,1988.0,meters,OK
2025-01-26T19:41:31.434265,11.4,knots,OK,257.0,degrees,OK,14.6,knots,OK,20.1,°C,OK,13.0,°C,OK,1014.5,hPa,OK,7339.0,meters,OK,1476.0,feet,OK,0.2,mm/hr,OK,1643.0,meters,OK,1575.0,meters,OK,1932.0,meters,OK
2025-01-26T19:41:32.439968,13.9,knots,OK,263.0,degrees,OK,16.2,knots,OK,24.3,°C,OK,13.5,°C,OK,1014.1,hPa,OK,9293.0,meters,OK,1490.0,feet,OK,0.3,mm/hr,OK,1777.0,meters,OK,1706.0,meters,OK,1980.0,meters,OK
2025-01-26T19:41:33.445093,10.8,knots,OK,89.0,degrees,OK,11.4,knots,OK,15.2,°C,OK,17.2,°C,OK,1013.8,hPa,OK,5498.0,meters,OK,1904.0,feet,OK,0.4,mm/hr,OK,1791.0,meters,OK,1690.0,meters,OK,1994.0,meters,OK
2025-01-26T19:41:34.449575,14.7,knots,OK,30.0,degrees,OK,23.4,knots,OK,16.8,°C,OK,16.0,°C,OK,1014.5,hPa,OK,6213.0,meters,OK,2364.0,feet,OK,0.1,mm/hr,OK,1912.0,meters,OK,1957.0,meters,OK,1913.0,meters,OK
2025-01-26T19:41:35.453737,11.8,knots,OK,19.0,degrees,OK,15.8,knots,OK,18.0,°C,OK,18.8,°C,OK,1013.1,hPa,OK,9104.0,meters,OK,1795.0,feet,OK,0.2,mm/hr,OK,1886.0,meters,OK,1938.0,meters,OK,1899.0,meters,OK
2025-01-26T19:41:36.458457,6.1,knots,OK,283.0,degrees,OK,24.8,knots,OK,22.8,°C,OK,17.9,°C,OK,1014.6,hPa,OK,6957.0,meters,OK,2258.0,feet,OK,0.5,mm/hr,OK,1609.0,meters,OK,1537.0,meters,OK,1685.0,meters,OK
2025-01-26T19:41:37.462959,7.1,knots,OK,97.0,degrees,OK,14.4,knots,OK,17.2,°C,OK,15.2,°C,OK,1013.0,hPa,OK,6228.0,meters,OK,1551.0,feet,OK,0.1,mm/hr,OK,1773.0,meters,OK,1965.0,meters,OK,1805.0,meters,OK
2025-01-26T19:41:38.466242,14.0,knots,OK,292.0,degrees,OK,23.9,knots,OK,16.1,°C,OK,12.9,°C,OK,1014.5,hPa,OK,7617.0,meters,OK,2831.0,feet,OK,0.4,mm/hr,OK,1822.0,meters,OK,1975.0,meters,OK,1754.0,meters,OK
2025-01-26T19:41:39.470417,9.6,knots,OK,69.0,degrees,OK,22.7,knots,OK,15.8,°C,OK,11.7,°C,OK,1013.5,hPa,OK,7292.0,meters,OK,1183.0,feet,OK,0.1,mm/hr,OK,1880.0,meters,OK,1781.0,meters,OK,1533.0,meters,OK
2025-01-26T19:41:40.474772,14.2,knots,OK,78.0,degrees,OK,22.3,knots,OK,17.2,°C,OK,18.8,°C,OK,1013.5,hPa,OK,5606.0,meters,OK,2321.0,feet,OK,0.5,mm/hr,OK,1728.0,meters,OK,1711.0,meters,OK,1519.0,meters,OK
2025-01-26T19:41:41.479757,13.9,knots,OK,163.0,degrees,OK,10.1,knots,OK,16.1,°C,OK,18.4,°C,OK,1014.9,hPa,OK,8740.0,meters,OK,2974.0,feet,OK,0.4,mm/hr,OK,1556.0,meters,OK,1656.0,meters,OK,1632.0,meters,OK
2025-01-26T19:41:42.484021,11.9,knots,OK,34.0,degrees,OK,21.2,knots,OK,21.7,°C,OK,19.2,°C,OK,1013.0,hPa,OK,5665.0,meters,OK,2796.0,feet,OK,0.2,mm/hr,OK,1883.0,meters,OK,1568.0,meters,OK,1521.0,meters,OK
2025-01-26T19:41:43.488777,8.9,knots,OK,16.0,degrees,OK,19.2,knots,OK,24.7,°C,OK,12.1,°C,OK,1014.1,hPa,OK,6581.0,meters,OK,2325.0,feet,OK,0.5,mm/hr,OK,1859.0,meters,OK,1939.0,meters,OK,1596.0,meters,OK
2025-01-26T19:41:44.492287,6.9,knots,OK,9.0,degrees,OK,16.7,knots,OK,20.5,°C,OK,15.2,°C,OK,1015.0,hPa,OK,7625.0,meters,OK,1778.0,feet,OK,0.1,mm/hr,OK,1566.0,meters,OK,1508.0,meters,OK,1870.0,meters,OK
2025-01-26T19:41:45.496497,12.3,knots,OK,74.0,degrees,OK,24.8,knots,OK,19.8,°C,OK,20.0,°C,OK,1013.1,hPa,OK,7191.0,meters,OK,1555.0,feet,OK,0.5,mm/hr,OK,1629.0,meters,OK,1646.0,meters,OK,1942.0,meters,OK
2025-01-26T19:41:46.501124,6.3,knots,OK,9.0,degrees,OK,16.8,knots,OK,22.4,°C,OK,19.2,°C,OK,1014.1,hPa,OK,5420.0,meters,OK,2500.0,feet,OK,0.4,mm/hr,OK,1880.0,meters,OK,1745.0,meters,OK,1781.0,meters,OK
2025-01-26T19:41:47.506038,7.1,knots,OK,259.0,degrees,OK,21.6,knots,OK,20.5,°C,OK,17.2,°C,OK,1014.8,hPa,OK,5805.0,meters,OK,1488.0,feet,OK,0.1,mm/hr,OK,1906.0,meters,OK,1604.0,meters,OK,1599.0,meters,OK
2025-01-26T19:41:48.509683,14.1,knots,OK,263.0,degrees,OK,16.7,knots,OK,25.0,°C,OK,15.5,°C,OK,1014.0,hPa,OK,7175.0,meters,OK,1116.0,feet,OK,0.1,mm/hr,OK,1899.0,meters,OK,1593.0,meters,OK,1622.0,meters,OK
2025-01-26T19:41:49.514271,10.8,knots,OK,98.0,degrees,OK,15.4,knots,OK,24.8,°C,OK,14.3,°C,OK,1014.4,hPa,OK,9953.0,meters,OK,2524.0,feet,OK,0.2,mm/hr,OK,1649.0,meters,OK,1671.0,meters,OK,1968.0,meters,OK
2025-01-26T19:41:50.517925,14.0,knots,OK,13.0,degrees,OK,19.0,knots,OK,17.2,°C,OK,14.6,°C,OK,1014.5,hPa,OK,7363.0,meters,OK,1130.0,feet,OK,0.1,mm/hr,OK,1957.0,meters,OK,1506.0,meters,OK,1530.0,meters,OK
2025-01-26T19:41:51.521070,12.4,knots,OK,120.0,degrees,OK,13.0,knots,OK,23.4,°C,OK,10.2,°C,OK,1013.6,hPa,OK,7147.0,meters,OK,2363.0,feet,OK,0.3,mm/hr,OK,1848.0,meters,OK,1599.0,meters,OK,1750.0,meters,OK
2025-01-26T19:41:52.526031,14.2,knots,OK,94.0,degrees,OK,18.2,knots,OK,23.2,°C,OK,15.8,°C,OK,1014.2,hPa,OK,5212.0,meters,OK,1943.0,feet,OK,0.2,mm/hr,OK,1782.0,meters,OK,1603.0,meters,OK,1914.0,meters,OK
2025-01-26T19:41:53.530660,13.3,knots,OK,325.0,degrees,OK,15.9,knots,OK,19.2,°C,OK,16.3,°C,OK,1013.9,hPa,OK,7323.0,meters,OK,2155.0,feet,OK,0.2,mm/hr,OK,1923.0,meters,OK,1776.0,meters,OK,1563.0,meters,OK
2025-01-26T19:41:54.535125,14.5,knots,OK,293.0,degrees,OK,19.9,knots,OK,15.9,°C,OK,19.2,°C,OK,1014.8,hPa,OK,5289.0,meters,OK,2609.0,feet,OK,0.2,mm/hr,OK,1988.0,meters,OK,1790.0,meters,OK,1703.0,meters,OK
2025-01-26T19:41:55.539895,9.7,knots,OK,340.0,degrees,OK,22.4,knots,OK,20.2,°C,OK,13.0,°C,OK,1014.4,hPa,OK,8504.0,meters,OK,2559.0,feet,OK,0.2,mm/hr,OK,1636.0,meters,OK,1629.0,meters,OK,1897.0,meters,OK
2025-01-26T19:41:56.543733,9.5,knots,OK,303.0,degrees,OK,10.6,knots,OK,17.9,°C,OK,14.4,°C,OK,1014.7,hPa,OK,5859.0,meters,OK,2304.0,feet,OK,0.2,mm/hr,OK,1819.0,meters,OK,1829.0,meters,OK,1794.0,meters,OK
2025-01-26T19:41:57.548307,13.1,knots,OK,316.0,degrees,OK,21.4,knots,OK,15.5,°C,OK,15.3,°C,OK,1014.5,hPa,OK,7206.0,meters,OK,1741.0,feet,OK,0.3,mm/hr,OK,1858.0,meters,OK,1989.0,meters,OK,1866.0,meters,OK
2025-01-26T19:41:58.552921,8.7,knots,OK,332.0,degrees,OK,22.5,knots,OK,15.4,°C,OK,14.3,°C,OK,1014.2,hPa,OK,5359.0,meters,OK,1556.0,feet,OK,0.1,mm/hr,OK,1769.0,meters,OK,1688.0,meters,OK,1714.0,meters,OK
2025-01-26T19:41:59.556949,12.8,knots,OK,334.0,degrees,OK,10.8,knots,OK,18.1,°C,OK,18.8,°C,OK,1014.1,hPa,OK,9305.0,meters,OK,1765.0,feet,OK,0.1,mm/hr,OK,1881.0,meters,OK,1609.0,meters,OK,1646.0,meters,OK
2025-01-26T19:42:00.561310,10.2,knots,OK,304.0,degrees,OK,20.1,knots,OK,22.8,°C,OK,20.0,°C,OK,1013.6,hPa,OK,5012.0,meters,OK,1727.0,feet,OK,0.4,mm/hr,OK,1746.0,meters,OK,1527.0,meters,OK,1765.0,meters,OK
2025-01-26T19:42:01.565978,6.9,knots,OK,42.0,degrees,OK,20.3,knots,OK,22.9,°C,OK,10.9,°C,OK,1013.9,hPa,OK,6198.0,meters,OK,1133.0,feet,OK,0.4,mm/hr,OK,1873.0,meters,OK,1686.0,meters,OK,1982.0,meters,OK
2025-01-26T19:42:02.570047,12.4,knots,OK,219.0,degrees,OK,19.2,knots,OK,18.0,°C,OK,14.0,°C,OK,1013.9,hPa,OK,9537.0,meters,OK,1248.0,feet,OK,0.4,mm/hr,OK,1815.0,meters,OK,1802.0,meters,OK,1842.0,meters,OK
2025-01-26T19:42:03.573652,5.4,knots,OK,191.0,degrees,OK,23.9,knots,OK,22.3,°C,OK,10.2,°C,OK,1013.4,hPa,OK,5424.0,meters,OK,1760.0,feet,OK,0.5,mm/hr,OK,1960.0,meters,OK,1981.0,meters,OK,1894.0,meters,OK
2025-01-26T19:42:04.577894,9.3,knots,OK,273.0,degrees,OK,21.3,knots,OK,19.2,°C,OK,14.8,°C,OK,1014.3,hPa,OK,9551.0,meters,OK,1751.0,feet,OK,0.0,mm/hr,OK,1995.0,meters,OK,1623.0,meters,OK,1532.0,meters,OK
2025-01-26T19:42:05.582635,12.5,knots,OK,128.0,degrees,OK,21.9,knots,OK,24.6,°C,OK,17.1,°C,OK,1014.3,hPa,OK,7868.0,meters,OK,1238.0,feet,OK,0.2,mm/hr,OK,1577.0,meters,OK,1875.0,meters,OK,1841.0,meters,OK
2025-01-26T19:42:06.586428,5.8,knots,OK,1.0,degrees,OK,11.6,knots,OK,19.8,°C,OK,12.1,°C,OK,1014.6,hPa,OK,9100.0,meters,OK,2197.0,feet,OK,0.3,mm/hr,OK,1572.0,meters,OK,1851.0,meters,OK,1620.0,meters,OK
2025-01-26T19:42:07.590977,11.0,knots,OK,336.0,degrees,OK,10.4,knots,OK,17.4,°C,OK,13.4,°C,OK,1014.9,hPa,OK,9864.0,meters,OK,1943.0,feet,OK,0.3,mm/hr,OK,1574.0,meters,OK,1792.0,meters,OK,1744.0,meters,OK
2025-01-26T19:42:08.595735,6.3,knots,OK,336.0,degrees,OK,15.7,knots,OK,17.6,°C,OK,19.0,°C,OK,1013.7,hPa,OK,8279.0,meters,OK,2783.0,feet,OK,0.1,mm/hr,OK,1564.0,meters,OK,1530.0,meters,OK,1802.0,meters,OK
2025-01-26T19:42:09.599219,9.4,knots,OK,69.0,degrees,OK,16.5,knots,OK,20.2,°C,OK,18.5,°C,OK,1014.5,hPa,OK,9024.0,meters,OK,2229.0,feet,OK,0.3,mm/hr,OK,1844.0,meters,OK,1639.0,meters,OK,1600.0,meters,OK
2025-01-26T19:42:10.602813,13.4,knots,OK,248.0,degrees,OK,16.8,knots,OK,15.2,°C,OK,19.7,°C,OK,1014.6,hPa,OK,9287.0,meters,OK,1784.0,feet,OK,0.1,mm/hr,OK,1971.0,meters,OK,1533.0,meters,OK,1566.0,meters,OK
2025-01-26T19:42:11.607370,7.3,knots,OK,334.0,degrees,OK,18.8,knots,OK,18.4,°C,OK,13.6,°C,OK,1014.3,hPa,OK,7239.0,meters,OK,2236.0,feet,OK,0.1,mm/hr,OK,1858.0,meters,OK,1838.0,meters,OK,1726.0,meters,OK
2025-01-26T19:42:12.611919,10.7,knots,OK,159.0,degrees,OK,15.7,knots,OK,21.9,°C,OK,17.9,°C,OK,1013.8,hPa,OK,7286.0,meters,OK,1560.0,feet,OK,0.0,mm/hr,OK,1781.0,meters,OK,1630.0,meters,OK,1651.0,meters,OK
2025-01-26T19:42:13.616959,13.7,knots,OK,184.0,degrees,OK,14.9,knots,OK,23.7,°C,OK,17.1,°C,OK,1013.8,hPa,OK,5183.0,meters,OK,1253.0,feet,OK,0.2,mm/hr,OK,1807.0,meters,OK,1819.0,meters,OK,1942.0,meters,OK
2025-01-26T19:42:14.621600,5.1,knots,OK,158.0,degrees,OK,18.8,knots,OK,19.7,°C,OK,19.1,°C,OK,1014.1,hPa,OK,6081.0,meters,OK,2173.0,feet,OK,0.3,mm/hr,OK,1999.0,meters,OK,1817.0,meters,OK,1616.0,meters,OK
2025-01-26T19:42:15.625482,9.0,knots,OK,167.0,degrees,OK,11.1,knots,OK,15.2,°C,OK,15.1,°C,OK,1013.8,hPa,OK,6867.0,meters,OK,2397.0,feet,OK,0.0,mm/hr,OK,1973.0,meters,OK,1547.0,meters,OK,1791.0,meters,OK
2025-01-26T19:42:16.629157,9.3,knots,OK,76.0,degrees,OK,19.4,knots,OK,19.8,°C,OK,15.2,°C,OK,1014.4,hPa,OK,5998.0,meters,OK,1101.0,feet,OK,0.0,mm/hr,OK,1706.0,meters,OK,1749.0,meters,OK,1743.0,meters,OK
2025-01-26T19:42:17.633550,9.7,knots,OK,27.0,degrees,OK,14.1,knots,OK,21.0,°C,OK,18.8,°C,OK,1013.8,hPa,OK,8672.0,meters,OK,2337.0,feet,OK,0.5,mm/hr,OK,1880.0,meters,OK,1761.0,meters,OK,1990.0,meters,OK
2025-01-26T19:42:18.638204,7.1,knots,OK,24.0,degrees,OK,10.0,knots,OK,21.9,°C,OK,12.0,°C,OK,1014.8,hPa,OK,6899.0,meters,OK,2137.0,feet,OK,0.5,mm/hr,OK,1828.0,meters,OK,1987.0,meters,OK,1532.0,meters,OK
2025-01-26T19:42:19.642361,7.5,knots,OK,343.0,degrees,OK,20.0,knots,OK,18.1,°C,OK,10.3,°C,OK,1013.0,hPa,OK,9889.0,meters,OK,2360.0,feet,OK,0.4,mm/hr,OK,1687.0,meters,OK,1570.0,meters,OK,1985.0,meters,OK
2025-01-26T19:42:20.646847,14.4,knots,OK,236.0,degrees,OK,17.5,knots,OK,20.5,°C,OK,19.0,°C,OK,1013.3,hPa,OK,5256.0,meters,OK,2853.0,feet,OK,0.4,mm/hr,OK,1828.0,meters,OK,1920.0,meters,OK,1734.0,meters,OK
2025-01-26T19:42:21.650636,7.0,knots,OK,187.0,degrees,OK,16.1,knots,OK,24.4,°C,OK,17.6,°C,OK,1013.3,hPa,OK,5505.0,meters,OK,2878.0,feet,OK,0.5,mm/hr,OK,1891.0,meters,OK,1740.0,meters,OK,1753.0,meters,OK
2025-01-26T19:42:22.655374,10.8,knots,OK,228.0,degrees,OK,17.5,knots,OK,22.8,°C,OK,18.9,°C,OK,1013.9,hPa,OK,7170.0,meters,OK,1437.0,feet,OK,0.5,mm/hr,OK,1702.0,meters,OK,1987.0,meters,OK,1660.0,meters,OK
2025-01-26T19:42:23.659879,10.3,knots,OK,312.0,degrees,OK,12.5,knots,OK,24.6,°C,OK,16.2,°C,OK,1013.4,hPa,OK,9252.0,meters,OK,1416.0,feet,OK,0.4,mm/hr,OK,1517.0,meters,OK,1633.0,meters,OK,1883.0,meters,OK
2025-01-26T19:42:24.664316,8.6,knots,OK,186.0,degrees,OK,15.1,knots,OK,24.6,°C,OK,11.7,°C,OK,1013.5,hPa,OK,9723.0,meters,OK,2986.0,feet,OK,0.2,mm/hr,OK,1961.0,meters,OK,1946.0,meters,OK,1585.0,meters,OK
2025-01-26T19:42:25.668774,6.3,knots,OK,166.0,degrees,OK,11.2,knots,OK,24.8,°C,OK,19.0,°C,OK,1014.3,hPa,OK,5463.0,meters,OK,2938.0,feet,OK,0.1,mm/hr,OK,1587.0,meters,OK,1738.0,meters,OK,1726.0,meters,OK
2025-01-26T19:42:26.673036,5.9,knots,OK,327.0,degrees,OK,21.7,knots,OK,15.2,°C,OK,16.3,°C,OK,1014.0,hPa,OK,9910.0,meters,OK,1447.0,feet,OK,0.4,mm/hr,OK,1703.0,meters,OK,1600.0,meters,OK,1556.0,meters,OK
2025-01-26T19:42:27.676991,7.6,knots,OK,112.0,degrees,OK,20.3,knots,OK,16.1,°C,OK,16.9,°C,OK,1014.7,hPa,OK,7480.0,meters,OK,2099.0,feet,OK,0.3,mm/hr,OK,1837.0,meters,OK,1528.0,meters,OK,1834.0,meters,OK
2025-01-26T19:42:28.680798,11.9,knots,OK,180.0,degrees,OK,12.6,knots,OK,23.6,°C,OK,12.4,°C,OK,1014.7,hPa,OK,5511.0,meters,OK,1497.0,feet,OK,0.2,mm/hr,OK,1619.0,meters,OK,1829.0,meters,OK,1732.0,meters,OK
2025-01-26T19:42:29.685412,9.6,knots,OK,8.0,degrees,OK,24.7,knots,OK,21.0,°C,OK,13.1,°C,OK,1014.8,hPa,OK,6415.0,meters,OK,2773.0,feet,OK,0.3,mm/hr,OK,1583.0,meters,OK,1842.0,meters,OK,1735.0,meters,OK
2025-01-26T19:42:30.689401,7.6,knots,OK,239.0,degrees,OK,19.3,knots,OK,22.8,°C,OK,19.0,°C,OK,1014.3,hPa,OK,7653.0,meters,OK,1034.0,feet,OK,0.3,mm/hr,OK,1711.0,meters,OK,1740.0,meters,OK,1901.0,meters,OK
2025-01-26T19:42:31.694043,10.4,knots,OK,96.0,degrees,OK,19.0,knots,OK,18.9,°C,OK,13.6,°C,OK,1014.3,hPa,OK,6555.0,meters,OK,2321.0,feet,OK,0.2,mm/hr,OK,1607.0,meters,OK,1676.0,meters,OK,1504.0,meters,OK
2025-01-26T19:42:32.698037,6.3,knots,OK,68.0,degrees,OK,17.1,knots,OK,22.6,°C,OK,15.1,°C,OK,1013.3,hPa,OK,6576.0,meters,OK,2013.0,feet,OK,0.0,mm/hr,OK,1553.0,meters,OK,1994.0,meters,OK,1887.0,meters,OK
2025-01-26T19:42:33.701672,14.2,knots,OK,47.0,degrees,OK,12.2,knots,OK,16.7,°C,OK,12.4,°C,OK,1013.3,hPa,OK,5753.0,meters,OK,2070.0,feet,OK,0.2,mm/hr,OK,1754.0,meters,OK,1950.0,meters,OK,1595.0,meters,OK
2025-01-26T19:42:34.704601,7.6,knots,OK,18.0,degrees,OK,11.0,knots,OK,24.6,°C,OK,16.7,°C,OK,1013.7,hPa,OK,6242.0,meters,OK,2930.0,feet,OK,0.3,mm/hr,OK,1810.0,meters,OK,1753.0,meters,OK,1966.0,meters,OK
2025-01-26T19:42:35.709114,13.5,knots,OK,88.0,degrees,OK,14.5,knots,OK,19.1,°C,OK,12.7,°C,OK,1015.0,hPa,OK,6450.0,meters,OK,2859.0,feet,OK,0.2,mm/hr,OK,1793.0,meters,OK,1688.0,meters,OK,1817.0,meters,OK
2025-01-26T19:42:36.713006,7.1,knots,OK,140.0,degrees,OK,17.6,knots,OK,23.0,°C,OK,11.9,°C,OK,1014.9,hPa,OK,8559.0,meters,OK,1105.0,feet,OK,0.2,mm/hr,OK,1850.0,meters,OK,1811.0,meters,OK,1595.0,meters,OK
2025-01-26T19:42:37.718343,7.7,knots,OK,74.0,degrees,OK,17.9,knots,OK,24.3,°C,OK,11.5,°C,OK,1013.6,hPa,OK,7413.0,meters,OK,2289.0,feet,OK,0.1,mm/hr,OK,1690.0,meters,OK,1832.0,meters,OK,1942.0,meters,OK
2025-01-26T19:42:38.722935,5.3,knots,OK,17.0,degrees,OK,16.0,knots,OK,24.9,°C,OK,18.3,°C,OK,1013.8,hPa,OK,6737.0,meters,OK,2159.0,feet,OK,0.3,mm/hr,OK,1526.0,meters,OK,1512.0,meters,OK,1522.0,meters,OK
2025-01-26T19:42:39.726915,11.5,knots,OK,12.0,degrees,OK,15.6,knots,OK,19.5,°C,OK,10.0,°C,OK,1013.6,hPa,OK,6897.0,meters,OK,1956.0,feet,OK,0.1,mm/hr,OK,1836.0,meters,OK,1817.0,meters,OK,1696.0,meters,OK
2025-01-26T19:42:40.730129,8.6,knots,OK,217.0,degrees,OK,11.7,knots,OK,18.0,°C,OK,17.7,°C,OK,1014.1,hPa,OK,9533.0,meters,OK,2073.0,feet,OK,0.4,mm/hr,OK,1562.0,meters,OK,1592.0,meters,OK,1545.0,meters,OK
2025-01-26T19:42:41.734568,9.7,knots,OK,217.0,degrees,OK,12.6,knots,OK,22.8,°C,OK,15.1,°C,OK,1014.3,hPa,OK,7058.0,meters,OK,2453.0,feet,OK,0.3,mm/hr,OK,1731.0,meters,OK,1954.0,meters,OK,1844.0,meters,OK
2025-01-26T19:42:42.738739,11.6,knots,OK,243.0,degrees,OK,10.5,knots,OK,20.2,°C,OK,13.9,°C,OK,1014.9,hPa,OK,9249.0,meters,OK,1111.0,feet,OK,0.4,mm/hr,OK,1686.0,meters,OK,1787.0,meters,OK,1523.0,meters,OK
2025-01-26T19:42:43.742538,13.4,knots,OK,232.0,degrees,OK,17.4,knots,OK,19.3,°C,OK,12.6,°C,OK,1014.8,hPa,OK,8547.0,meters,OK,2153.0,feet,OK,0.4,mm/hr,OK,1914.0,meters,OK,1839.0,meters,OK,1742.0,meters,OK
2025-01-26T19:42:44.746475,10.8,knots,OK,58.0,degrees,OK,19.1,knots,OK,19.6,°C,OK,11.7,°C,OK,1014.4,hPa,OK,9354.0,meters,OK,1965.0,feet,OK,0.0,mm/hr,OK,1862.0,meters,OK,1830.0,meters,OK,1725.0,meters,OK
2025-01-26T19:42:45.750606,14.8,knots,OK,76.0,degrees,OK,18.3,knots,OK,18.8,°C,OK,13.3,°C,OK,1013.2,hPa,OK,8171.0,meters,OK,1139.0,feet,OK,0.1,mm/hr,OK,1859.0,meters,OK,1719.0,meters,OK,1628.0,meters,OK
2025-01-26T19:42:46.754139,14.4,knots,OK,323.0,degrees,OK,23.3,knots,OK,19.2,°C,OK,11.0,°C,OK,1013.2,hPa,OK,9089.0,meters,OK,2052.0,feet,OK,0.4,mm/hr,OK,1562.0,meters,OK,1629.0,meters,OK,1746.0,meters,OK
2025-01-26T19:42:47.757259,13.0,knots,OK,0.0,degrees,OK,19.1,knots,OK,16.9,°C,OK,12.2,°C,OK,1014.5,hPa,OK,5661.0,meters,OK,1260.0,feet,OK,0.3,mm/hr,OK,1662.0,meters,OK,1789.0,meters,OK,1785.0,meters,OK
2025-01-26T19:42:48.761289,5.8,knots,OK,50.0,degrees,OK,18.4,knots,OK,24.2,°C,OK,15.8,°C,OK,1014.5,hPa,OK,9758.0,meters,OK,1650.0,feet,OK,0.5,mm/hr,OK,1678.0,meters,OK,1641.0,meters,OK,1709.0,meters,OK
2025-01-26T19:42:49.765172,9.6,knots,OK,297.0,degrees,OK,23.1,knots,OK,20.9,°C,OK,18.0,°C,OK,1013.6,hPa,OK,5930.0,meters,OK,1511.0,feet,OK,0.5,mm/hr,OK,1942.0,meters,OK,1521.0,meters,OK,1966.0,meters,OK
2025-01-26T19:42:50.769873,12.2,knots,OK,249.0,degrees,OK,20.6,knots,OK,20.6,°C,OK,15.8,°C,OK,1014.1,hPa,OK,7809.0,meters,OK,2938.0,feet,OK,0.2,mm/hr,OK,1622.0,meters,OK,1784.0,meters,OK,1741.0,meters,OK
2025-01-26T19:42:51.774341,13.9,knots,OK,72.0,degrees,OK,10.0,knots,OK,24.7,°C,OK,14.9,°C,OK,1014.7,hPa,OK,5694.0,meters,OK,2006.0,feet,OK,0.1,mm/hr,OK,1988.0,meters,OK,1737.0,meters,OK,1843.0,meters,OK
2025-01-26T19:42:52.777453,10.5,knots,OK,203.0,degrees,OK,20.5,knots,OK,15.8,°C,OK,17.7,°C,OK,1013.5,hPa,OK,6278.0,meters,OK,1925.0,feet,OK,0.4,mm/hr,OK,1778.0,meters,OK,1718.0,meters,OK,1790.0,meters,OK
2025-01-26T19:42:53.781055,11.8,knots,OK,183.0,degrees,OK,11.5,knots,OK,18.0,°C,OK,19.2,°C,OK,1014.7,hPa,OK,5504.0,meters,OK,2245.0,feet,OK,0.5,mm/hr,OK,1786.0,meters,OK,1808.0,meters,OK,1762.0,meters,OK
2025-01-26T19:42:54.784956,7.9,knots,OK,311.0,degrees,OK,23.6,knots,OK,24.5,°C,OK,15.9,°C,OK,1013.3,hPa,OK,5180.0,meters,OK,1180.0,feet,OK,0.1,mm/hr,OK,1590.0,meters,OK,1764.0,meters,OK,1932.0,meters,OK
2025-01-26T19:42:55.788856,6.1,knots,OK,58.0,degrees,OK,11.0,knots,OK,20.9,°C,OK,11.7,°C,OK,1013.3,hPa,OK,9549.0,meters,OK,2145.0,feet,OK,0.2,mm/hr,OK,1581.0,meters,OK,1857.0,meters,OK,1989.0,meters,OK
2025-01-26T19:42:56.793531,6.6,knots,OK,275.0,degrees,OK,10.9,knots,OK,20.2,°C,OK,14.7,°C,OK,1014.9,hPa,OK,6205.0,meters,OK,1911.0,feet,OK,0.2,mm/hr,OK,1996.0,meters,OK,1546.0,meters,OK,1846.0,meters,OK
2025-01-26T19:42:57.798666,5.8,knots,OK,120.0,degrees,OK,18.7,knots,OK,20.2,°C,OK,10.1,°C,OK,1014.3,hPa,OK,7373.0,meters,OK,2487.0,feet,OK,0.4,mm/hr,OK,1635.0,meters,OK,1954.0,meters,OK,1843.0,meters,OK
2025-01-26T19:42:58.801801,10.7,knots,OK,46.0,degrees,OK,12.8,knots,OK,23.9,°C,OK,13.2,°C,OK,1013.1,hPa,OK,5729.0,meters,OK,2059.0,feet,OK,0.4,mm/hr,OK,1708.0,meters,OK,1675.0,meters,OK,1969.0,meters,OK
2025-01-26T19:42:59.805178,10.3,knots,OK,98.0,degrees,OK,17.7,knots,OK,24.6,°C,OK,15.4,°C,OK,1014.3,hPa,OK,6620.0,meters,OK,1134.0,feet,OK,0.3,mm/hr,OK,1730.0,meters,OK,1579.0,meters,OK,1679.0,meters,OK
2025-01-26T19:43:00.809875,10.8,knots,OK,241.0,degrees,OK,22.7,knots,OK,17.6,°C,OK,11.8,°C,OK,1014.5,hPa,OK,7117.0,meters,OK,2962.0,feet,OK,0.4,mm/hr,OK,1610.0,meters,OK,1879.0,meters,OK,1558.0,meters,OK
2025-01-26T19:43:01.813741,8.9,knots,OK,244.0,degrees,OK,21.5,knots,OK,20.2,°C,OK,19.5,°C,OK,1013.3,hPa,OK,8528.0,meters,OK,1681.0,feet,OK,0.1,mm/hr,OK,1567.0,meters,OK,1595.0,meters,OK,1520.0,meters,OK
2025-01-26T19:43:02.817544,6.8,knots,OK,55.0,degrees,OK,17.4,knots,OK,17.7,°C,OK,17.8,°C,OK,1013.2,hPa,OK,7517.0,meters,OK,1682.0,feet,OK,0.3,mm/hr,OK,1994.0,meters,OK,1923.0,meters,OK,1876.0,meters,OK
2025-01-26T19:43:03.821432,10.6,knots,OK,314.0,degrees,OK,18.4,knots,OK,21.5,°C,OK,18.5,°C,OK,1013.6,hPa,OK,8843.0,meters,OK,1210.0,feet,OK,0.5,mm/hr,OK,1810.0,meters,OK,1752.0,meters,OK,1920.0,meters,OK
2025-01-26T19:43:04.824956,13.8,knots,OK,314.0,degrees,OK,12.2,knots,OK,22.5,°C,OK,15.3,°C,OK,1014.8,hPa,OK,8406.0,meters,OK,1018.0,feet,OK,0.4,mm/hr,OK,1763.0,meters,OK,1725.0,meters,OK,1835.0,meters,OK
2025-01-26T19:43:05.828155,13.1,knots,OK,346.0,degrees,OK,24.9,knots,OK,18.4,°C,OK,13.3,°C,OK,1013.2,hPa,OK,8583.0,meters,OK,1323.0,feet,OK,0.4,mm/hr,OK,1650.0,meters,OK,1661.0,meters,OK,1774.0,meters,OK
2025-01-26T19:43:06.832301,5.2,knots,OK,329.0,degrees,OK,16.5,knots,OK,21.0,°C,OK,16.4,°C,OK,1013.3,hPa,OK,6308.0,meters,OK,2064.0,feet,OK,0.2,mm/hr,OK,1727.0,meters,OK,1985.0,meters,OK,1768.0,meters,OK
2025-01-26T19:43:07.835959,6.1,knots,OK,138.0,degrees,OK,16.2,knots,OK,20.4,°C,OK,18.7,°C,OK,1013.9,hPa,OK,7272.0,meters,OK,1421.0,feet,OK,0.3,mm/hr,OK,1810.0,meters,OK,1564.0,meters,OK,1939.0,meters,OK
2025-01-26T19:43:08.840307,11.5,knots,OK,309.0,degrees,OK,12.7,knots,OK,16.5,°C,OK,11.1,°C,OK,1014.9,hPa,OK,6177.0,meters,OK,1388.0,feet,OK,0.4,mm/hr,OK,1646.0,meters,OK,1905.0,meters,OK,1804.0,meters,OK
2025-01-26T19:43:09.844191,12.2,knots,OK,48.0,degrees,OK,16.1,knots,OK,21.2,°C,OK,15.6,°C,OK,1013.8,hPa,OK,8009.0,meters,OK,1631.0,feet,OK,0.5,mm/hr,OK,1531.0,meters,OK,1855.0,meters,OK,1510.0,meters,OK
2025-01-26T19:43:10.848312,6.7,knots,OK,132.0,degrees,OK,14.8,knots,OK,17.4,°C,OK,18.0,°C,OK,1014.3,hPa,OK,7915.0,meters,OK,1986.0,feet,OK,0.4,mm/hr,OK,1721.0,meters,OK,1866.0,meters,OK,1781.0,meters,OK
2025-01-26T19:43:11.853062,12.0,knots,OK,73.0,degrees,OK,15.2,knots,OK,17.9,°C,OK,13.5,°C,OK,1013.2,hPa,OK,7625.0,meters,OK,1854.0,feet,OK,0.3,mm/hr,OK,1811.0,meters,OK,1739.0,meters,OK,1830.0,meters,OK
2025-01-26T19:43:12.857584,5.7,knots,OK,208.0,degrees,OK,13.8,knots,OK,21.6,°C,OK,12.9,°C,OK,1014.8,hPa,OK,6856.0,meters,OK,2417.0,feet,OK,0.2,mm/hr,OK,1927.0,meters,OK,1724.0,meters,OK,1881.0,meters,OK
2025-01-26T19:43:13.862144,13.8,knots,OK,109.0,degrees,OK,18.2,knots,OK,23.0,°C,OK,11.9,°C,OK,1013.2,hPa,OK,6336.0,meters,OK,2749.0,feet,OK,0.1,mm/hr,OK,1895.0,meters,OK,1624.0,meters,OK,1950.0,meters,OK
2025-01-26T19:43:14.866008,8.6,knots,OK,68.0,degrees,OK,24.4,knots,OK,23.1,°C,OK,15.2,°C,OK,1014.1,hPa,OK,7730.0,meters,OK,2578.0,feet,OK,0.1,mm/hr,OK,1947.0,meters,OK,1914.0,meters,OK,1715.0,meters,OK
2025-01-26T19:43:15.869540,10.5,knots,OK,130.0,degrees,OK,19.6,knots,OK,23.6,°C,OK,17.9,°C,OK,1014.2,hPa,OK,7807.0,meters,OK,2549.0,feet,OK,0.3,mm/hr,OK,1939.0,meters,OK,1696.0,meters,OK,1698.0,meters,OK
2025-01-26T19:43:16.874074,7.5,knots,OK,211.0,degrees,OK,23.6,knots,OK,17.5,°C,OK,18.4,°C,OK,1014.4,hPa,OK,6530.0,meters,OK,1736.0,feet,OK,0.4,mm/hr,OK,1516.0,meters,OK,1764.0,meters,OK,1950.0,meters,OK
2025-01-26T19:43:17.878580,9.9,knots,OK,357.0,degrees,OK,14.7,knots,OK,24.6,°C,OK,10.6,°C,OK,1015.0,hPa,OK,6415.0,meters,OK,2282.0,feet,OK,0.4,mm/hr,OK,1522.0,meters,OK,1590.0,meters,OK,1961.0,meters,OK
2025-01-26T19:43:18.883367,5.0,knots,OK,263.0,degrees,OK,13.7,knots,OK,16.3,°C,OK,13.0,°C,OK,1014.1,hPa,OK,6353.0,meters,OK,1644.0,feet,OK,0.2,mm/hr,OK,1605.0,meters,OK,1895.0,meters,OK,1828.0,meters,OK
2025-01-26T19:43:19.887371,5.7,knots,OK,250.0,degrees,OK,14.2,knots,OK,19.2,°C,OK,19.3,°C,OK,1014.0,hPa,OK,9315.0,meters,OK,2114.0,feet,OK,0.5,mm/hr,OK,1839.0,meters,OK,1866.0,meters,OK,1506.0,meters,OK
2025-01-26T19:43:20.890398,6.4,knots,OK,149.0,degrees,OK,24.6,knots,OK,21.6,°C,OK,11.4,°C,OK,1013.6,hPa,OK,8856.0,meters,OK,2688.0,feet,OK,0.3,mm/hr,OK,1717.0,meters,OK,1894.0,meters,OK,1718.0,meters,OK
2025-01-26T19:43:21.894949,14.5,knots,OK,304.0,degrees,OK,12.6,knots,OK,18.5,°C,OK,18.1,°C,OK,1013.6,hPa,OK,6214.0,meters,OK,2719.0,feet,OK,0.2,mm/hr,OK,1733.0,meters,OK,1883.0,meters,OK,1966.0,meters,OK
2025-01-26T19:43:22.898390,8.9,knots,OK,313.0,degrees,OK,23.0,knots,OK,24.0,°C,OK,15.8,°C,OK,1013.1,hPa,OK,6929.0,meters,OK,2438.0,feet,OK,0.0,mm/hr,OK,1518.0,meters,OK,1830.0,meters,OK,1595.0,meters,OK
2025-01-26T19:43:23.902155,6.4,knots,OK,31.0,degrees,OK,14.4,knots,OK,23.3,°C,OK,15.2,°C,OK,1013.5,hPa,OK,7333.0,meters,OK,1171.0,feet,OK,0.2,mm/hr,OK,1740.0,meters,OK,1839.0,meters,OK,1756.0,meters,OK
2025-01-26T19:43:24.905670,10.9,knots,OK,84.0,degrees,OK,14.7,knots,OK,17.9,°C,OK,14.7,°C,OK,1014.9,hPa,OK,8865.0,meters,OK,2577.0,feet,OK,0.5,mm/hr,OK,1909.0,meters,OK,1846.0,meters,OK,1700.0,meters,OK
2025-01-26T19:43:25.909399,7.6,knots,OK,146.0,degrees,OK,11.0,knots,OK,17.6,°C,OK,18.5,°C,OK,1014.1,hPa,OK,8818.0,meters,OK,2084.0,feet,OK,0.4,mm/hr,OK,1709.0,meters,OK,1558.0,meters,OK,1588.0,meters,OK
2025-01-26T19:43:26.913436,9.3,knots,OK,340.0,degrees,OK,15.8,knots,OK,24.2,°C,OK,11.9,°C,OK,1013.5,hPa,OK,8457.0,meters,OK,2546.0,feet,OK,0.1,mm/hr,OK,1941.0,meters,OK,1804.0,meters,OK,1959.0,meters,OK
2025-01-26T19:43:27.917377,11.5,knots,OK,308.0,degrees,OK,23.7,knots,OK,23.1,°C,OK,18.4,°C,OK,1014.8,hPa,OK,8618.0,meters,OK,1666.0,feet,OK,0.3,mm/hr,OK,1822.0,meters,OK,1884.0,meters,OK,1847.0,meters,OK
2025-01-26T19:43:28.921398,9.4,knots,OK,314.0,degrees,OK,15.3,knots,OK,17.5,°C,OK,18.6,°C,OK,1013.6,hPa,OK,6423.0,meters,OK,2876.0,feet,OK,0.0,mm/hr,OK,1954.0,meters,OK,1822.0,meters,OK,1803.0,meters,OK
2025-01-26T19:43:29.925449,11.2,knots,OK,191.0,degrees,OK,10.0,knots,OK,17.5,°C,OK,12.6,°C,OK,1014.5,hPa,OK,5863.0,meters,OK,1628.0,feet,OK,0.1,mm/hr,OK,1998.0,meters,OK,1646.0,meters,OK,1862.0,meters,OK
2025-01-26T19:43:30.930134,10.8,knots,OK,302.0,degrees,OK,21.1,knots,OK,16.7,°C,OK,17.7,°C,OK,1013.2,hPa,OK,5418.0,meters,OK,1783.0,feet,OK,0.1,mm/hr,OK,1757.0,meters,OK,1728.0,meters,OK,1617.0,meters,OK
2025-01-26T19:43:31.934716,14.0,knots,OK,78.0,degrees,OK,14.1,knots,OK,22.5,°C,OK,15.0,°C,OK,1013.6,hPa,OK,8812.0,meters,OK,1501.0,feet,OK,0.5,mm/hr,OK,1985.0,meters,OK,1889.0,meters,OK,1681.0,meters,OK
2025-01-26T19:43:32.938912,11.1,knots,OK,73.0,degrees,OK,23.7,knots,OK,19.9,°C,OK,13.5,°C,OK,1015.0,hPa,OK,8146.0,meters,OK,2296.0,feet,OK,0.4,mm/hr,OK,1961.0,meters,OK,1596.0,meters,OK,1871.0,meters,OK
2025-01-26T19:43:33.942347,10.9,knots,OK,301.0,degrees,OK,13.8,knots,OK,23.7,°C,OK,19.9,°C,OK,1013.6,hPa,OK,6577.0,meters,OK,2754.0,feet,OK,0.3,mm/hr,OK,1587.0,meters,OK,1578.0,meters,OK,1737.0,meters,OK
2025-01-26T19:43:34.947682,5.2,knots,OK,264.0,degrees,OK,16.1,knots,OK,15.9,°C,OK,10.6,°C,OK,1014.8,hPa,OK,6282.0,meters,OK,2960.0,feet,OK,0.1,mm/hr,OK,1823.0,meters,OK,1538.0,meters,OK,1969.0,meters,OK
2025-01-26T19:43:35.951753,5.7,knots,OK,104.0,degrees,OK,14.1,knots,OK,24.7,°C,OK,17.2,°C,OK,1013.3,hPa,OK,5698.0,meters,OK,1914.0,feet,OK,0.5,mm/hr,OK,1725.0,meters,OK,1916.0,meters,OK,1810.0,meters,OK
2025-01-26T19:43:36.955002,10.2,knots,OK,83.0,degrees,OK,21.5,knots,OK,15.2,°C,OK,14.2,°C,OK,1013.6,hPa,OK,7577.0,meters,OK,1844.0,feet,OK,0.0,mm/hr,OK,1965.0,meters,OK,1688.0,meters,OK,1516.0,meters,OK
2025-01-26T19:43:37.959194,7.9,knots,OK,16.0,degrees,OK,24.0,knots,OK,18.9,°C,OK,12.3,°C,OK,1014.0,hPa,OK,6055.0,meters,OK,2126.0,feet,OK,0.4,mm/hr,OK,1924.0,meters,OK,1782.0,meters,OK,1670.0,meters,OK
2025-01-26T19:43:38.962923,9.9,knots,OK,194.0,degrees,OK,10.3,knots,OK,23.9,°C,OK,16.9,°C,OK,1014.2,hPa,OK,9305.0,meters,OK,1760.0,feet,OK,0.2,mm/hr,OK,1892.0,meters,OK,1572.0,meters,OK,1686.0,meters,OK
2025-01-26T19:43:39.967287,14.5,knots,OK,302.0,degrees,OK,20.9,knots,OK,23.7,°C,OK,12.1,°C,OK,1015.0,hPa,OK,7904.0,meters,OK,1815.0,feet,OK,0.1,mm/hr,OK,1798.0,meters,OK,1745.0,meters,OK,1825.0,meters,OK
2025-01-26T19:43:40.971286,5.0,knots,OK,279.0,degrees,OK,23.5,knots,OK,15.5,°C,OK,13.1,°C,OK,1014.9,hPa,OK,9878.0,meters,OK,1053.0,feet,OK,0.1,mm/hr,OK,1996.0,meters,OK,1685.0,meters,OK,1755.0,meters,OK
2025-01-26T19:43:41.975354,5.5,knots,OK,108.0,degrees,OK,13.2,knots,OK,22.8,°C,OK,15.8,°C,OK,1014.3,hPa,OK,8561.0,meters,OK,2082.0,feet,OK,0.4,mm/hr,OK,1907.0,meters,OK,1689.0,meters,OK,1641.0,meters,OK
2025-01-26T19:43:42.979617,13.8,knots,OK,89.0,degrees,OK,23.5,knots,OK,15.4,°C,OK,14.5,°C,OK,1014.7,hPa,OK,8274.0,meters,OK,2088.0,feet,OK,0.1,mm/hr,OK,1719.0,meters,OK,1509.0,meters,OK,1952.0,meters,OK
2025-01-26T19:43:43.983120,9.6,knots,OK,358.0,degrees,OK,22.6,knots,OK,22.1,°C,OK,13.8,°C,OK,1013.9,hPa,OK,6728.0,meters,OK,1987.0,feet,OK,0.2,mm/hr,OK,1646.0,meters,OK,1694.0,meters,OK,1838.0,meters,OK
2025-01-26T19:43:44.986651,9.2,knots,OK,214.0,degrees,OK,13.9,knots,OK,16.5,°C,OK,18.2,°C,OK,1014.9,hPa,OK,6920.0,meters,OK,1912.0,feet,OK,0.4,mm/hr,OK,1931.0,meters,OK,1681.0,meters,OK,1999.0,meters,OK
2025-01-26T19:43:45.989570,12.6,knots,OK,208.0,degrees,OK,15.5,knots,OK,23.9,°C,OK,10.9,°C,OK,1014.4,hPa,OK,9821.0,meters,OK,2493.0,feet,OK,0.2,mm/hr,OK,1801.0,meters,OK,1562.0,meters,OK,1790.0,meters,OK
2025-01-26T19:43:46.993614,13.0,knots,OK,315.0,degrees,OK,12.1,knots,OK,20.4,°C,OK,12.9,°C,OK,1013.5,hPa,OK,8406.0,meters,OK,2091.0,feet,OK,0.0,mm/hr,OK,1985.0,meters,OK,1889.0,meters,OK,1948.0,meters,OK
2025-01-26T19:43:47.999153,11.5,knots,OK,312.0,degrees,OK,19.5,knots,OK,20.1,°C,OK,15.8,°C,OK,1014.7,hPa,OK,9920.0,meters,OK,2838.0,feet,OK,0.5,mm/hr,OK,1522.0,meters,OK,1821.0,meters,OK,1509.0,meters,OK
2025-01-26T19:43:49.003498,11.9,knots,OK,134.0,degrees,OK,24.8,knots,OK,17.7,°C,OK,16.4,°C,OK,1013.7,hPa,OK,7977.0,meters,OK,1123.0,feet,OK,0.4,mm/hr,OK,1701.0,meters,OK,1547.0,meters,OK,1875.0,meters,OK
2025-01-26T19:43:50.008761,13.9,knots,OK,27.0,degrees,OK,23.1,knots,OK,20.5,°C,OK,11.5,°C,OK,1014.2,hPa,OK,5626.0,meters,OK,2080.0,feet,OK,0.5,mm/hr,OK,1676.0,meters,OK,1663.0,meters,OK,1735.0,meters,OK
2025-01-26T19:43:51.012725,12.0,knots,OK,309.0,degrees,OK,15.2,knots,OK,17.4,°C,OK,16.8,°C,OK,1014.2,hPa,OK,5139.0,meters,OK,2555.0,feet,OK,0.3,mm/hr,OK,1753.0,meters,OK,1567.0,meters,OK,1672.0,meters,OK
2025-01-26T19:43:52.016911,13.5,knots,OK,27.0,degrees,OK,19.0,knots,OK,16.5,°C,OK,15.5,°C,OK,1014.6,hPa,OK,6528.0,meters,OK,2758.0,feet,OK,0.4,mm/hr,OK,1729.0,meters,OK,1695.0,meters,OK,1957.0,meters,OK
2025-01-26T19:43:53.020908,12.4,knots,OK,304.0,degrees,OK,15.5,knots,OK,19.2,°C,OK,12.4,°C,OK,1014.1,hPa,OK,6320.0,meters,OK,1563.0,feet,OK,0.1,mm/hr,OK,1728.0,meters,OK,1669.0,meters,OK,1998.0,meters,OK
2025-01-26T19:43:54.025047,14.9,knots,OK,163.0,degrees,OK,18.2,knots,OK,21.2,°C,OK,10.2,°C,OK,1014.4,hPa,OK,5846.0,meters,OK,1403.0,feet,OK,0.1,mm/hr,OK,1972.0,meters,OK,1715.0,meters,OK,1813.0,meters,OK
2025-01-26T19:43:55.028786,10.2,knots,OK,45.0,degrees,OK,21.7,knots,OK,15.6,°C,OK,13.9,°C,OK,1013.4,hPa,OK,9495.0,meters,OK,1718.0,feet,OK,0.3,mm/hr,OK,1554.0,meters,OK,1842.0,meters,OK,1738.0,meters,OK
2025-01-26T19:43:56.032320,8.2,knots,OK,133.0,degrees,OK,19.2,knots,OK,18.3,°C,OK,19.7,°C,OK,1014.7,hPa,OK,6114.0,meters,OK,2746.0,feet,OK,0.2,mm/hr,OK,1831.0,meters,OK,1641.0,meters,OK,1945.0,meters,OK
2025-01-26T19:43:57.036650,9.4,knots,OK,261.0,degrees,OK,11.9,knots,OK,16.2,°C,OK,12.0,°C,OK,1014.6,hPa,OK,6786.0,meters,OK,1590.0,feet,OK,0.4,mm/hr,OK,1652.0,meters,OK,1746.0,meters,OK,1524.0,meters,OK
2025-01-26T19:43:58.040999,9.7,knots,OK,124.0,degrees,OK,11.7,knots,OK,20.7,°C,OK,18.8,°C,OK,1015.0,hPa,OK,9782.0,meters,OK,1826.0,feet,OK,0.1,mm/hr,OK,1597.0,meters,OK,1906.0,meters,OK,1721.0,meters,OK
2025-01-26T19:43:59.045135,9.1,knots,OK,140.0,degrees,OK,18.1,knots,OK,19.0,°C,OK,11.3,°C,OK,1014.0,hPa,OK,9480.0,meters,OK,2652.0,feet,OK,0.2,mm/hr,OK,1584.0,meters,OK,1626.0,meters,OK,1555.0,meters,OK
2025-01-26T19:44:00.049474,13.0,knots,OK,143.0,degrees,OK,12.9,knots,OK,20.4,°C,OK,17.4,°C,OK,1013.6,hPa,OK,9090.0,meters,OK,2672.0,feet,OK,0.3,mm/hr,OK,1590.0,meters,OK,1931.0,meters,OK,1647.0,meters,OK
2025-01-26T19:44:01.053771,10.3,knots,OK,102.0,degrees,OK,10.9,knots,OK,23.1,°C,OK,17.7,°C,OK,1013.6,hPa,OK,9898.0,meters,OK,2420.0,feet,OK,0.3,mm/hr,OK,1726.0,meters,OK,1547.0,meters,OK,1685.0,meters,OK
2025-01-26T19:44:02.058810,9.3,knots,OK,285.0,degrees,OK,18.2,knots,OK,21.9,°C,OK,19.9,°C,OK,1013.5,hPa,OK,8582.0,meters,OK,2005.0,feet,OK,0.2,mm/hr,OK,1651.0,meters,OK,1597.0,meters,OK,1672.0,meters,OK
2025-01-26T19:44:03.063048,6.6,knots,OK,172.0,degrees,OK,20.0,knots,OK,24.1,°C,OK,14.7,°C,OK,1014.0,hPa,OK,5868.0,meters,OK,2084.0,feet,OK,0.1,mm/hr,OK,1577.0,meters,OK,1584.0,meters,OK,1777.0,meters,OK
2025-01-26T19:44:04.067446,6.9,knots,OK,56.0,degrees,OK,23.0,knots,OK,22.8,°C,OK,18.7,°C,OK,1013.5,hPa,OK,7017.0,meters,OK,1137.0,feet,OK,0.4,mm/hr,OK,1785.0,meters,OK,1594.0,meters,OK,1626.0,meters,OK
2025-01-26T19:44:05.071126,11.2,knots,OK,237.0,degrees,OK,20.2,knots,OK,17.5,°C,OK,10.3,°C,OK,1014.1,hPa,OK,6492.0,meters,OK,2102.0,feet,OK,0.3,mm/hr,OK,1642.0,meters,OK,1711.0,meters,OK,1935.0,meters,OK
2025-01-26T19:44:06.074496,6.8,knots,OK,333.0,degrees,OK,18.3,knots,OK,16.7,°C,OK,12.9,°C,OK,1013.1,hPa,OK,5070.0,meters,OK,1965.0,feet,OK,0.1,mm/hr,OK,1584.0,meters,OK,1665.0,meters,OK,1746.0,meters,OK
2025-01-26T19:44:07.078420,13.7,knots,OK,290.0,degrees,OK,23.3,knots,OK,18.1,°C,OK,10.8,°C,OK,1014.5,hPa,OK,5086.0,meters,OK,1778.0,feet,OK,0.2,mm/hr,OK,1574.0,meters,OK,1653.0,meters,OK,1978.0,meters,OK
2025-01-26T19:44:08.083233,13.1,knots,OK,40.0,degrees,OK,17.8,knots,OK,18.9,°C,OK,16.0,°C,OK,1013.4,hPa,OK,7448.0,meters,OK,2935.0,feet,OK,0.1,mm/hr,OK,1760.0,meters,OK,1544.0,meters,OK,1902.0,meters,OK
2025-01-26T19:44:09.088008,12.7,knots,OK,250.0,degrees,OK,19.4,knots,OK,18.7,°C,OK,18.3,°C,OK,1013.4,hPa,OK,7394.0,meters,OK,1631.0,feet,OK,0.5,mm/hr,OK,1892.0,meters,OK,1999.0,meters,OK,1853.0,meters,OK
2025-01-26T19:44:10.092683,6.6,knots,OK,255.0,degrees,OK,10.1,knots,OK,16.9,°C,OK,19.2,°C,OK,1014.4,hPa,OK,6477.0,meters,OK,2333.0,feet,OK,0.1,mm/hr,OK,1523.0,meters,OK,1542.0,meters,OK,1519.0,meters,OK
2025-01-26T19:44:11.097360,9.8,knots,OK,311.0,degrees,OK,17.0,knots,OK,22.6,°C,OK,13.7,°C,OK,1014.9,hPa,OK,6097.0,meters,OK,2693.0,feet,OK,0.3,mm/hr,OK,1607.0,meters,OK,1877.0,meters,OK,1573.0,meters,OK
2025-01-26T19:44:12.101970,7.9,knots,OK,39.0,degrees,OK,14.5,knots,OK,19.2,°C,OK,16.8,°C,OK,1013.9,hPa,OK,9073.0,meters,OK,2583.0,feet,OK,0.3,mm/hr,OK,1663.0,meters,OK,1889.0,meters,OK,1896.0,meters,OK
2025-01-26T19:44:13.106388,5.8,knots,OK,25.0,degrees,OK,22.6,knots,OK,21.8,°C,OK,15.1,°C,OK,1014.7,hPa,OK,7486.0,meters,OK,1100.0,feet,OK,0.4,mm/hr,OK,1836.0,meters,OK,1754.0,meters,OK,1931.0,meters,OK
2025-01-26T19:44:14.110720,9.7,knots,OK,20.0,degrees,OK,17.2,knots,OK,24.7,°C,OK,19.4,°C,OK,1013.2,hPa,OK,9599.0,meters,OK,2057.0,feet,OK,0.2,mm/hr,OK,1981.0,meters,OK,1573.0,meters,OK,1809.0,meters,OK
2025-01-26T19:44:15.115015,8.4,knots,OK,89.0,degrees,OK,13.4,knots,OK,18.1,°C,OK,19.1,°C,OK,1013.5,hPa,OK,9376.0,meters,OK,2484.0,feet,OK,0.1,mm/hr,OK,1907.0,meters,OK,1539.0,meters,OK,1817.0,meters,OK
2025-01-26T19:44:16.119379,6.2,knots,OK,31.0,degrees,OK,12.1,knots,OK,23.2,°C,OK,11.0,°C,OK,1013.5,hPa,OK,6133.0,meters,OK,2990.0,feet,OK,0.1,mm/hr,OK,1891.0,meters,OK,1955.0,meters,OK,1564.0,meters,OK
2025-01-26T19:44:17.123303,13.4,knots,OK,354.0,degrees,OK,20.2,knots,OK,23.8,°C,OK,19.3,°C,OK,1014.9,hPa,OK,8462.0,meters,OK,2541.0,feet,OK,0.2,mm/hr,OK,1555.0,meters,OK,1824.0,meters,OK,1501.0,meters,OK
2025-01-26T19:44:18.127861,11.9,knots,OK,112.0,degrees,OK,20.2,knots,OK,24.8,°C,OK,12.1,°C,OK,1013.0,hPa,OK,9709.0,meters,OK,1165.0,feet,OK,0.5,mm/hr,OK,1686.0,meters,OK,1846.0,meters,OK,1820.0,meters,OK
2025-01-26T19:44:19.131943,8.7,knots,OK,285.0,degrees,OK,17.0,knots,OK,24.6,°C,OK,10.2,°C,OK,1014.4,hPa,OK,9369.0,meters,OK,2047.0,feet,OK,0.2,mm/hr,OK,1799.0,meters,OK,1913.0,meters,OK,1947.0,meters,OK
2025-01-26T19:44:20.135514,6.6,knots,OK,81.0,degrees,OK,19.2,knots,OK,15.4,°C,OK,18.9,°C,OK,1013.1,hPa,OK,6129.0,meters,OK,2533.0,feet,OK,0.1,mm/hr,OK,1624.0,meters,OK,1906.0,meters,OK,1590.0,meters,OK
2025-01-26T19:44:21.139712,12.3,knots,OK,141.0,degrees,OK,14.0,knots,OK,22.4,°C,OK,16.8,°C,OK,1014.1,hPa,OK,6732.0,meters,OK,1501.0,feet,OK,0.4,mm/hr,OK,1894.0,meters,OK,1796.0,meters,OK,1911.0,meters,OK
2025-01-26T19:44:22.144236,14.0,knots,OK,167.0,degrees,OK,10.5,knots,OK,16.3,°C,OK,13.1,°C,OK,1014.3,hPa,OK,5970.0,meters,OK,1991.0,feet,OK,0.1,mm/hr,OK,1501.0,meters,OK,1520.0,meters,OK,1802.0,meters,OK
2025-01-26T19:44:23.149264,10.8,knots,OK,172.0,degrees,OK,21.6,knots,OK,17.0,°C,OK,13.6,°C,OK,1014.5,hPa,OK,7306.0,meters,OK,2103.0,feet,OK,0.1,mm/hr,OK,1549.0,meters,OK,1654.0,meters,OK,1509.0,meters,OK
2025-01-26T19:44:24.152283,13.3,knots,OK,107.0,degrees,OK,14.8,knots,OK,16.1,°C,OK,17.3,°C,OK,1014.8,hPa,OK,9229.0,meters,OK,1815.0,feet,OK,0.3,mm/hr,OK,1783.0,meters,OK,1854.0,meters,OK,1763.0,meters,OK
2025-01-26T19:44:25.156495,13.6,knots,OK,309.0,degrees,OK,23.9,knots,OK,21.5,°C,OK,10.6,°C,OK,1014.4,hPa,OK,9077.0,meters,OK,1147.0,feet,OK,0.4,mm/hr,OK,1685.0,meters,OK,1599.0,meters,OK,1571.0,meters,OK
2025-01-26T19:44:26.160947,6.9,knots,OK,315.0,degrees,OK,13.9,knots,OK,17.1,°C,OK,19.1,°C,OK,1014.0,hPa,OK,9443.0,meters,OK,1571.0,feet,OK,0.3,mm/hr,OK,1810.0,meters,OK,1985.0,meters,OK,1900.0,meters,OK
2025-01-26T19:44:27.165292,9.7,knots,OK,8.0,degrees,OK,14.3,knots,OK,20.4,°C,OK,18.7,°C,OK,1013.3,hPa,OK,9987.0,meters,OK,1653.0,feet,OK,0.5,mm/hr,OK,1624.0,meters,OK,1964.0,meters,OK,1773.0,meters,OK
2025-01-26T19:44:28.169742,14.9,knots,OK,279.0,degrees,OK,14.0,knots,OK,20.6,°C,OK,17.9,°C,OK,1013.9,hPa,OK,9559.0,meters,OK,2667.0,feet,OK,0.3,mm/hr,OK,1874.0,meters,OK,1647.0,meters,OK,1702.0,meters,OK
2025-01-26T19:44:29.173682,14.6,knots,OK,266.0,degrees,OK,12.8,knots,OK,24.4,°C,OK,11.8,°C,OK,1014.7,hPa,OK,6096.0,meters,OK,2216.0,feet,OK,0.2,mm/hr,OK,1918.0,meters,OK,1801.0,meters,OK,1680.0,meters,OK
2025-01-26T19:44:30.177636,10.2,knots,OK,345.0,degrees,OK,17.3,knots,OK,20.3,°C,OK,12.2,°C,OK,1014.0,hPa,OK,8092.0,meters,OK,1350.0,feet,OK,0.2,mm/hr,OK,1951.0,meters,OK,1750.0,meters,OK,1905.0,meters,OK
2025-01-26T19:44:31.182216,11.2,knots,OK,139.0,degrees,OK,21.1,knots,OK,15.9,°C,OK,14.0,°C,OK,1013.5,hPa,OK,8949.0,meters,OK,1954.0,feet,OK,0.0,mm/hr,OK,1610.0,meters,OK,1712.0,meters,OK,1736.0,meters,OK
2025-01-26T19:44:32.186333,11.4,knots,OK,185.0,degrees,OK,20.7,knots,OK,17.5,°C,OK,17.0,°C,OK,1013.1,hPa,OK,8100.0,meters,OK,1272.0,feet,OK,0.4,mm/hr,OK,1543.0,meters,OK,1547.0,meters,OK,1899.0,meters,OK
2025-01-26T19:44:33.190432,5.1,knots,OK,266.0,degrees,OK,18.8,knots,OK,16.1,°C,OK,14.9,°C,OK,1015.0,hPa,OK,9622.0,meters,OK,1263.0,feet,OK,0.4,mm/hr,OK,1842.0,meters,OK,1508.0,meters,OK,1991.0,meters,OK
2025-01-26T19:44:34.194849,12.5,knots,OK,55.0,degrees,OK,17.1,knots,OK,18.9,°C,OK,16.2,°C,OK,1013.7,hPa,OK,7385.0,meters,OK,2966.0,feet,OK,0.2,mm/hr,OK,1996.0,meters,OK,1563.0,meters,OK,1655.0,meters,OK
2025-01-26T19:44:35.199468,7.5,knots,OK,281.0,degrees,OK,15.3,knots,OK,20.4,°C,OK,15.8,°C,OK,1013.3,hPa,OK,9818.0,meters,OK,2846.0,feet,OK,0.1,mm/hr,OK,1545.0,meters,OK,1958.0,meters,OK,1867.0,meters,OK
2025-01-26T19:44:36.203833,13.4,knots,OK,65.0,degrees,OK,19.6,knots,OK,17.1,°C,OK,10.8,°C,OK,1013.2,hPa,OK,9167.0,meters,OK,2951.0,feet,OK,0.3,mm/hr,OK,1649.0,meters,OK,1936.0,meters,OK,1821.0,meters,OK
2025-01-26T19:44:37.207793,11.5,knots,OK,265.0,degrees,OK,10.3,knots,OK,19.3,°C,OK,11.5,°C,OK,1013.9,hPa,OK,6484.0,meters,OK,2674.0,feet,OK,0.5,mm/hr,OK,1970.0,meters,OK,1737.0,meters,OK,1876.0,meters,OK
2025-01-26T19:44:38.212151,5.8,knots,OK,178.0,degrees,OK,12.2,knots,OK,22.0,°C,OK,19.0,°C,OK,1014.8,hPa,OK,5441.0,meters,OK,1175.0,feet,OK,0.4,mm/hr,OK,1654.0,meters,OK,1990.0,meters,OK,1905.0,meters,OK
2025-01-26T19:44:39.217546,13.6,knots,OK,29.0,degrees,OK,11.3,knots,OK,23.1,°C,OK,16.6,°C,OK,1014.8,hPa,OK,5158.0,meters,OK,2855.0,feet,OK,0.0,mm/hr,OK,1690.0,meters,OK,1993.0,meters,OK,1949.0,meters,OK
2025-01-26T19:44:40.221927,13.7,knots,OK,244.0,degrees,OK,12.8,knots,OK,20.8,°C,OK,17.6,°C,OK,1013.2,hPa,OK,9279.0,meters,OK,1662.0,feet,OK,0.4,mm/hr,OK,1569.0,meters,OK,1993.0,meters,OK,1856.0,meters,OK
2025-01-26T19:44:41.225243,5.2,knots,OK,170.0,degrees,OK,15.2,knots,OK,19.4,°C,OK,11.3,°C,OK,1013.7,hPa,OK,5624.0,meters,OK,2489.0,feet,OK,0.4,mm/hr,OK,1625.0,meters,OK,1693.0,meters,OK,1514.0,meters,OK
2025-01-26T19:44:42.228238,8.6,knots,OK,112.0,degrees,OK,12.8,knots,OK,20.9,°C,OK,11.4,°C,OK,1013.7,hPa,OK,5183.0,meters,OK,2431.0,feet,OK,0.3,mm/hr,OK,1553.0,meters,OK,1757.0,meters,OK,1809.0,meters,OK
2025-01-26T19:44:43.232365,8.9,knots,OK,318.0,degrees,OK,14.8,knots,OK,22.8,°C,OK,19.1,°C,OK,1013.9,hPa,OK,6261.0,meters,OK,1472.0,feet,OK,0.1,mm/hr,OK,1941.0,meters,OK,1939.0,meters,OK,1665.0,meters,OK
2025-01-26T19:44:44.236674,14.7,knots,OK,172.0,degrees,OK,12.6,knots,OK,23.6,°C,OK,12.7,°C,OK,1014.0,hPa,OK,5056.0,meters,OK,2316.0,feet,OK,0.4,mm/hr,OK,1969.0,meters,OK,1846.0,meters,OK,1670.0,meters,OK
2025-01-26T19:44:45.241534,12.3,knots,OK,319.0,degrees,OK,16.6,knots,OK,15.3,°C,OK,14.5,°C,OK,1013.3,hPa,OK,5259.0,meters,OK,2380.0,feet,OK,0.0,mm/hr,OK,1594.0,meters,OK,1692.0,meters,OK,1890.0,meters,OK
2025-01-26T19:44:46.245757,15.0,knots,OK,116.0,degrees,OK,16.3,knots,OK,22.2,°C,OK,11.5,°C,OK,1014.3,hPa,OK,6368.0,meters,OK,2707.0,feet,OK,0.1,mm/hr,OK,1501.0,meters,OK,1728.0,meters,OK,1980.0,meters,OK
2025-01-26T19:44:47.249853,9.1,knots,OK,271.0,degrees,OK,21.4,knots,OK,16.0,°C,OK,19.0,°C,OK,1014.8,hPa,OK,9801.0,meters,OK,2417.0,feet,OK,0.3,mm/hr,OK,1677.0,meters,OK,1849.0,meters,OK,1750.0,meters,OK
2025-01-26T19:44:48.254128,12.5,knots,OK,300.0,degrees,OK,16.5,knots,OK,18.6,°C,OK,18.4,°C,OK,1013.3,hPa,OK,8254.0,meters,OK,1612.0,feet,OK,0.5,mm/hr,OK,1566.0,meters,OK,1600.0,meters,OK,1900.0,meters,OK
2025-01-26T19:44:49.258330,9.5,knots,OK,157.0,degrees,OK,15.0,knots,OK,18.2,°C,OK,12.9,°C,OK,1013.9,hPa,OK,9033.0,meters,OK,2074.0,feet,OK,0.1,mm/hr,OK,1823.0,meters,OK,1611.0,meters,OK,1596.0,meters,OK
2025-01-26T19:44:50.262436,6.1,knots,OK,203.0,degrees,OK,24.7,knots,OK,20.7,°C,OK,16.4,°C,OK,1013.0,hPa,OK,9826.0,meters,OK,1042.0,feet,OK,0.5,mm/hr,OK,1543.0,meters,OK,1892.0,meters,OK,1855.0,meters,OK
2025-01-26T19:44:51.267091,11.2,knots,OK,297.0,degrees,OK,14.6,knots,OK,15.4,°C,OK,10.9,°C,OK,1014.2,hPa,OK,8565.0,meters,OK,2367.0,feet,OK,0.4,mm/hr,OK,1777.0,meters,OK,1891.0,meters,OK,1558.0,meters,OK
2025-01-26T19:44:52.270739,6.7,knots,OK,151.0,degrees,OK,17.7,knots,OK,20.1,°C,OK,10.1,°C,OK,1013.7,hPa,OK,9619.0,meters,OK,1128.0,feet,OK,0.4,mm/hr,OK,1858.0,meters,OK,1608.0,meters,OK,1516.0,meters,OK
2025-01-26T19:44:53.275895,11.1,knots,OK,318.0,degrees,OK,12.2,knots,OK,16.6,°C,OK,15.2,°C,OK,1013.9,hPa,OK,9016.0,meters,OK,2713.0,feet,OK,0.4,mm/hr,OK,1772.0,meters,OK,1650.0,meters,OK,1923.0,meters,OK
2025-01-26T19:44:54.279749,7.2,knots,OK,230.0,degrees,OK,16.8,knots,OK,23.9,°C,OK,17.4,°C,OK,1013.4,hPa,OK,9491.0,meters,OK,1406.0,feet,OK,0.2,mm/hr,OK,1781.0,meters,OK,1542.0,meters,OK,1704.0,meters,OK
2025-01-26T19:44:55.284285,14.8,knots,OK,235.0,degrees,OK,20.6,knots,OK,20.1,°C,OK,13.5,°C,OK,1014.8,hPa,OK,5711.0,meters,OK,2842.0,feet,OK,0.4,mm/hr,OK,1652.0,meters,OK,1913.0,meters,OK,1982.0,meters,OK
2025-01-26T19:44:56.289511,8.4,knots,OK,203.0,degrees,OK,14.0,knots,OK,21.1,°C,OK,11.7,°C,OK,1014.8,hPa,OK,7931.0,meters,OK,2706.0,feet,OK,0.5,mm/hr,OK,1957.0,meters,OK,1745.0,meters,OK,1567.0,meters,OK
2025-01-26T19:44:57.294068,8.5,knots,OK,138.0,degrees,OK,15.1,knots,OK,24.2,°C,OK,16.3,°C,OK,1014.0,hPa,OK,8857.0,meters,OK,2743.0,feet,OK,0.1,mm/hr,OK,1711.0,meters,OK,1706.0,meters,OK,1791.0,meters,OK
2025-01-26T19:44:58.298653,5.7,knots,OK,343.0,degrees,OK,17.4,knots,OK,24.2,°C,OK,10.2,°C,OK,1014.0,hPa,OK,6618.0,meters,OK,1205.0,feet,OK,0.2,mm/hr,OK,1726.0,meters,OK,1679.0,meters,OK,1699.0,meters,OK
2025-01-26T19:44:59.303756,8.4,knots,OK,154.0,degrees,OK,21.5,knots,OK,21.1,°C,OK,18.4,°C,OK,1013.6,hPa,OK,9250.0,meters,OK,1694.0,feet,OK,0.2,mm/hr,OK,1934.0,meters,OK,1979.0,meters,OK,1912.0,meters,OK
2025-01-26T19:45:00.308168,8.7,knots,OK,214.0,degrees,OK,23.2,knots,OK,16.8,°C,OK,17.6,°C,OK,1013.0,hPa,OK,5022.0,meters,OK,2392.0,feet,OK,0.2,mm/hr,OK,1696.0,meters,OK,1919.0,meters,OK,1745.0,meters,OK
2025-01-26T19:45:01.311806,7.6,knots,OK,31.0,degrees,OK,18.4,knots,OK,19.6,°C,OK,15.9,°C,OK,1014.4,hPa,OK,5242.0,meters,OK,1977.0,feet,OK,0.2,mm/hr,OK,1981.0,meters,OK,1809.0,meters,OK,1686.0,meters,OK
2025-01-26T19:45:02.315959,9.4,knots,OK,96.0,degrees,OK,24.0,knots,OK,24.9,°C,OK,15.6,°C,OK,1014.9,hPa,OK,7623.0,meters,OK,2350.0,feet,OK,0.1,mm/hr,OK,1979.0,meters,OK,1651.0,meters,OK,1860.0,meters,OK
2025-01-26T19:45:03.320948,8.5,knots,OK,106.0,degrees,OK,16.8,knots,OK,25.0,°C,OK,15.5,°C,OK,1014.4,hPa,OK,9504.0,meters,OK,1146.0,feet,OK,0.1,mm/hr,OK,1990.0,meters,OK,1931.0,meters,OK,1950.0,meters,OK
2025-01-26T19:45:04.325632,12.9,knots,OK,319.0,degrees,OK,15.0,knots,OK,17.6,°C,OK,14.5,°C,OK,1014.6,hPa,OK,9212.0,meters,OK,2517.0,feet,OK,0.3,mm/hr,OK,1942.0,meters,OK,1993.0,meters,OK,1708.0,meters,OK
2025-01-26T19:45:05.330129,11.9,knots,OK,115.0,degrees,OK,11.5,knots,OK,16.0,°C,OK,18.9,°C,OK,1014.5,hPa,OK,6182.0,meters,OK,1724.0,feet,OK,0.1,mm/hr,OK,1774.0,meters,OK,1923.0,meters,OK,1662.0,meters,OK
2025-01-26T19:45:06.333702,7.9,knots,OK,205.0,degrees,OK,10.3,knots,OK,21.1,°C,OK,10.3,°C,OK,1014.8,hPa,OK,7843.0,meters,OK,1702.0,feet,OK,0.0,mm/hr,OK,1740.0,meters,OK,1616.0,meters,OK,1749.0,meters,OK
2025-01-26T19:45:07.337053,9.7,knots,OK,246.0,degrees,OK,14.1,knots,OK,21.0,°C,OK,19.4,°C,OK,1014.4,hPa,OK,6532.0,meters,OK,1502.0,feet,OK,0.3,mm/hr,OK,1824.0,meters,OK,1558.0,meters,OK,1659.0,meters,OK
2025-01-26T19:45:08.341098,8.7,knots,OK,27.0,degrees,OK,18.2,knots,OK,21.6,°C,OK,19.6,°C,OK,1014.0,hPa,OK,5408.0,meters,OK,2074.0,feet,OK,0.4,mm/hr,OK,1825.0,meters,OK,1709.0,meters,OK,1871.0,meters,OK
2025-01-26T19:45:09.345379,7.7,knots,OK,242.0,degrees,OK,20.2,knots,OK,21.5,°C,OK,17.6,°C,OK,1014.5,hPa,OK,9925.0,meters,OK,2656.0,feet,OK,0.3,mm/hr,OK,1957.0,meters,OK,1572.0,meters,OK,1582.0,meters,OK
2025-01-26T19:45:10.349636,11.0,knots,OK,32.0,degrees,OK,12.3,knots,OK,15.6,°C,OK,15.1,°C,OK,1014.8,hPa,OK,8978.0,meters,OK,2479.0,feet,OK,0.1,mm/hr,OK,1589.0,meters,OK,1992.0,meters,OK,1825.0,meters,OK
2025-01-26T19:45:11.353439,14.9,knots,OK,44.0,degrees,OK,10.6,knots,OK,15.1,°C,OK,11.4,°C,OK,1013.2,hPa,OK,7703.0,meters,OK,2280.0,feet,OK,0.2,mm/hr,OK,1594.0,meters,OK,1799.0,meters,OK,1910.0,meters,OK
2025-01-26T19:45:12.357795,13.9,knots,OK,255.0,degrees,OK,19.8,knots,OK,19.6,°C,OK,16.6,°C,OK,1014.2,hPa,OK,9197.0,meters,OK,2502.0,feet,OK,0.3,mm/hr,OK,1580.0,meters,OK,1735.0,meters,OK,1521.0,meters,OK
2025-01-26T19:45:13.361136,9.0,knots,OK,118.0,degrees,OK,20.8,knots,OK,22.5,°C,OK,14.6,°C,OK,1014.2,hPa,OK,6954.0,meters,OK,2152.0,feet,OK,0.1,mm/hr,OK,1800.0,meters,OK,1821.0,meters,OK,1872.0,meters,OK
2025-01-26T19:45:14.365055,10.3,knots,OK,255.0,degrees,OK,14.2,knots,OK,24.0,°C,OK,10.3,°C,OK,1014.5,hPa,OK,8136.0,meters,OK,1985.0,feet,OK,0.3,mm/hr,OK,1629.0,meters,OK,1892.0,meters,OK,1987.0,meters,OK
2025-01-26T19:45:15.369419,11.5,knots,OK,59.0,degrees,OK,19.1,knots,OK,15.7,°C,OK,14.8,°C,OK,1014.0,hPa,OK,5581.0,meters,OK,1005.0,feet,OK,0.4,mm/hr,OK,1669.0,meters,OK,1797.0,meters,OK,1521.0,meters,OK
2025-01-26T19:45:16.373837,11.8,knots,OK,85.0,degrees,OK,14.0,knots,OK,23.1,°C,OK,18.5,°C,OK,1014.8,hPa,OK,8771.0,meters,OK,1453.0,feet,OK,0.0,mm/hr,OK,1598.0,meters,OK,1551.0,meters,OK,1831.0,meters,OK
2025-01-26T19:45:17.377618,13.0,knots,OK,35.0,degrees,OK,19.2,knots,OK,15.6,°C,OK,12.6,°C,OK,1013.5,hPa,OK,7511.0,meters,OK,1396.0,feet,OK,0.0,mm/hr,OK,1734.0,meters,OK,1542.0,meters,OK,1590.0,meters,OK
2025-01-26T19:45:18.382255,10.5,knots,OK,336.0,degrees,OK,14.5,knots,OK,18.0,°C,OK,12.8,°C,OK,1014.2,hPa,OK,7598.0,meters,OK,1079.0,feet,OK,0.4,mm/hr,OK,1886.0,meters,OK,1545.0,meters,OK,1969.0,meters,OK
2025-01-26T19:45:19.387097,5.1,knots,OK,97.0,degrees,OK,22.3,knots,OK,21.3,°C,OK,10.2,°C,OK,1013.4,hPa,OK,7807.0,meters,OK,1510.0,feet,OK,0.1,mm/hr,OK,1677.0,meters,OK,1903.0,meters,OK,1674.0,meters,OK
2025-01-26T19:45:20.391538,7.8,knots,OK,156.0,degrees,OK,22.4,knots,OK,22.7,°C,OK,13.1,°C,OK,1014.4,hPa,OK,7143.0,meters,OK,2613.0,feet,OK,0.1,mm/hr,OK,1897.0,meters,OK,1756.0,meters,OK,1986.0,meters,OK
2025-01-26T19:45:21.396154,8.0,knots,OK,140.0,degrees,OK,17.8,knots,OK,21.8,°C,OK,12.7,°C,OK,1014.8,hPa,OK,7006.0,meters,OK,2607.0,feet,OK,0.2,mm/hr,OK,1732.0,meters,OK,1938.0,meters,OK,1812.0,meters,OK
2025-01-26T19:45:22.400450,14.4,knots,OK,304.0,degrees,OK,23.4,knots,OK,19.3,°C,OK,18.2,°C,OK,1014.4,hPa,OK,6703.0,meters,OK,1323.0,feet,OK,0.4,mm/hr,OK,1871.0,meters,OK,1586.0,meters,OK,1543.0,meters,OK
2025-01-26T19:45:23.404021,10.2,knots,OK,30.0,degrees,OK,14.1,knots,OK,19.9,°C,OK,12.0,°C,OK,1013.9,hPa,OK,8015.0,meters,OK,1510.0,feet,OK,0.0,mm/hr,OK,1776.0,meters,OK,1918.0,meters,OK,1562.0,meters,OK
2025-01-26T19:45:24.407900,12.6,knots,OK,8.0,degrees,OK,11.0,knots,OK,18.0,°C,OK,15.3,°C,OK,1014.0,hPa,OK,9409.0,meters,OK,1566.0,feet,OK,0.1,mm/hr,OK,1596.0,meters,OK,1687.0,meters,OK,1822.0,meters,OK
2025-01-26T19:45:25.412147,6.3,knots,OK,265.0,degrees,OK,11.6,knots,OK,21.6,°C,OK,13.1,°C,OK,1014.2,hPa,OK,9919.0,meters,OK,2447.0,feet,OK,0.0,mm/hr,OK,1768.0,meters,OK,1560.0,meters,OK,1878.0,meters,OK
2025-01-26T19:45:26.416100,11.3,knots,OK,119.0,degrees,OK,21.1,knots,OK,17.2,°C,OK,16.5,°C,OK,1014.9,hPa,OK,6317.0,meters,OK,1707.0,feet,OK,0.0,mm/hr,OK,1653.0,meters,OK,1591.0,meters,OK,1706.0,meters,OK
2025-01-26T19:45:27.420281,11.4,knots,OK,57.0,degrees,OK,24.9,knots,OK,22.0,°C,OK,13.8,°C,OK,1013.7,hPa,OK,8084.0,meters,OK,2258.0,feet,OK,0.4,mm/hr,OK,1778.0,meters,OK,1647.0,meters,OK,1886.0,meters,OK
2025-01-26T19:45:28.424928,14.2,knots,OK,9.0,degrees,OK,21.9,knots,OK,21.3,°C,OK,15.9,°C,OK,1014.2,hPa,OK,6696.0,meters,OK,1987.0,feet,OK,0.0,mm/hr,OK,1651.0,meters,OK,1934.0,meters,OK,1603.0,meters,OK
2025-01-26T19:45:29.429956,10.5,knots,OK,56.0,degrees,OK,16.6,knots,OK,23.1,°C,OK,10.3,°C,OK,1013.6,hPa,OK,6769.0,meters,OK,2123.0,feet,OK,0.1,mm/hr,OK,1569.0,meters,OK,1581.0,meters,OK,1854.0,meters,OK
2025-01-26T19:45:30.434564,7.8,knots,OK,187.0,degrees,OK,10.9,knots,OK,16.6,°C,OK,18.3,°C,OK,1014.2,hPa,OK,9904.0,meters,OK,1758.0,feet,OK,0.4,mm/hr,OK,1549.0,meters,OK,1873.0,meters,OK,1649.0,meters,OK
2025-01-26T19:45:31.438432,5.4,knots,OK,157.0,degrees,OK,24.7,knots,OK,15.7,°C,OK,18.5,°C,OK,1014.6,hPa,OK,7820.0,meters,OK,1555.0,feet,OK,0.4,mm/hr,OK,1710.0,meters,OK,1675.0,meters,OK,1686.0,meters,OK
2025-01-26T19:45:32.442204,6.2,knots,OK,135.0,degrees,OK,16.6,knots,OK,15.3,°C,OK,14.8,°C,OK,1013.8,hPa,OK,7946.0,meters,OK,1396.0,feet,OK,0.0,mm/hr,OK,1684.0,meters,OK,1906.0,meters,OK,1525.0,meters,OK
2025-01-26T19:45:33.446001,14.2,knots,OK,88.0,degrees,OK,23.6,knots,OK,22.2,°C,OK,17.3,°C,OK,1013.5,hPa,OK,8585.0,meters,OK,1810.0,feet,OK,0.3,mm/hr,OK,1660.0,meters,OK,1909.0,meters,OK,1861.0,meters,OK
2025-01-26T19:45:34.450309,10.7,knots,OK,340.0,degrees,OK,18.0,knots,OK,20.5,°C,OK,17.3,°C,OK,1013.7,hPa,OK,9293.0,meters,OK,2781.0,feet,OK,0.4,mm/hr,OK,1962.0,meters,OK,1673.0,meters,OK,1877.0,meters,OK
2025-01-26T19:45:35.455297,11.3,knots,OK,262.0,degrees,OK,15.5,knots,OK,22.3,°C,OK,18.5,°C,OK,1014.5,hPa,OK,5834.0,meters,OK,2008.0,feet,OK,0.1,mm/hr,OK,1981.0,meters,OK,1853.0,meters,OK,1895.0,meters,OK
2025-01-26T19:45:36.459521,7.5,knots,OK,155.0,degrees,OK,12.5,knots,OK,16.4,°C,OK,11.6,°C,OK,1013.4,hPa,OK,9822.0,meters,OK,2218.0,feet,OK,0.4,mm/hr,OK,1618.0,meters,OK,1588.0,meters,OK,1821.0,meters,OK
2025-01-26T19:45:37.463946,6.6,knots,OK,167.0,degrees,OK,12.4,knots,OK,23.2,°C,OK,14.4,°C,OK,1014.7,hPa,OK,7555.0,meters,OK,1089.0,feet,OK,0.3,mm/hr,OK,1816.0,meters,OK,1901.0,meters,OK,1557.0,meters,OK
2025-01-26T19:45:38.467476,11.8,knots,OK,23.0,degrees,OK,12.5,knots,OK,22.7,°C,OK,17.2,°C,OK,1014.0,hPa,OK,8062.0,meters,OK,1793.0,feet,OK,0.1,mm/hr,OK,1678.0,meters,OK,1691.0,meters,OK,1943.0,meters,OK
2025-01-26T19:45:39.472104,10.7,knots,OK,74.0,degrees,OK,24.0,knots,OK,24.0,°C,OK,18.3,°C,OK,1014.3,hPa,OK,7296.0,meters,OK,1306.0,feet,OK,0.2,mm/hr,OK,1626.0,meters,OK,1946.0,meters,OK,1946.0,meters,OK
2025-01-26T19:45:40.476735,14.1,knots,OK,188.0,degrees,OK,10.6,knots,OK,18.6,°C,OK,11.4,°C,OK,1013.1,hPa,OK,9059.0,meters,OK,1519.0,feet,OK,0.3,mm/hr,OK,1548.0,meters,OK,1658.0,meters,OK,1511.0,meters,OK
2025-01-26T19:45:41.480924,6.0,knots,OK,151.0,degrees,OK,17.7,knots,OK,16.0,°C,OK,14.3,°C,OK,1014.1,hPa,OK,7931.0,meters,OK,2060.0,feet,OK,0.0,mm/hr,OK,1893.0,meters,OK,1567.0,meters,OK,1747.0,meters,OK
2025-01-26T19:45:42.484834,12.9,knots,OK,266.0,degrees,OK,19.4,knots,OK,20.4,°C,OK,19.2,°C,OK,1014.9,hPa,OK,9841.0,meters,OK,2180.0,feet,OK,0.1,mm/hr,OK,1633.0,meters,OK,1988.0,meters,OK,1591.0,meters,OK
2025-01-26T19:45:43.489157,14.6,knots,OK,174.0,degrees,OK,20.4,knots,OK,16.3,°C,OK,16.8,°C,OK,1014.8,hPa,OK,7426.0,meters,OK,2857.0,feet,OK,0.0,mm/hr,OK,1936.0,meters,OK,1983.0,meters,OK,1645.0,meters,OK
2025-01-26T19:45:44.492072,11.1,knots,OK,223.0,degrees,OK,22.5,knots,OK,16.7,°C,OK,15.5,°C,OK,1013.3,hPa,OK,8480.0,meters,OK,1376.0,feet,OK,0.1,mm/hr,OK,1941.0,meters,OK,1753.0,meters,OK,1584.0,meters,OK
2025-01-26T19:45:45.495539,13.3,knots,OK,31.0,degrees,OK,15.9,knots,OK,22.1,°C,OK,18.7,°C,OK,1014.2,hPa,OK,5749.0,meters,OK,1818.0,feet,OK,0.2,mm/hr,OK,1586.0,meters,OK,1993.0,meters,OK,1643.0,meters,OK
2025-01-26T19:45:46.499783,9.2,knots,OK,88.0,degrees,OK,14.9,knots,OK,24.4,°C,OK,16.8,°C,OK,1013.4,hPa,OK,7951.0,meters,OK,1931.0,feet,OK,0.2,mm/hr,OK,1771.0,meters,OK,1525.0,meters,OK,1854.0,meters,OK
2025-01-26T19:45:47.504218,5.4,knots,OK,172.0,degrees,OK,15.3,knots,OK,18.4,°C,OK,13.2,°C,OK,1013.1,hPa,OK,7693.0,meters,OK,1152.0,feet,OK,0.2,mm/hr,OK,1599.0,meters,OK,1969.0,meters,OK,1736.0,meters,OK
2025-01-26T19:45:48.509006,14.4,knots,OK,111.0,degrees,OK,18.1,knots,OK,22.9,°C,OK,14.9,°C,OK,1014.8,hPa,OK,5566.0,meters,OK,1484.0,feet,OK,0.5,mm/hr,OK,1571.0,meters,OK,1730.0,meters,OK,1584.0,meters,OK
2025-01-26T19:45:49.513447,7.1,knots,OK,261.0,degrees,OK,14.0,knots,OK,19.2,°C,OK,15.7,°C,OK,1014.8,hPa,OK,8421.0,meters,OK,2964.0,feet,OK,0.0,mm/hr,OK,1768.0,meters,OK,1529.0,meters,OK,1863.0,meters,OK
2025-01-26T19:45:50.516921,10.0,knots,OK,259.0,degrees,OK,23.6,knots,OK,21.5,°C,OK,15.1,°C,OK,1013.9,hPa,OK,9461.0,meters,OK,2839.0,feet,OK,0.3,mm/hr,OK,1564.0,meters,OK,1699.0,meters,OK,1745.0,meters,OK
2025-01-26T19:45:51.521973,11.4,knots,OK,336.0,degrees,OK,16.4,knots,OK,16.3,°C,OK,11.7,°C,OK,1013.4,hPa,OK,9112.0,meters,OK,2393.0,feet,OK,0.4,mm/hr,OK,1999.0,meters,OK,1562.0,meters,OK,1556.0,meters,OK
2025-01-26T19:45:52.526530,10.2,knots,OK,197.0,degrees,OK,21.4,knots,OK,18.4,°C,OK,17.8,°C,OK,1013.2,hPa,OK,8601.0,meters,OK,2970.0,feet,OK,0.2,mm/hr,OK,1767.0,meters,OK,1671.0,meters,OK,1652.0,meters,OK
2025-01-26T19:45:53.530585,8.5,knots,OK,292.0,degrees,OK,18.0,knots,OK,22.8,°C,OK,11.9,°C,OK,1014.5,hPa,OK,6210.0,meters,OK,2377.0,feet,OK,0.0,mm/hr,OK,1968.0,meters,OK,1770.0,meters,OK,1919.0,meters,OK
2025-01-26T19:45:54.535137,7.2,knots,OK,6.0,degrees,OK,17.9,knots,OK,15.8,°C,OK,17.9,°C,OK,1013.3,hPa,OK,6292.0,meters,OK,2852.0,feet,OK,0.2,mm/hr,OK,1681.0,meters,OK,1805.0,meters,OK,1941.0,meters,OK
2025-01-26T19:45:55.539337,10.4,knots,OK,63.0,degrees,OK,21.8,knots,OK,24.5,°C,OK,18.7,°C,OK,1013.7,hPa,OK,7557.0,meters,OK,1067.0,feet,OK,0.1,mm/hr,OK,1747.0,meters,OK,1788.0,meters,OK,1501.0,meters,OK
2025-01-26T19:45:56.543404,7.3,knots,OK,25.0,degrees,OK,10.7,knots,OK,18.8,°C,OK,17.2,°C,OK,1013.0,hPa,OK,7480.0,meters,OK,1654.0,feet,OK,0.3,mm/hr,OK,1976.0,meters,OK,1507.0,meters,OK,1595.0,meters,OK
2025-01-26T19:45:57.546425,15.0,knots,OK,55.0,degrees,OK,13.1,knots,OK,21.0,°C,OK,15.8,°C,OK,1013.9,hPa,OK,9525.0,meters,OK,1467.0,feet,OK,0.2,mm/hr,OK,1577.0,meters,OK,1579.0,meters,OK,1910.0,meters,OK
2025-01-26T19:45:58.550036,12.6,knots,OK,20.0,degrees,OK,11.4,knots,OK,19.0,°C,OK,12.6,°C,OK,1013.2,hPa,OK,7109.0,meters,OK,2985.0,feet,OK,0.0,mm/hr,OK,1863.0,meters,OK,1528.0,meters,OK,1788.0,meters,OK
2025-01-26T19:45:59.555248,8.9,knots,OK,67.0,degrees,OK,12.7,knots,OK,18.2,°C,OK,13.5,°C,OK,1013.9,hPa,OK,7861.0,meters,OK,1355.0,feet,OK,0.4,mm/hr,OK,1831.0,meters,OK,1569.0,meters,OK,1913.0,meters,OK
2025-01-26T19:46:00.559257,8.1,knots,OK,312.0,degrees,OK,12.2,knots,OK,21.8,°C,OK,10.3,°C,OK,1013.7,hPa,OK,9361.0,meters,OK,2737.0,feet,OK,0.2,mm/hr,OK,1515.0,meters,OK,1674.0,meters,OK,1628.0,meters,OK
2025-01-26T19:46:01.563336,14.5,knots,OK,342.0,degrees,OK,20.6,knots,OK,17.2,°C,OK,16.6,°C,OK,1013.5,hPa,OK,5979.0,meters,OK,1610.0,feet,OK,0.2,mm/hr,OK,1588.0,meters,OK,1916.0,meters,OK,1596.0,meters,OK
2025-01-26T19:46:02.567086,13.2,knots,OK,106.0,degrees,OK,13.8,knots,OK,24.7,°C,OK,15.0,°C,OK,1014.6,hPa,OK,7045.0,meters,OK,1165.0,feet,OK,0.5,mm/hr,OK,1933.0,meters,OK,1599.0,meters,OK,1746.0,meters,OK
2025-01-26T19:46:03.570348,13.9,knots,OK,86.0,degrees,OK,22.8,knots,OK,23.2,°C,OK,13.9,°C,OK,1014.3,hPa,OK,8028.0,meters,OK,2719.0,feet,OK,0.2,mm/hr,OK,1834.0,meters,OK,1967.0,meters,OK,1571.0,meters,OK
2025-01-26T19:46:04.573427,10.4,knots,OK,271.0,degrees,OK,23.9,knots,OK,20.5,°C,OK,19.6,°C,OK,1014.6,hPa,OK,5235.0,meters,OK,1083.0,feet,OK,0.3,mm/hr,OK,1583.0,meters,OK,1607.0,meters,OK,1817.0,meters,OK
2025-01-26T19:46:05.578345,10.0,knots,OK,309.0,degrees,OK,14.5,knots,OK,17.8,°C,OK,16.8,°C,OK,1014.5,hPa,OK,9104.0,meters,OK,1728.0,feet,OK,0.5,mm/hr,OK,1875.0,meters,OK,1578.0,meters,OK,1765.0,meters,OK
2025-01-26T19:46:06.583093,11.4,knots,OK,282.0,degrees,OK,20.9,knots,OK,16.2,°C,OK,13.4,°C,OK,1013.9,hPa,OK,8572.0,meters,OK,2299.0,feet,OK,0.1,mm/hr,OK,1505.0,meters,OK,1796.0,meters,OK,1693.0,meters,OK
2025-01-26T19:46:07.587429,8.9,knots,OK,222.0,degrees,OK,22.8,knots,OK,21.6,°C,OK,15.6,°C,OK,1013.2,hPa,OK,7236.0,meters,OK,1329.0,feet,OK,0.2,mm/hr,OK,1925.0,meters,OK,1834.0,meters,OK,1598.0,meters,OK
2025-01-26T19:46:08.592061,9.2,knots,OK,273.0,degrees,OK,17.2,knots,OK,19.6,°C,OK,11.9,°C,OK,1013.9,hPa,OK,6724.0,meters,OK,1705.0,feet,OK,0.4,mm/hr,OK,1738.0,meters,OK,1632.0,meters,OK,1749.0,meters,OK
2025-01-26T19:46:09.596713,13.4,knots,OK,34.0,degrees,OK,15.4,knots,OK,20.6,°C,OK,17.6,°C,OK,1013.3,hPa,OK,6152.0,meters,OK,2726.0,feet,OK,0.3,mm/hr,OK,1746.0,meters,OK,1881.0,meters,OK,1991.0,meters,OK
2025-01-26T19:46:10.600015,6.3,knots,OK,133.0,degrees,OK,10.4,knots,OK,20.2,°C,OK,15.0,°C,OK,1013.2,hPa,OK,6740.0,meters,OK,1773.0,feet,OK,0.3,mm/hr,OK,1812.0,meters,OK,1606.0,meters,OK,1582.0,meters,OK
2025-01-26T19:46:11.603975,5.1,knots,OK,113.0,degrees,OK,14.6,knots,OK,21.2,°C,OK,19.5,°C,OK,1013.6,hPa,OK,8656.0,meters,OK,2805.0,feet,OK,0.1,mm/hr,OK,1624.0,meters,OK,1683.0,meters,OK,1628.0,meters,OK
2025-01-26T19:46:12.607780,7.1,knots,OK,224.0,degrees,OK,20.7,knots,OK,23.6,°C,OK,11.7,°C,OK,1014.0,hPa,OK,5935.0,meters,OK,1661.0,feet,OK,0.5,mm/hr,OK,1843.0,meters,OK,1643.0,meters,OK,1804.0,meters,OK
2025-01-26T19:46:13.612084,12.5,knots,OK,357.0,degrees,OK,24.3,knots,OK,20.9,°C,OK,13.5,°C,OK,1013.2,hPa,OK,7385.0,meters,OK,1714.0,feet,OK,0.1,mm/hr,OK,1792.0,meters,OK,1792.0,meters,OK,1851.0,meters,OK
2025-01-26T19:46:14.616662,9.5,knots,OK,68.0,degrees,OK,19.2,knots,OK,19.7,°C,OK,13.5,°C,OK,1013.5,hPa,OK,8447.0,meters,OK,2933.0,feet,OK,0.4,mm/hr,OK,1617.0,meters,OK,1574.0,meters,OK,1882.0,meters,OK
2025-01-26T19:46:15.620573,5.2,knots,OK,332.0,degrees,OK,10.3,knots,OK,23.5,°C,OK,19.9,°C,OK,1014.5,hPa,OK,8374.0,meters,OK,1729.0,feet,OK,0.3,mm/hr,OK,1943.0,meters,OK,1712.0,meters,OK,1594.0,meters,OK
2025-01-26T19:46:16.624803,12.5,knots,OK,13.0,degrees,OK,10.9,knots,OK,18.1,°C,OK,11.7,°C,OK,1014.3,hPa,OK,9267.0,meters,OK,2767.0,feet,OK,0.2,mm/hr,OK,1530.0,meters,OK,1708.0,meters,OK,1941.0,meters,OK
2025-01-26T19:46:17.629530,11.7,knots,OK,284.0,degrees,OK,12.3,knots,OK,21.0,°C,OK,13.2,°C,OK,1015.0,hPa,OK,8802.0,meters,OK,2671.0,feet,OK,0.1,mm/hr,OK,1703.0,meters,OK,1717.0,meters,OK,1504.0,meters,OK
2025-01-26T19:46:18.633321,11.9,knots,OK,140.0,degrees,OK,24.3,knots,OK,22.0,°C,OK,11.2,°C,OK,1013.7,hPa,OK,5365.0,meters,OK,2989.0,feet,OK,0.2,mm/hr,OK,1953.0,meters,OK,1737.0,meters,OK,1851.0,meters,OK
2025-01-26T19:46:19.637517,9.3,knots,OK,333.0,degrees,OK,11.0,knots,OK,23.3,°C,OK,11.2,°C,OK,1014.3,hPa,OK,7504.0,meters,OK,1935.0,feet,OK,0.5,mm/hr,OK,1847.0,meters,OK,1847.0,meters,OK,1502.0,meters,OK
2025-01-26T19:46:20.641680,11.6,knots,OK,142.0,degrees,OK,19.0,knots,OK,16.3,°C,OK,14.9,°C,OK,1013.9,hPa,OK,5006.0,meters,OK,1981.0,feet,OK,0.3,mm/hr,OK,1995.0,meters,OK,1925.0,meters,OK,1695.0,meters,OK
2025-01-26T19:46:21.645091,13.1,knots,OK,311.0,degrees,OK,14.1,knots,OK,23.8,°C,OK,17.0,°C,OK,1013.1,hPa,OK,8355.0,meters,OK,1578.0,feet,OK,0.4,mm/hr,OK,1928.0,meters,OK,1875.0,meters,OK,1809.0,meters,OK
2025-01-26T19:46:22.649472,8.5,knots,OK,52.0,degrees,OK,10.8,knots,OK,22.4,°C,OK,11.7,°C,OK,1013.7,hPa,OK,6041.0,meters,OK,2779.0,feet,OK,0.1,mm/hr,OK,1778.0,meters,OK,1595.0,meters,OK,1793.0,meters,OK
2025-01-26T19:46:23.653921,11.2,knots,OK,169.0,degrees,OK,11.0,knots,OK,20.8,°C,OK,12.1,°C,OK,1014.0,hPa,OK,5303.0,meters,OK,1789.0,feet,OK,0.4,mm/hr,OK,1861.0,meters,OK,1578.0,meters,OK,1718.0,meters,OK
2025-01-26T19:46:24.658056,9.5,knots,OK,17.0,degrees,OK,16.4,knots,OK,23.0,°C,OK,16.7,°C,OK,1013.7,hPa,OK,6187.0,meters,OK,1386.0,feet,OK,0.0,mm/hr,OK,1906.0,meters,OK,1888.0,meters,OK,1925.0,meters,OK
2025-01-26T19:46:25.663095,7.3,knots,OK,58.0,degrees,OK,21.7,knots,OK,17.4,°C,OK,12.3,°C,OK,1014.3,hPa,OK,5503.0,meters,OK,2895.0,feet,OK,0.0,mm/hr,OK,1744.0,meters,OK,1708.0,meters,OK,1917.0,meters,OK
2025-01-26T19:46:26.667275,12.1,knots,OK,53.0,degrees,OK,17.7,knots,OK,22.2,°C,OK,18.1,°C,OK,1013.7,hPa,OK,7110.0,meters,OK,1835.0,feet,OK,0.5,mm/hr,OK,1707.0,meters,OK,1681.0,meters,OK,1818.0,meters,OK
2025-01-26T19:46:27.672286,6.0,knots,OK,142.0,degrees,OK,18.5,knots,OK,20.3,°C,OK,10.8,°C,OK,1014.3,hPa,OK,9463.0,meters,OK,2448.0,feet,OK,0.0,mm/hr,OK,1538.0,meters,OK,1932.0,meters,OK,1574.0,meters,OK
2025-01-26T19:46:28.676763,11.2,knots,OK,269.0,degrees,OK,22.0,knots,OK,17.8,°C,OK,14.1,°C,OK,1014.0,hPa,OK,8907.0,meters,OK,2306.0,feet,OK,0.3,mm/hr,OK,1783.0,meters,OK,1529.0,meters,OK,1945.0,meters,OK
2025-01-26T19:46:29.680213,11.4,knots,OK,72.0,degrees,OK,22.8,knots,OK,23.6,°C,OK,15.9,°C,OK,1013.7,hPa,OK,8982.0,meters,OK,1851.0,feet,OK,0.0,mm/hr,OK,1598.0,meters,OK,1653.0,meters,OK,1929.0,meters,OK
2025-01-26T19:46:30.684167,13.5,knots,OK,162.0,degrees,OK,12.9,knots,OK,20.8,°C,OK,13.0,°C,OK,1014.6,hPa,OK,8576.0,meters,OK,2633.0,feet,OK,0.3,mm/hr,OK,1875.0,meters,OK,1523.0,meters,OK,1754.0,meters,OK
2025-01-26T19:46:31.688307,5.1,knots,OK,309.0,degrees,OK,15.0,knots,OK,17.8,°C,OK,12.5,°C,OK,1015.0,hPa,OK,6770.0,meters,OK,2739.0,feet,OK,0.5,mm/hr,OK,1549.0,meters,OK,1993.0,meters,OK,1759.0,meters,OK
2025-01-26T19:46:32.692469,12.3,knots,OK,24.0,degrees,OK,20.8,knots,OK,18.5,°C,OK,19.4,°C,OK,1014.8,hPa,OK,5948.0,meters,OK,2117.0,feet,OK,0.1,mm/hr,OK,1895.0,meters,OK,1874.0,meters,OK,1704.0,meters,OK
2025-01-26T19:46:33.696871,9.9,knots,OK,162.0,degrees,OK,16.3,knots,OK,20.3,°C,OK,11.1,°C,OK,1013.2,hPa,OK,5966.0,meters,OK,2687.0,feet,OK,0.1,mm/hr,OK,1676.0,meters,OK,1570.0,meters,OK,1954.0,meters,OK
2025-01-26T19:46:34.700901,12.2,knots,OK,108.0,degrees,OK,24.7,knots,OK,16.6,°C,OK,12.9,°C,OK,1013.6,hPa,OK,6375.0,meters,OK,1654.0,feet,OK,0.2,mm/hr,OK,1793.0,meters,OK,1594.0,meters,OK,1685.0,meters,OK
2025-01-26T19:46:35.705901,12.9,knots,OK,83.0,degrees,OK,13.8,knots,OK,18.2,°C,OK,19.9,°C,OK,1013.8,hPa,OK,5720.0,meters,OK,2032.0,feet,OK,0.0,mm/hr,OK,1617.0,meters,OK,1812.0,meters,OK,1963.0,meters,OK
2025-01-26T19:46:36.710009,6.2,knots,OK,143.0,degrees,OK,16.7,knots,OK,24.2,°C,OK,16.4,°C,OK,1013.5,hPa,OK,9798.0,meters,OK,2109.0,feet,OK,0.3,mm/hr,OK,1696.0,meters,OK,1590.0,meters,OK,1745.0,meters,OK
2025-01-26T19:46:37.715020,5.2,knots,OK,114.0,degrees,OK,22.9,knots,OK,16.5,°C,OK,17.0,°C,OK,1014.2,hPa,OK,8154.0,meters,OK,1420.0,feet,OK,0.3,mm/hr,OK,1589.0,meters,OK,1975.0,meters,OK,1591.0,meters,OK
2025-01-26T19:46:38.719070,11.4,knots,OK,285.0,degrees,OK,17.8,knots,OK,17.2,°C,OK,12.6,°C,OK,1014.5,hPa,OK,6772.0,meters,OK,1973.0,feet,OK,0.4,mm/hr,OK,1562.0,meters,OK,1988.0,meters,OK,1978.0,meters,OK
2025-01-26T19:46:39.723492,10.1,knots,OK,279.0,degrees,OK,20.7,knots,OK,22.6,°C,OK,14.7,°C,OK,1013.0,hPa,OK,8708.0,meters,OK,2259.0,feet,OK,0.0,mm/hr,OK,1799.0,meters,OK,1574.0,meters,OK,1741.0,meters,OK
2025-01-26T19:46:40.727707,7.0,knots,OK,191.0,degrees,OK,15.8,knots,OK,21.5,°C,OK,18.8,°C,OK,1014.0,hPa,OK,8906.0,meters,OK,1958.0,feet,OK,0.0,mm/hr,OK,1727.0,meters,OK,1673.0,meters,OK,1698.0,meters,OK
2025-01-26T19:46:41.731586,11.9,knots,OK,296.0,degrees,OK,16.6,knots,OK,18.8,°C,OK,17.0,°C,OK,1014.5,hPa,OK,8900.0,meters,OK,1344.0,feet,OK,0.1,mm/hr,OK,1581.0,meters,OK,1802.0,meters,OK,1682.0,meters,OK
2025-01-26T19:46:42.735040,7.4,knots,OK,277.0,degrees,OK,17.4,knots,OK,24.3,°C,OK,13.5,°C,OK,1014.9,hPa,OK,6693.0,meters,OK,1741.0,feet,OK,0.1,mm/hr,OK,1730.0,meters,OK,1979.0,meters,OK,1838.0,meters,OK
2025-01-26T19:46:43.738033,12.6,knots,OK,191.0,degrees,OK,12.7,knots,OK,16.5,°C,OK,13.9,°C,OK,1013.9,hPa,OK,5589.0,meters,OK,2976.0,feet,OK,0.3,mm/hr,OK,1647.0,meters,OK,1504.0,meters,OK,1635.0,meters,OK
2025-01-26T19:46:44.742124,10.4,knots,OK,194.0,degrees,OK,16.1,knots,OK,20.3,°C,OK,15.7,°C,OK,1013.6,hPa,OK,6357.0,meters,OK,1606.0,feet,OK,0.1,mm/hr,OK,1903.0,meters,OK,1719.0,meters,OK,1778.0,meters,OK
2025-01-26T19:46:45.746578,8.9,knots,OK,126.0,degrees,OK,24.0,knots,OK,15.6,°C,OK,15.6,°C,OK,1014.6,hPa,OK,7433.0,meters,OK,2770.0,feet,OK,0.1,mm/hr,OK,1894.0,meters,OK,1934.0,meters,OK,1619.0,meters,OK
2025-01-26T19:46:46.751077,11.7,knots,OK,30.0,degrees,OK,22.5,knots,OK,22.8,°C,OK,14.1,°C,OK,1013.8,hPa,OK,9313.0,meters,OK,2701.0,feet,OK,0.2,mm/hr,OK,1596.0,meters,OK,1985.0,meters,OK,1745.0,meters,OK
2025-01-26T19:46:47.755753,10.4,knots,OK,255.0,degrees,OK,21.9,knots,OK,16.2,°C,OK,19.5,°C,OK,1013.3,hPa,OK,5717.0,meters,OK,1756.0,feet,OK,0.2,mm/hr,OK,1508.0,meters,OK,1654.0,meters,OK,1636.0,meters,OK
2025-01-26T19:46:48.759271,7.8,knots,OK,333.0,degrees,OK,10.4,knots,OK,16.5,°C,OK,14.9,°C,OK,1013.0,hPa,OK,5983.0,meters,OK,2977.0,feet,OK,0.3,mm/hr,OK,1681.0,meters,OK,1504.0,meters,OK,1552.0,meters,OK
2025-01-26T19:46:49.761945,13.2,knots,OK,279.0,degrees,OK,23.4,knots,OK,16.0,°C,OK,13.5,°C,OK,1013.9,hPa,OK,5718.0,meters,OK,1084.0,feet,OK,0.0,mm/hr,OK,1581.0,meters,OK,1641.0,meters,OK,1986.0,meters,OK
2025-01-26T19:46:50.765169,11.4,knots,OK,258.0,degrees,OK,21.1,knots,OK,15.8,°C,OK,15.7,°C,OK,1013.7,hPa,OK,5812.0,meters,OK,2769.0,feet,OK,0.2,mm/hr,OK,1508.0,meters,OK,1905.0,meters,OK,1718.0,meters,OK
2025-01-26T19:46:51.768594,14.9,knots,OK,126.0,degrees,OK,23.7,knots,OK,19.5,°C,OK,14.5,°C,OK,1013.5,hPa,OK,9986.0,meters,OK,2164.0,feet,OK,0.2,mm/hr,OK,1762.0,meters,OK,1656.0,meters,OK,1519.0,meters,OK
2025-01-26T19:46:52.772361,5.4,knots,OK,129.0,degrees,OK,11.3,knots,OK,19.5,°C,OK,18.8,°C,OK,1014.4,hPa,OK,6731.0,meters,OK,2324.0,feet,OK,0.2,mm/hr,OK,1578.0,meters,OK,1598.0,meters,OK,1951.0,meters,OK
2025-01-26T19:46:53.775964,8.6,knots,OK,287.0,degrees,OK,24.6,knots,OK,17.5,°C,OK,11.7,°C,OK,1013.3,hPa,OK,7114.0,meters,OK,1491.0,feet,OK,0.3,mm/hr,OK,1824.0,meters,OK,1798.0,meters,OK,1919.0,meters,OK
2025-01-26T19:46:54.779791,6.1,knots,OK,45.0,degrees,OK,13.5,knots,OK,18.7,°C,OK,10.9,°C,OK,1014.2,hPa,OK,6203.0,meters,OK,2043.0,feet,OK,0.4,mm/hr,OK,1827.0,meters,OK,1842.0,meters,OK,1755.0,meters,OK
2025-01-26T19:46:55.783762,12.2,knots,OK,308.0,degrees,OK,10.5,knots,OK,21.2,°C,OK,19.8,°C,OK,1013.9,hPa,OK,7292.0,meters,OK,1728.0,feet,OK,0.1,mm/hr,OK,1606.0,meters,OK,1560.0,meters,OK,1544.0,meters,OK
2025-01-26T19:46:56.787359,13.0,knots,OK,127.0,degrees,OK,17.8,knots,OK,15.4,°C,OK,19.5,°C,OK,1014.2,hPa,OK,5196.0,meters,OK,2129.0,feet,OK,0.5,mm/hr,OK,1892.0,meters,OK,1690.0,meters,OK,1522.0,meters,OK
2025-01-26T19:46:57.791004,13.3,knots,OK,79.0,degrees,OK,13.2,knots,OK,21.5,°C,OK,15.0,°C,OK,1013.4,hPa,OK,6714.0,meters,OK,2939.0,feet,OK,0.1,mm/hr,OK,1666.0,meters,OK,1614.0,meters,OK,1830.0,meters,OK
2025-01-26T19:46:58.795051,7.0,knots,OK,182.0,degrees,OK,14.2,knots,OK,19.6,°C,OK,16.6,°C,OK,1013.6,hPa,OK,6571.0,meters,OK,1143.0,feet,OK,0.1,mm/hr,OK,1846.0,meters,OK,1659.0,meters,OK,1624.0,meters,OK
2025-01-26T19:46:59.799170,5.4,knots,OK,329.0,degrees,OK,24.0,knots,OK,24.1,°C,OK,11.5,°C,OK,1014.6,hPa,OK,6959.0,meters,OK,2615.0,feet,OK,0.5,mm/hr,OK,1934.0,meters,OK,1723.0,meters,OK,1957.0,meters,OK
2025-01-26T19:47:00.803821,8.1,knots,OK,90.0,degrees,OK,22.4,knots,OK,17.9,°C,OK,11.9,°C,OK,1013.5,hPa,OK,6662.0,meters,OK,2430.0,feet,OK,0.4,mm/hr,OK,1862.0,meters,OK,1726.0,meters,OK,1880.0,meters,OK
2025-01-26T19:47:01.807645,14.0,knots,OK,84.0,degrees,OK,20.0,knots,OK,22.4,°C,OK,12.3,°C,OK,1014.2,hPa,OK,7267.0,meters,OK,2191.0,feet,OK,0.5,mm/hr,OK,1571.0,meters,OK,1911.0,meters,OK,1826.0,meters,OK
2025-01-26T19:47:02.811870,8.1,knots,OK,193.0,degrees,OK,17.9,knots,OK,23.1,°C,OK,19.5,°C,OK,1013.5,hPa,OK,9723.0,meters,OK,1655.0,feet,OK,0.1,mm/hr,OK,1541.0,meters,OK,1981.0,meters,OK,1740.0,meters,OK
2025-01-26T19:47:03.815518,8.4,knots,OK,33.0,degrees,OK,13.4,knots,OK,21.5,°C,OK,16.5,°C,OK,1013.8,hPa,OK,5618.0,meters,OK,2205.0,feet,OK,0.4,mm/hr,OK,1614.0,meters,OK,1589.0,meters,OK,1837.0,meters,OK
2025-01-26T19:47:04.819764,7.4,knots,OK,85.0,degrees,OK,20.1,knots,OK,24.0,°C,OK,18.8,°C,OK,1015.0,hPa,OK,7925.0,meters,OK,1990.0,feet,OK,0.2,mm/hr,OK,1839.0,meters,OK,1643.0,meters,OK,1827.0,meters,OK
2025-01-26T19:47:05.823763,6.5,knots,OK,49.0,degrees,OK,15.8,knots,OK,18.3,°C,OK,13.5,°C,OK,1014.1,hPa,OK,9171.0,meters,OK,1764.0,feet,OK,0.1,mm/hr,OK,1561.0,meters,OK,1749.0,meters,OK,1697.0,meters,OK
2025-01-26T19:47:06.827998,10.5,knots,OK,2.0,degrees,OK,23.1,knots,OK,22.5,°C,OK,11.2,°C,OK,1014.3,hPa,OK,7187.0,meters,OK,1716.0,feet,OK,0.2,mm/hr,OK,1943.0,meters,OK,1570.0,meters,OK,1878.0,meters,OK
2025-01-26T19:47:07.831516,5.9,knots,OK,346.0,degrees,OK,14.7,knots,OK,15.2,°C,OK,10.2,°C,OK,1014.1,hPa,OK,9090.0,meters,OK,1878.0,feet,OK,0.1,mm/hr,OK,1870.0,meters,OK,1739.0,meters,OK,1961.0,meters,OK
2025-01-26T19:47:08.834956,10.8,knots,OK,347.0,degrees,OK,16.0,knots,OK,18.8,°C,OK,14.7,°C,OK,1014.7,hPa,OK,8103.0,meters,OK,1196.0,feet,OK,0.4,mm/hr,OK,1664.0,meters,OK,1528.0,meters,OK,1511.0,meters,OK
2025-01-26T19:47:09.840068,12.1,knots,OK,46.0,degrees,OK,14.6,knots,OK,16.7,°C,OK,12.0,°C,OK,1013.2,hPa,OK,6053.0,meters,OK,2996.0,feet,OK,0.2,mm/hr,OK,1600.0,meters,OK,1625.0,meters,OK,1991.0,meters,OK
2025-01-26T19:47:10.844950,8.1,knots,OK,208.0,degrees,OK,17.1,knots,OK,17.0,°C,OK,11.5,°C,OK,1014.2,hPa,OK,6410.0,meters,OK,2845.0,feet,OK,0.3,mm/hr,OK,1797.0,meters,OK,1754.0,meters,OK,1931.0,meters,OK
2025-01-26T19:47:11.848949,6.4,knots,OK,54.0,degrees,OK,23.0,knots,OK,21.7,°C,OK,13.2,°C,OK,1014.2,hPa,OK,9460.0,meters,OK,1560.0,feet,OK,0.3,mm/hr,OK,1568.0,meters,OK,1592.0,meters,OK,1960.0,meters,OK
2025-01-26T19:47:12.853489,14.3,knots,OK,207.0,degrees,OK,20.3,knots,OK,16.2,°C,OK,17.3,°C,OK,1013.5,hPa,OK,9665.0,meters,OK,2370.0,feet,OK,0.1,mm/hr,OK,1514.0,meters,OK,1536.0,meters,OK,1948.0,meters,OK
2025-01-26T19:47:13.858895,14.5,knots,OK,342.0,degrees,OK,24.5,knots,OK,23.1,°C,OK,15.0,°C,OK,1014.9,hPa,OK,6610.0,meters,OK,1763.0,feet,OK,0.3,mm/hr,OK,1772.0,meters,OK,1986.0,meters,OK,1540.0,meters,OK
2025-01-26T19:47:14.863816,5.9,knots,OK,335.0,degrees,OK,12.4,knots,OK,15.2,°C,OK,10.6,°C,OK,1014.1,hPa,OK,7934.0,meters,OK,2817.0,feet,OK,0.1,mm/hr,OK,1852.0,meters,OK,1715.0,meters,OK,1524.0,meters,OK
2025-01-26T19:47:15.868410,9.8,knots,OK,10.0,degrees,OK,24.5,knots,OK,20.7,°C,OK,11.9,°C,OK,1014.7,hPa,OK,6581.0,meters,OK,1923.0,feet,OK,0.4,mm/hr,OK,1622.0,meters,OK,1593.0,meters,OK,1925.0,meters,OK
2025-01-26T19:47:16.873186,13.4,knots,OK,63.0,degrees,OK,13.0,knots,OK,19.1,°C,OK,19.4,°C,OK,1014.0,hPa,OK,5133.0,meters,OK,1177.0,feet,OK,0.5,mm/hr,OK,1819.0,meters,OK,1961.0,meters,OK,1895.0,meters,OK
2025-01-26T19:47:17.878150,11.7,knots,OK,168.0,degrees,OK,13.6,knots,OK,18.4,°C,OK,13.5,°C,OK,1014.3,hPa,OK,9555.0,meters,OK,2261.0,feet,OK,0.4,mm/hr,OK,1926.0,meters,OK,1514.0,meters,OK,1957.0,meters,OK
2025-01-26T19:47:18.882586,5.3,knots,OK,139.0,degrees,OK,12.9,knots,OK,24.0,°C,OK,15.5,°C,OK,1013.7,hPa,OK,8660.0,meters,OK,2562.0,feet,OK,0.1,mm/hr,OK,1517.0,meters,OK,1725.0,meters,OK,1713.0,meters,OK
2025-01-26T19:47:19.887269,13.0,knots,OK,100.0,degrees,OK,12.3,knots,OK,17.7,°C,OK,16.4,°C,OK,1014.7,hPa,OK,5751.0,meters,OK,1026.0,feet,OK,0.5,mm/hr,OK,1857.0,meters,OK,1638.0,meters,OK,1954.0,meters,OK
2025-01-26T19:47:20.892091,13.2,knots,OK,290.0,degrees,OK,17.8,knots,OK,16.1,°C,OK,12.4,°C,OK,1014.4,hPa,OK,6477.0,meters,OK,1724.0,feet,OK,0.4,mm/hr,OK,1593.0,meters,OK,1890.0,meters,OK,1645.0,meters,OK
2025-01-26T19:47:21.895670,14.2,knots,OK,270.0,degrees,OK,23.6,knots,OK,24.2,°C,OK,11.1,°C,OK,1013.7,hPa,OK,9213.0,meters,OK,1789.0,feet,OK,0.4,mm/hr,OK,1783.0,meters,OK,1996.0,meters,OK,1542.0,meters,OK
2025-01-26T19:47:22.899921,13.9,knots,OK,358.0,degrees,OK,13.4,knots,OK,23.2,°C,OK,18.1,°C,OK,1013.2,hPa,OK,6778.0,meters,OK,2819.0,feet,OK,0.2,mm/hr,OK,1575.0,meters,OK,1649.0,meters,OK,1621.0,meters,OK
2025-01-26T19:47:23.904666,11.2,knots,OK,338.0,degrees,OK,20.0,knots,OK,24.7,°C,OK,12.6,°C,OK,1014.7,hPa,OK,9672.0,meters,OK,1673.0,feet,OK,0.1,mm/hr,OK,1528.0,meters,OK,1655.0,meters,OK,1846.0,meters,OK
2025-01-26T19:47:24.909956,13.3,knots,OK,211.0,degrees,OK,11.6,knots,OK,15.4,°C,OK,18.2,°C,OK,1014.6,hPa,OK,6976.0,meters,OK,1098.0,feet,OK,0.1,mm/hr,OK,1735.0,meters,OK,1647.0,meters,OK,1572.0,meters,OK
2025-01-26T19:47:25.914356,11.4,knots,OK,207.0,degrees,OK,20.1,knots,OK,16.4,°C,OK,19.8,°C,OK,1013.1,hPa,OK,9044.0,meters,OK,1735.0,feet,OK,0.1,mm/hr,OK,1940.0,meters,OK,1746.0,meters,OK,1528.0,meters,OK
2025-01-26T19:47:26.918805,5.8,knots,OK,59.0,degrees,OK,23.0,knots,OK,20.8,°C,OK,17.0,°C,OK,1013.6,hPa,OK,9183.0,meters,OK,1744.0,feet,OK,0.1,mm/hr,OK,1687.0,meters,OK,1790.0,meters,OK,1738.0,meters,OK
2025-01-26T19:47:27.922267,13.6,knots,OK,358.0,degrees,OK,12.2,knots,OK,21.1,°C,OK,15.8,°C,OK,1013.7,hPa,OK,7950.0,meters,OK,1992.0,feet,OK,0.5,mm/hr,OK,1783.0,meters,OK,1571.0,meters,OK,1866.0,meters,OK
2025-01-26T19:47:28.925714,12.2,knots,OK,266.0,degrees,OK,18.6,knots,OK,19.3,°C,OK,16.9,°C,OK,1015.0,hPa,OK,9315.0,meters,OK,2244.0,feet,OK,0.2,mm/hr,OK,1614.0,meters,OK,1538.0,meters,OK,1842.0,meters,OK
2025-01-26T19:47:29.930079,8.1,knots,OK,312.0,degrees,OK,24.8,knots,OK,23.6,°C,OK,18.2,°C,OK,1014.3,hPa,OK,9806.0,meters,OK,2737.0,feet,OK,0.3,mm/hr,OK,1932.0,meters,OK,1955.0,meters,OK,1662.0,meters,OK
2025-01-26T19:47:30.935328,6.5,knots,OK,265.0,degrees,OK,19.4,knots,OK,16.0,°C,OK,17.9,°C,OK,1013.1,hPa,OK,7763.0,meters,OK,1331.0,feet,OK,0.2,mm/hr,OK,1679.0,meters,OK,1634.0,meters,OK,1810.0,meters,OK
2025-01-26T19:47:31.939823,15.0,knots,OK,322.0,degrees,OK,20.5,knots,OK,23.5,°C,OK,17.1,°C,OK,1014.9,hPa,OK,5003.0,meters,OK,2844.0,feet,OK,0.1,mm/hr,OK,1618.0,meters,OK,1620.0,meters,OK,1745.0,meters,OK
2025-01-26T19:47:32.944287,11.0,knots,OK,51.0,degrees,OK,18.7,knots,OK,16.0,°C,OK,12.0,°C,OK,1013.4,hPa,OK,5222.0,meters,OK,1083.0,feet,OK,0.3,mm/hr,OK,1505.0,meters,OK,1804.0,meters,OK,1514.0,meters,OK
2025-01-26T19:47:33.948345,9.8,knots,OK,130.0,degrees,OK,23.7,knots,OK,19.3,°C,OK,10.9,°C,OK,1014.8,hPa,OK,5748.0,meters,OK,1126.0,feet,OK,0.5,mm/hr,OK,1574.0,meters,OK,1874.0,meters,OK,1610.0,meters,OK
2025-01-26T19:47:34.951471,6.3,knots,OK,283.0,degrees,OK,22.0,knots,OK,17.5,°C,OK,19.1,°C,OK,1013.2,hPa,OK,5772.0,meters,OK,2059.0,feet,OK,0.3,mm/hr,OK,1862.0,meters,OK,1594.0,meters,OK,1694.0,meters,OK
2025-01-26T19:47:35.955910,8.3,knots,OK,153.0,degrees,OK,22.2,knots,OK,16.7,°C,OK,14.0,°C,OK,1013.4,hPa,OK,9110.0,meters,OK,2327.0,feet,OK,0.3,mm/hr,OK,1558.0,meters,OK,1750.0,meters,OK,1913.0,meters,OK
2025-01-26T19:47:36.960620,9.9,knots,OK,308.0,degrees,OK,21.8,knots,OK,15.2,°C,OK,17.1,°C,OK,1013.4,hPa,OK,9211.0,meters,OK,2792.0,feet,OK,0.3,mm/hr,OK,1778.0,meters,OK,1798.0,meters,OK,1782.0,meters,OK
2025-01-26T19:47:37.965626,7.1,knots,OK,264.0,degrees,OK,24.3,knots,OK,15.6,°C,OK,10.2,°C,OK,1014.2,hPa,OK,8215.0,meters,OK,1924.0,feet,OK,0.4,mm/hr,OK,1871.0,meters,OK,1761.0,meters,OK,1581.0,meters,OK
2025-01-26T19:47:38.971341,7.9,knots,OK,257.0,degrees,OK,17.6,knots,OK,18.6,°C,OK,13.9,°C,OK,1013.8,hPa,OK,9143.0,meters,OK,1221.0,feet,OK,0.4,mm/hr,OK,1560.0,meters,OK,1690.0,meters,OK,1825.0,meters,OK
2025-01-26T19:47:39.975196,10.7,knots,OK,159.0,degrees,OK,19.6,knots,OK,18.0,°C,OK,14.7,°C,OK,1014.1,hPa,OK,9938.0,meters,OK,1202.0,feet,OK,0.5,mm/hr,OK,1613.0,meters,OK,1853.0,meters,OK,1841.0,meters,OK
2025-01-26T19:47:40.978644,6.2,knots,OK,139.0,degrees,OK,20.0,knots,OK,19.9,°C,OK,18.5,°C,OK,1014.7,hPa,OK,9584.0,meters,OK,2191.0,feet,OK,0.4,mm/hr,OK,1804.0,meters,OK,1774.0,meters,OK,1923.0,meters,OK
2025-01-26T19:47:41.983012,12.8,knots,OK,81.0,degrees,OK,12.8,knots,OK,23.8,°C,OK,14.5,°C,OK,1014.5,hPa,OK,8337.0,meters,OK,2455.0,feet,OK,0.4,mm/hr,OK,1620.0,meters,OK,1969.0,meters,OK,1973.0,meters,OK
2025-01-26T19:47:42.987848,12.7,knots,OK,264.0,degrees,OK,22.8,knots,OK,21.7,°C,OK,13.5,°C,OK,1014.7,hPa,OK,7746.0,meters,OK,2458.0,feet,OK,0.4,mm/hr,OK,1940.0,meters,OK,1673.0,meters,OK,1646.0,meters,OK
2025-01-26T19:47:43.992272,14.5,knots,OK,332.0,degrees,OK,10.3,knots,OK,16.4,°C,OK,19.3,°C,OK,1014.8,hPa,OK,9986.0,meters,OK,2228.0,feet,OK,0.1,mm/hr,OK,1976.0,meters,OK,1630.0,meters,OK,1662.0,meters,OK
2025-01-26T19:47:44.996754,5.4,knots,OK,136.0,degrees,OK,23.1,knots,OK,16.7,°C,OK,18.7,°C,OK,1013.3,hPa,OK,9255.0,meters,OK,2822.0,feet,OK,0.1,mm/hr,OK,1898.0,meters,OK,1907.0,meters,OK,1729.0,meters,OK
2025-01-26T19:47:46.000840,12.5,knots,OK,126.0,degrees,OK,10.4,knots,OK,21.3,°C,OK,19.6,°C,OK,1013.6,hPa,OK,9159.0,meters,OK,2154.0,feet,OK,0.2,mm/hr,OK,1541.0,meters,OK,1507.0,meters,OK,1697.0,meters,OK
2025-01-26T19:47:47.004669,10.3,knots,OK,345.0,degrees,OK,19.7,knots,OK,15.3,°C,OK,16.7,°C,OK,1013.4,hPa,OK,5409.0,meters,OK,2833.0,feet,OK,0.4,mm/hr,OK,1571.0,meters,OK,1516.0,meters,OK,1757.0,meters,OK
2025-01-26T19:47:48.008944,13.4,knots,OK,166.0,degrees,OK,18.8,knots,OK,24.5,°C,OK,12.0,°C,OK,1014.7,hPa,OK,7220.0,meters,OK,1612.0,feet,OK,0.4,mm/hr,OK,1655.0,meters,OK,1934.0,meters,OK,1940.0,meters,OK
2025-01-26T19:47:49.012928,11.4,knots,OK,264.0,degrees,OK,10.6,knots,OK,22.0,°C,OK,13.5,°C,OK,1013.9,hPa,OK,7349.0,meters,OK,1726.0,feet,OK,0.1,mm/hr,OK,1608.0,meters,OK,1760.0,meters,OK,1768.0,meters,OK
2025-01-26T19:47:50.017073,6.6,knots,OK,262.0,degrees,OK,20.8,knots,OK,17.0,°C,OK,18.1,°C,OK,1014.1,hPa,OK,8866.0,meters,OK,1432.0,feet,OK,0.5,mm/hr,OK,1953.0,meters,OK,1614.0,meters,OK,1931.0,meters,OK
2025-01-26T19:47:51.021823,7.8,knots,OK,333.0,degrees,OK,14.9,knots,OK,21.7,°C,OK,11.9,°C,OK,1013.4,hPa,OK,6979.0,meters,OK,2428.0,feet,OK,0.1,mm/hr,OK,1839.0,meters,OK,1975.0,meters,OK,1821.0,meters,OK
2025-01-26T19:47:52.026918,7.8,knots,OK,80.0,degrees,OK,11.9,knots,OK,18.0,°C,OK,18.9,°C,OK,1013.7,hPa,OK,5979.0,meters,OK,1456.0,feet,OK,0.2,mm/hr,OK,1918.0,meters,OK,1691.0,meters,OK,1973.0,meters,OK
2025-01-26T19:47:53.031042,8.1,knots,OK,224.0,degrees,OK,25.0,knots,OK,15.1,°C,OK,15.0,°C,OK,1014.4,hPa,OK,5304.0,meters,OK,2469.0,feet,OK,0.3,mm/hr,OK,1851.0,meters,OK,1546.0,meters,OK,1925.0,meters,OK
2025-01-26T19:47:54.035162,13.6,knots,OK,22.0,degrees,OK,12.8,knots,OK,20.3,°C,OK,11.5,°C,OK,1013.3,hPa,OK,7939.0,meters,OK,1368.0,feet,OK,0.4,mm/hr,OK,1541.0,meters,OK,1916.0,meters,OK,1824.0,meters,OK
2025-01-26T19:47:55.039657,5.6,knots,OK,267.0,degrees,OK,14.4,knots,OK,17.9,°C,OK,20.0,°C,OK,1014.6,hPa,OK,6510.0,meters,OK,2907.0,feet,OK,0.2,mm/hr,OK,1610.0,meters,OK,1663.0,meters,OK,1849.0,meters,OK
2025-01-26T19:47:56.044745,12.2,knots,OK,134.0,degrees,OK,16.8,knots,OK,17.6,°C,OK,10.9,°C,OK,1013.3,hPa,OK,9810.0,meters,OK,1584.0,feet,OK,0.3,mm/hr,OK,1929.0,meters,OK,1733.0,meters,OK,1744.0,meters,OK
2025-01-26T19:47:57.050219,13.6,knots,OK,165.0,degrees,OK,18.6,knots,OK,16.2,°C,OK,15.8,°C,OK,1014.3,hPa,OK,7695.0,meters,OK,2184.0,feet,OK,0.3,mm/hr,OK,1766.0,meters,OK,1698.0,meters,OK,1784.0,meters,OK
2025-01-26T19:47:58.054297,14.2,knots,OK,3.0,degrees,OK,24.2,knots,OK,20.8,°C,OK,15.7,°C,OK,1013.6,hPa,OK,9434.0,meters,OK,1557.0,feet,OK,0.4,mm/hr,OK,1869.0,meters,OK,1921.0,meters,OK,1507.0,meters,OK
2025-01-26T19:47:59.058452,12.4,knots,OK,164.0,degrees,OK,19.4,knots,OK,21.2,°C,OK,18.4,°C,OK,1014.3,hPa,OK,5493.0,meters,OK,2318.0,feet,OK,0.2,mm/hr,OK,1751.0,meters,OK,1984.0,meters,OK,1641.0,meters,OK
2025-01-26T19:48:00.061891,10.7,knots,OK,233.0,degrees,OK,12.5,knots,OK,23.6,°C,OK,14.6,°C,OK,1014.8,hPa,OK,8648.0,meters,OK,1496.0,feet,OK,0.2,mm/hr,OK,1522.0,meters,OK,1537.0,meters,OK,1981.0,meters,OK
2025-01-26T19:48:01.066732,9.2,knots,OK,139.0,degrees,OK,16.3,knots,OK,19.3,°C,OK,14.3,°C,OK,1013.6,hPa,OK,7177.0,meters,OK,2167.0,feet,OK,0.4,mm/hr,OK,1658.0,meters,OK,1767.0,meters,OK,1994.0,meters,OK
2025-01-26T19:48:02.071133,7.3,knots,OK,317.0,degrees,OK,21.8,knots,OK,20.9,°C,OK,19.0,°C,OK,1014.0,hPa,OK,6856.0,meters,OK,2187.0,feet,OK,0.1,mm/hr,OK,1809.0,meters,OK,1881.0,meters,OK,1797.0,meters,OK
2025-01-26T19:48:03.076437,9.2,knots,OK,300.0,degrees,OK,21.4,knots,OK,18.3,°C,OK,16.1,°C,OK,1013.7,hPa,OK,5447.0,meters,OK,2612.0,feet,OK,0.1,mm/hr,OK,1902.0,meters,OK,1759.0,meters,OK,1881.0,meters,OK
2025-01-26T19:48:04.084348,13.9,knots,OK,317.0,degrees,OK,18.3,knots,OK,19.7,°C,OK,13.7,°C,OK,1013.7,hPa,OK,5929.0,meters,OK,1229.0,feet,OK,0.2,mm/hr,OK,1603.0,meters,OK,1683.0,meters,OK,1587.0,meters,OK
2025-01-26T19:48:05.088541,13.6,knots,OK,62.0,degrees,OK,14.0,knots,OK,16.9,°C,OK,13.5,°C,OK,1013.8,hPa,OK,7342.0,meters,OK,1163.0,feet,OK,0.3,mm/hr,OK,1530.0,meters,OK,1832.0,meters,OK,1796.0,meters,OK
2025-01-26T19:48:06.092355,13.3,knots,OK,102.0,degrees,OK,24.6,knots,OK,20.9,°C,OK,15.3,°C,OK,1013.0,hPa,OK,5573.0,meters,OK,2532.0,feet,OK,0.2,mm/hr,OK,1713.0,meters,OK,1729.0,meters,OK,1667.0,meters,OK
2025-01-26T19:48:07.096836,10.8,knots,OK,74.0,degrees,OK,23.2,knots,OK,15.4,°C,OK,18.7,°C,OK,1013.2,hPa,OK,6199.0,meters,OK,1142.0,feet,OK,0.4,mm/hr,OK,1507.0,meters,OK,1880.0,meters,OK,1607.0,meters,OK
2025-01-26T19:48:08.100608,10.1,knots,OK,59.0,degrees,OK,13.0,knots,OK,17.4,°C,OK,11.5,°C,OK,1014.1,hPa,OK,7662.0,meters,OK,2008.0,feet,OK,0.3,mm/hr,OK,1845.0,meters,OK,1875.0,meters,OK,1812.0,meters,OK
2025-01-26T19:48:09.105314,6.5,knots,OK,307.0,degrees,OK,20.9,knots,OK,15.4,°C,OK,16.1,°C,OK,1013.6,hPa,OK,9997.0,meters,OK,1109.0,feet,OK,0.4,mm/hr,OK,1659.0,meters,OK,1671.0,meters,OK,1759.0,meters,OK
2025-01-26T19:48:10.109799,12.4,knots,OK,68.0,degrees,OK,21.4,knots,OK,15.6,°C,OK,14.8,°C,OK,1014.3,hPa,OK,5104.0,meters,OK,2957.0,feet,OK,0.5,mm/hr,OK,1727.0,meters,OK,1588.0,meters,OK,1636.0,meters,OK
2025-01-26T19:48:11.113754,11.8,knots,OK,5.0,degrees,OK,22.0,knots,OK,19.7,°C,OK,12.8,°C,OK,1014.4,hPa,OK,9121.0,meters,OK,1915.0,feet,OK,0.1,mm/hr,OK,1563.0,meters,OK,1900.0,meters,OK,1644.0,meters,OK
2025-01-26T19:48:12.117547,8.8,knots,OK,116.0,degrees,OK,11.1,knots,OK,23.5,°C,OK,15.6,°C,OK,1013.5,hPa,OK,8405.0,meters,OK,1450.0,feet,OK,0.2,mm/hr,OK,1897.0,meters,OK,1636.0,meters,OK,1508.0,meters,OK
2025-01-26T19:48:13.120628,7.7,knots,OK,267.0,degrees,OK,17.8,knots,OK,23.5,°C,OK,15.5,°C,OK,1014.3,hPa,OK,5289.0,meters,OK,2479.0,feet,OK,0.0,mm/hr,OK,1692.0,meters,OK,1626.0,meters,OK,1730.0,meters,OK
2025-01-26T19:48:14.124986,6.4,knots,OK,206.0,degrees,OK,22.6,knots,OK,24.1,°C,OK,18.8,°C,OK,1014.8,hPa,OK,5519.0,meters,OK,2853.0,feet,OK,0.1,mm/hr,OK,1578.0,meters,OK,1868.0,meters,OK,1709.0,meters,OK
2025-01-26T19:48:15.129451,11.5,knots,OK,184.0,degrees,OK,14.3,knots,OK,15.5,°C,OK,10.1,°C,OK,1013.7,hPa,OK,8598.0,meters,OK,1086.0,feet,OK,0.4,mm/hr,OK,1691.0,meters,OK,1679.0,meters,OK,1637.0,meters,OK
2025-01-26T19:48:16.133796,14.1,knots,OK,198.0,degrees,OK,14.6,knots,OK,22.1,°C,OK,10.8,°C,OK,1013.3,hPa,OK,7649.0,meters,OK,1614.0,feet,OK,0.1,mm/hr,OK,1861.0,meters,OK,1564.0,meters,OK,1559.0,meters,OK
2025-01-26T19:48:17.137510,12.9,knots,OK,250.0,degrees,OK,23.0,knots,OK,25.0,°C,OK,11.5,°C,OK,1014.4,hPa,OK,9391.0,meters,OK,2785.0,feet,OK,0.2,mm/hr,OK,1998.0,meters,OK,1853.0,meters,OK,1611.0,meters,OK
2025-01-26T19:48:18.141398,13.1,knots,OK,90.0,degrees,OK,12.8,knots,OK,15.7,°C,OK,18.4,°C,OK,1014.5,hPa,OK,7644.0,meters,OK,2130.0,feet,OK,0.2,mm/hr,OK,1661.0,meters,OK,1866.0,meters,OK,1553.0,meters,OK
2025-01-26T19:48:19.144934,11.7,knots,OK,188.0,degrees,OK,13.1,knots,OK,23.4,°C,OK,17.5,°C,OK,1014.4,hPa,OK,9754.0,meters,OK,2985.0,feet,OK,0.3,mm/hr,OK,1692.0,meters,OK,1773.0,meters,OK,1558.0,meters,OK
2025-01-26T19:48:20.149450,10.8,knots,OK,59.0,degrees,OK,16.8,knots,OK,17.2,°C,OK,16.9,°C,OK,1013.3,hPa,OK,9072.0,meters,OK,1120.0,feet,OK,0.4,mm/hr,OK,1815.0,meters,OK,1660.0,meters,OK,1833.0,meters,OK
2025-01-26T19:48:21.153763,6.5,knots,OK,270.0,degrees,OK,15.2,knots,OK,19.4,°C,OK,16.5,°C,OK,1013.7,hPa,OK,7623.0,meters,OK,1534.0,feet,OK,0.1,mm/hr,OK,1927.0,meters,OK,1790.0,meters,OK,1775.0,meters,OK
2025-01-26T19:48:22.164904,6.6,knots,OK,47.0,degrees,OK,19.8,knots,OK,18.1,°C,OK,17.1,°C,OK,1014.3,hPa,OK,6012.0,meters,OK,1378.0,feet,OK,0.1,mm/hr,OK,1891.0,meters,OK,1698.0,meters,OK,1584.0,meters,OK
2025-01-26T19:48:23.169428,14.1,knots,OK,319.0,degrees,OK,22.8,knots,OK,23.3,°C,OK,14.1,°C,OK,1014.8,hPa,OK,6156.0,meters,OK,2709.0,feet,OK,0.3,mm/hr,OK,1786.0,meters,OK,1832.0,meters,OK,1832.0,meters,OK
2025-01-26T19:48:24.174155,7.8,knots,OK,224.0,degrees,OK,18.2,knots,OK,20.3,°C,OK,19.7,°C,OK,1013.4,hPa,OK,8033.0,meters,OK,2339.0,feet,OK,0.4,mm/hr,OK,1889.0,meters,OK,1710.0,meters,OK,1642.0,meters,OK
2025-01-26T19:48:25.179108,6.7,knots,OK,129.0,degrees,OK,14.3,knots,OK,23.4,°C,OK,13.8,°C,OK,1014.2,hPa,OK,9798.0,meters,OK,1518.0,feet,OK,0.4,mm/hr,OK,1795.0,meters,OK,1502.0,meters,OK,1726.0,meters,OK
2025-01-26T19:48:26.183460,7.6,knots,OK,98.0,degrees,OK,14.3,knots,OK,18.6,°C,OK,18.1,°C,OK,1014.8,hPa,OK,6868.0,meters,OK,2731.0,feet,OK,0.1,mm/hr,OK,1993.0,meters,OK,1714.0,meters,OK,1769.0,meters,OK
2025-01-26T19:48:27.187406,7.4,knots,OK,262.0,degrees,OK,16.3,knots,OK,16.3,°C,OK,17.4,°C,OK,1014.7,hPa,OK,7299.0,meters,OK,1006.0,feet,OK,0.2,mm/hr,OK,1821.0,meters,OK,1530.0,meters,OK,1752.0,meters,OK
2025-01-26T19:48:28.191869,6.1,knots,OK,324.0,degrees,OK,12.1,knots,OK,18.5,°C,OK,14.7,°C,OK,1013.7,hPa,OK,6022.0,meters,OK,1203.0,feet,OK,0.2,mm/hr,OK,1972.0,meters,OK,1880.0,meters,OK,1597.0,meters,OK
2025-01-26T19:48:29.197318,7.9,knots,OK,26.0,degrees,OK,12.1,knots,OK,19.7,°C,OK,11.0,°C,OK,1014.4,hPa,OK,6579.0,meters,OK,1502.0,feet,OK,0.2,mm/hr,OK,1675.0,meters,OK,1745.0,meters,OK,1787.0,meters,OK
2025-01-26T19:48:30.201516,7.4,knots,OK,239.0,degrees,OK,14.7,knots,OK,20.2,°C,OK,16.7,°C,OK,1013.2,hPa,OK,9191.0,meters,OK,1282.0,feet,OK,0.4,mm/hr,OK,1948.0,meters,OK,1827.0,meters,OK,1977.0,meters,OK
2025-01-26T19:48:31.204510,8.8,knots,OK,264.0,degrees,OK,16.6,knots,OK,24.2,°C,OK,16.1,°C,OK,1014.9,hPa,OK,9826.0,meters,OK,2934.0,feet,OK,0.3,mm/hr,OK,1998.0,meters,OK,1794.0,meters,OK,1537.0,meters,OK
2025-01-26T19:48:32.208796,8.4,knots,OK,263.0,degrees,OK,21.8,knots,OK,15.7,°C,OK,19.6,°C,OK,1013.1,hPa,OK,5764.0,meters,OK,1536.0,feet,OK,0.1,mm/hr,OK,1616.0,meters,OK,1925.0,meters,OK,1839.0,meters,OK
2025-01-26T19:48:33.212555,13.2,knots,OK,290.0,degrees,OK,21.8,knots,OK,18.6,°C,OK,15.2,°C,OK,1013.1,hPa,OK,6142.0,meters,OK,2029.0,feet,OK,0.3,mm/hr,OK,1586.0,meters,OK,1688.0,meters,OK,1879.0,meters,OK
2025-01-26T19:48:34.217151,12.6,knots,OK,15.0,degrees,OK,17.9,knots,OK,20.2,°C,OK,14.0,°C,OK,1014.5,hPa,OK,9293.0,meters,OK,1941.0,feet,OK,0.3,mm/hr,OK,1912.0,meters,OK,1660.0,meters,OK,1724.0,meters,OK
2025-01-26T19:48:35.220848,9.2,knots,OK,286.0,degrees,OK,17.8,knots,OK,21.9,°C,OK,12.5,°C,OK,1013.3,hPa,OK,6297.0,meters,OK,1189.0,feet,OK,0.2,mm/hr,OK,1528.0,meters,OK,1790.0,meters,OK,1747.0,meters,OK
2025-01-26T19:48:36.225260,11.6,knots,OK,316.0,degrees,OK,18.2,knots,OK,15.7,°C,OK,19.4,°C,OK,1014.4,hPa,OK,9399.0,meters,OK,2458.0,feet,OK,0.2,mm/hr,OK,1830.0,meters,OK,1968.0,meters,OK,1571.0,meters,OK
2025-01-26T19:48:37.229071,5.7,knots,OK,335.0,degrees,OK,12.8,knots,OK,24.2,°C,OK,18.0,°C,OK,1014.7,hPa,OK,8577.0,meters,OK,1077.0,feet,OK,0.2,mm/hr,OK,1899.0,meters,OK,1722.0,meters,OK,1868.0,meters,OK
2025-01-26T19:48:38.233218,10.3,knots,OK,279.0,degrees,OK,18.1,knots,OK,18.5,°C,OK,13.0,°C,OK,1013.6,hPa,OK,9548.0,meters,OK,1267.0,feet,OK,0.0,mm/hr,OK,1549.0,meters,OK,1683.0,meters,OK,1656.0,meters,OK
2025-01-26T19:48:39.237072,12.7,knots,OK,148.0,degrees,OK,21.9,knots,OK,19.8,°C,OK,12.2,°C,OK,1013.2,hPa,OK,7748.0,meters,OK,2470.0,feet,OK,0.1,mm/hr,OK,1619.0,meters,OK,1985.0,meters,OK,1735.0,meters,OK
2025-01-26T19:48:40.240838,7.5,knots,OK,14.0,degrees,OK,21.4,knots,OK,18.8,°C,OK,11.3,°C,OK,1013.5,hPa,OK,7195.0,meters,OK,1245.0,feet,OK,0.1,mm/hr,OK,1559.0,meters,OK,1954.0,meters,OK,1896.0,meters,OK
2025-01-26T19:48:41.245211,11.4,knots,OK,51.0,degrees,OK,18.6,knots,OK,22.6,°C,OK,17.4,°C,OK,1015.0,hPa,OK,5482.0,meters,OK,2525.0,feet,OK,0.0,mm/hr,OK,1830.0,meters,OK,1941.0,meters,OK,1923.0,meters,OK
2025-01-26T19:48:42.248656,11.1,knots,OK,108.0,degrees,OK,24.7,knots,OK,19.4,°C,OK,10.3,°C,OK,1014.6,hPa,OK,7423.0,meters,OK,2871.0,feet,OK,0.3,mm/hr,OK,1785.0,meters,OK,1586.0,meters,OK,1972.0,meters,OK
2025-01-26T19:48:43.252529,5.2,knots,OK,226.0,degrees,OK,15.9,knots,OK,22.2,°C,OK,13.9,°C,OK,1013.8,hPa,OK,7178.0,meters,OK,1996.0,feet,OK,0.3,mm/hr,OK,1531.0,meters,OK,1672.0,meters,OK,1571.0,meters,OK
2025-01-26T19:48:44.255851,5.7,knots,OK,15.0,degrees,OK,13.1,knots,OK,24.6,°C,OK,16.0,°C,OK,1014.3,hPa,OK,5351.0,meters,OK,1317.0,feet,OK,0.2,mm/hr,OK,1774.0,meters,OK,1818.0,meters,OK,1622.0,meters,OK
2025-01-26T19:48:45.258908,6.1,knots,OK,328.0,degrees,OK,14.8,knots,OK,24.3,°C,OK,10.1,°C,OK,1014.7,hPa,OK,9370.0,meters,OK,1698.0,feet,OK,0.2,mm/hr,OK,1983.0,meters,OK,1739.0,meters,OK,1704.0,meters,OK
2025-01-26T19:48:46.264294,13.6,knots,OK,252.0,degrees,OK,13.6,knots,OK,16.7,°C,OK,13.2,°C,OK,1013.8,hPa,OK,8051.0,meters,OK,2825.0,feet,OK,0.5,mm/hr,OK,1582.0,meters,OK,1718.0,meters,OK,1807.0,meters,OK
2025-01-26T19:48:47.268820,8.2,knots,OK,178.0,degrees,OK,14.1,knots,OK,20.4,°C,OK,18.0,°C,OK,1014.1,hPa,OK,8613.0,meters,OK,1044.0,feet,OK,0.1,mm/hr,OK,1900.0,meters,OK,1933.0,meters,OK,1726.0,meters,OK
2025-01-26T19:48:48.273372,8.2,knots,OK,240.0,degrees,OK,17.7,knots,OK,24.1,°C,OK,11.7,°C,OK,1014.8,hPa,OK,8983.0,meters,OK,2462.0,feet,OK,0.4,mm/hr,OK,1842.0,meters,OK,1700.0,meters,OK,1502.0,meters,OK
2025-01-26T19:48:49.278004,11.1,knots,OK,89.0,degrees,OK,15.6,knots,OK,20.1,°C,OK,16.6,°C,OK,1013.4,hPa,OK,9552.0,meters,OK,1121.0,feet,OK,0.2,mm/hr,OK,1845.0,meters,OK,1625.0,meters,OK,1682.0,meters,OK
2025-01-26T19:48:50.281986,11.4,knots,OK,213.0,degrees,OK,19.1,knots,OK,16.2,°C,OK,16.5,°C,OK,1013.1,hPa,OK,5257.0,meters,OK,2874.0,feet,OK,0.1,mm/hr,OK,1743.0,meters,OK,1906.0,meters,OK,1653.0,meters,OK
2025-01-26T19:48:51.286500,7.6,knots,OK,284.0,degrees,OK,16.3,knots,OK,20.8,°C,OK,13.0,°C,OK,1013.8,hPa,OK,5957.0,meters,OK,2682.0,feet,OK,0.3,mm/hr,OK,1726.0,meters,OK,1852.0,meters,OK,1973.0,meters,OK
2025-01-26T19:48:52.291131,10.4,knots,OK,131.0,degrees,OK,23.2,knots,OK,15.3,°C,OK,16.4,°C,OK,1014.5,hPa,OK,8760.0,meters,OK,2791.0,feet,OK,0.4,mm/hr,OK,1596.0,meters,OK,1667.0,meters,OK,1894.0,meters,OK
2025-01-26T19:48:53.297033,11.4,knots,OK,222.0,degrees,OK,14.2,knots,OK,24.9,°C,OK,14.7,°C,OK,1013.7,hPa,OK,5796.0,meters,OK,1627.0,feet,OK,0.3,mm/hr,OK,1799.0,meters,OK,1923.0,meters,OK,1764.0,meters,OK
2025-01-26T19:48:54.301269,6.7,knots,OK,98.0,degrees,OK,24.0,knots,OK,21.1,°C,OK,13.1,°C,OK,1014.8,hPa,OK,9621.0,meters,OK,1301.0,feet,OK,0.3,mm/hr,OK,1824.0,meters,OK,1621.0,meters,OK,1619.0,meters,OK
2025-01-26T19:48:55.306305,12.6,knots,OK,199.0,degrees,OK,15.3,knots,OK,24.6,°C,OK,19.6,°C,OK,1013.7,hPa,OK,8097.0,meters,OK,2016.0,feet,OK,0.1,mm/hr,OK,1812.0,meters,OK,1863.0,meters,OK,1513.0,meters,OK
2025-01-26T19:48:56.310128,9.6,knots,OK,27.0,degrees,OK,21.4,knots,OK,15.5,°C,OK,11.4,°C,OK,1013.8,hPa,OK,5415.0,meters,OK,2222.0,feet,OK,0.1,mm/hr,OK,1958.0,meters,OK,1545.0,meters,OK,1726.0,meters,OK
2025-01-26T19:48:57.314585,13.1,knots,OK,272.0,degrees,OK,15.0,knots,OK,20.5,°C,OK,13.4,°C,OK,1013.8,hPa,OK,7497.0,meters,OK,2522.0,feet,OK,0.0,mm/hr,OK,1763.0,meters,OK,1657.0,meters,OK,1841.0,meters,OK
2025-01-26T19:48:58.319243,5.9,knots,OK,215.0,degrees,OK,13.6,knots,OK,21.2,°C,OK,11.1,°C,OK,1013.5,hPa,OK,5362.0,meters,OK,1551.0,feet,OK,0.5,mm/hr,OK,1693.0,meters,OK,1813.0,meters,OK,1920.0,meters,OK
2025-01-26T19:48:59.324259,7.6,knots,OK,310.0,degrees,OK,23.6,knots,OK,20.1,°C,OK,16.8,°C,OK,1014.4,hPa,OK,9228.0,meters,OK,2169.0,feet,OK,0.0,mm/hr,OK,1871.0,meters,OK,1903.0,meters,OK,1849.0,meters,OK
2025-01-26T19:49:00.328564,9.2,knots,OK,335.0,degrees,OK,24.7,knots,OK,17.0,°C,OK,14.4,°C,OK,1014.1,hPa,OK,5855.0,meters,OK,1449.0,feet,OK,0.2,mm/hr,OK,1820.0,meters,OK,1706.0,meters,OK,1941.0,meters,OK
2025-01-26T19:49:01.332824,13.2,knots,OK,20.0,degrees,OK,24.9,knots,OK,22.9,°C,OK,16.4,°C,OK,1014.9,hPa,OK,9821.0,meters,OK,2391.0,feet,OK,0.4,mm/hr,OK,1828.0,meters,OK,1570.0,meters,OK,1616.0,meters,OK
2025-01-26T19:49:02.337161,10.8,knots,OK,110.0,degrees,OK,10.1,knots,OK,17.2,°C,OK,11.6,°C,OK,1013.6,hPa,OK,5700.0,meters,OK,1323.0,feet,OK,0.0,mm/hr,OK,1801.0,meters,OK,1768.0,meters,OK,1917.0,meters,OK
2025-01-26T19:49:03.341925,12.4,knots,OK,93.0,degrees,OK,18.7,knots,OK,21.8,°C,OK,15.1,°C,OK,1014.3,hPa,OK,8535.0,meters,OK,2864.0,feet,OK,0.1,mm/hr,OK,1624.0,meters,OK,1920.0,meters,OK,1551.0,meters,OK
2025-01-26T19:49:04.345822,7.5,knots,OK,202.0,degrees,OK,24.7,knots,OK,19.3,°C,OK,19.6,°C,OK,1014.3,hPa,OK,8132.0,meters,OK,2301.0,feet,OK,0.3,mm/hr,OK,1611.0,meters,OK,1511.0,meters,OK,1742.0,meters,OK
2025-01-26T19:49:05.349931,9.0,knots,OK,299.0,degrees,OK,12.4,knots,OK,15.0,°C,OK,11.2,°C,OK,1013.7,hPa,OK,9817.0,meters,OK,2370.0,feet,OK,0.0,mm/hr,OK,1508.0,meters,OK,1755.0,meters,OK,1690.0,meters,OK
2025-01-26T19:49:06.379768,9.1,knots,OK,309.0,degrees,OK,13.3,knots,OK,22.5,°C,OK,12.8,°C,OK,1013.5,hPa,OK,5283.0,meters,OK,1465.0,feet,OK,0.3,mm/hr,OK,1985.0,meters,OK,1748.0,meters,OK,1599.0,meters,OK
2025-01-26T19:49:07.383658,5.7,knots,OK,150.0,degrees,OK,13.6,knots,OK,23.1,°C,OK,16.9,°C,OK,1013.8,hPa,OK,5347.0,meters,OK,2595.0,feet,OK,0.5,mm/hr,OK,1752.0,meters,OK,1894.0,meters,OK,1614.0,meters,OK
2025-01-26T19:49:08.387528,7.7,knots,OK,169.0,degrees,OK,19.5,knots,OK,18.6,°C,OK,11.6,°C,OK,1014.9,hPa,OK,6289.0,meters,OK,1750.0,feet,OK,0.2,mm/hr,OK,1611.0,meters,OK,1839.0,meters,OK,1639.0,meters,OK
2025-01-26T19:49:09.391263,9.7,knots,OK,61.0,degrees,OK,20.8,knots,OK,20.8,°C,OK,18.7,°C,OK,1014.1,hPa,OK,8988.0,meters,OK,1407.0,feet,OK,0.5,mm/hr,OK,1958.0,meters,OK,1957.0,meters,OK,1974.0,meters,OK
2025-01-26T19:49:10.394341,5.0,knots,OK,85.0,degrees,OK,17.2,knots,OK,24.3,°C,OK,14.3,°C,OK,1013.1,hPa,OK,9662.0,meters,OK,1807.0,feet,OK,0.4,mm/hr,OK,1533.0,meters,OK,1708.0,meters,OK,1712.0,meters,OK
2025-01-26T19:49:11.398588,11.4,knots,OK,68.0,degrees,OK,24.7,knots,OK,20.3,°C,OK,16.6,°C,OK,1014.0,hPa,OK,8178.0,meters,OK,2493.0,feet,OK,0.3,mm/hr,OK,1928.0,meters,OK,1969.0,meters,OK,1514.0,meters,OK
2025-01-26T19:49:12.402971,5.5,knots,OK,60.0,degrees,OK,22.9,knots,OK,23.8,°C,OK,11.4,°C,OK,1014.9,hPa,OK,7622.0,meters,OK,1026.0,feet,OK,0.4,mm/hr,OK,1941.0,meters,OK,1965.0,meters,OK,1588.0,meters,OK
2025-01-26T19:49:13.406984,6.7,knots,OK,219.0,degrees,OK,12.3,knots,OK,23.5,°C,OK,11.9,°C,OK,1013.5,hPa,OK,9657.0,meters,OK,1756.0,feet,OK,0.5,mm/hr,OK,1805.0,meters,OK,1542.0,meters,OK,1980.0,meters,OK
2025-01-26T19:49:14.411294,6.0,knots,OK,284.0,degrees,OK,14.7,knots,OK,17.2,°C,OK,14.6,°C,OK,1014.9,hPa,OK,5828.0,meters,OK,1967.0,feet,OK,0.0,mm/hr,OK,1704.0,meters,OK,1873.0,meters,OK,1946.0,meters,OK
2025-01-26T19:49:15.417077,14.3,knots,OK,22.0,degrees,OK,15.4,knots,OK,24.9,°C,OK,11.6,°C,OK,1014.1,hPa,OK,8543.0,meters,OK,1733.0,feet,OK,0.2,mm/hr,OK,1537.0,meters,OK,1791.0,meters,OK,1970.0,meters,OK
2025-01-26T19:49:16.421557,13.4,knots,OK,94.0,degrees,OK,12.7,knots,OK,19.4,°C,OK,17.1,°C,OK,1013.4,hPa,OK,8839.0,meters,OK,1480.0,feet,OK,0.4,mm/hr,OK,1926.0,meters,OK,1522.0,meters,OK,1921.0,meters,OK
2025-01-26T19:49:17.425513,12.3,knots,OK,224.0,degrees,OK,20.9,knots,OK,18.5,°C,OK,13.0,°C,OK,1014.5,hPa,OK,7188.0,meters,OK,2768.0,feet,OK,0.5,mm/hr,OK,1977.0,meters,OK,1612.0,meters,OK,1845.0,meters,OK
2025-01-26T19:49:18.429240,11.4,knots,OK,168.0,degrees,OK,21.1,knots,OK,20.0,°C,OK,13.3,°C,OK,1013.3,hPa,OK,8948.0,meters,OK,1416.0,feet,OK,0.4,mm/hr,OK,1578.0,meters,OK,1805.0,meters,OK,1594.0,meters,OK
2025-01-26T19:49:19.433141,8.4,knots,OK,283.0,degrees,OK,19.1,knots,OK,16.6,°C,OK,10.6,°C,OK,1013.1,hPa,OK,5673.0,meters,OK,1856.0,feet,OK,0.4,mm/hr,OK,1616.0,meters,OK,1659.0,meters,OK,1536.0,meters,OK
2025-01-26T19:49:20.437761,10.3,knots,OK,41.0,degrees,OK,24.1,knots,OK,17.7,°C,OK,16.1,°C,OK,1013.5,hPa,OK,6551.0,meters,OK,1373.0,feet,OK,0.4,mm/hr,OK,1765.0,meters,OK,1634.0,meters,OK,1754.0,meters,OK
2025-01-26T19:49:21.442044,6.9,knots,OK,229.0,degrees,OK,16.0,knots,OK,18.7,°C,OK,19.9,°C,OK,1014.0,hPa,OK,9767.0,meters,OK,2435.0,feet,OK,0.3,mm/hr,OK,1884.0,meters,OK,1560.0,meters,OK,1715.0,meters,OK
2025-01-26T19:49:22.445140,6.9,knots,OK,314.0,degrees,OK,11.0,knots,OK,18.2,°C,OK,15.7,°C,OK,1013.3,hPa,OK,5150.0,meters,OK,1436.0,feet,OK,0.3,mm/hr,OK,1844.0,meters,OK,1725.0,meters,OK,1675.0,meters,OK
2025-01-26T19:49:23.449894,12.4,knots,OK,340.0,degrees,OK,21.5,knots,OK,23.5,°C,OK,16.1,°C,OK,1014.4,hPa,OK,9485.0,meters,OK,1753.0,feet,OK,0.1,mm/hr,OK,1862.0,meters,OK,1837.0,meters,OK,1785.0,meters,OK
2025-01-26T19:49:24.454417,7.6,knots,OK,211.0,degrees,OK,24.8,knots,OK,19.9,°C,OK,11.4,°C,OK,1014.9,hPa,OK,8407.0,meters,OK,1111.0,feet,OK,0.5,mm/hr,OK,1803.0,meters,OK,1525.0,meters,OK,1672.0,meters,OK
2025-01-26T19:49:25.458288,14.9,knots,OK,111.0,degrees,OK,10.4,knots,OK,18.2,°C,OK,12.4,°C,OK,1014.8,hPa,OK,7073.0,meters,OK,2949.0,feet,OK,0.3,mm/hr,OK,1802.0,meters,OK,1694.0,meters,OK,1594.0,meters,OK
2025-01-26T19:49:26.462671,13.3,knots,OK,255.0,degrees,OK,12.1,knots,OK,23.4,°C,OK,12.9,°C,OK,1014.9,hPa,OK,8457.0,meters,OK,2277.0,feet,OK,0.2,mm/hr,OK,1582.0,meters,OK,1794.0,meters,OK,1510.0,meters,OK
2025-01-26T19:49:27.465858,12.1,knots,OK,333.0,degrees,OK,11.7,knots,OK,19.6,°C,OK,16.6,°C,OK,1013.6,hPa,OK,8684.0,meters,OK,2569.0,feet,OK,0.2,mm/hr,OK,1590.0,meters,OK,1634.0,meters,OK,1870.0,meters,OK
2025-01-26T19:49:28.469501,9.7,knots,OK,37.0,degrees,OK,16.7,knots,OK,17.8,°C,OK,14.0,°C,OK,1015.0,hPa,OK,7225.0,meters,OK,1567.0,feet,OK,0.4,mm/hr,OK,1958.0,meters,OK,1615.0,meters,OK,1694.0,meters,OK
2025-01-26T19:49:29.473587,10.3,knots,OK,87.0,degrees,OK,13.9,knots,OK,15.8,°C,OK,13.1,°C,OK,1013.4,hPa,OK,8714.0,meters,OK,1385.0,feet,OK,0.2,mm/hr,OK,1844.0,meters,OK,1814.0,meters,OK,1860.0,meters,OK
2025-01-26T19:49:30.477408,14.9,knots,OK,324.0,degrees,OK,20.2,knots,OK,24.4,°C,OK,11.5,°C,OK,1013.0,hPa,OK,5081.0,meters,OK,2234.0,feet,OK,0.2,mm/hr,OK,1800.0,meters,OK,1526.0,meters,OK,1810.0,meters,OK
2025-01-26T19:49:31.480806,5.3,knots,OK,70.0,degrees,OK,13.4,knots,OK,23.3,°C,OK,19.5,°C,OK,1013.2,hPa,OK,7038.0,meters,OK,1518.0,feet,OK,0.2,mm/hr,OK,1524.0,meters,OK,1697.0,meters,OK,1951.0,meters,OK
2025-01-26T19:49:32.485223,10.9,knots,OK,277.0,degrees,OK,15.1,knots,OK,23.7,°C,OK,19.3,°C,OK,1014.2,hPa,OK,7201.0,meters,OK,2417.0,feet,OK,0.3,mm/hr,OK,1574.0,meters,OK,1935.0,meters,OK,1869.0,meters,OK
2025-01-26T19:49:33.489562,13.4,knots,OK,101.0,degrees,OK,13.5,knots,OK,17.9,°C,OK,15.6,°C,OK,1014.3,hPa,OK,6907.0,meters,OK,2573.0,feet,OK,0.1,mm/hr,OK,1964.0,meters,OK,1578.0,meters,OK,1760.0,meters,OK
2025-01-26T19:49:34.493327,5.5,knots,OK,294.0,degrees,OK,16.9,knots,OK,16.2,°C,OK,19.8,°C,OK,1013.9,hPa,OK,7831.0,meters,OK,1795.0,feet,OK,0.3,mm/hr,OK,1845.0,meters,OK,1674.0,meters,OK,1706.0,meters,OK
2025-01-26T19:49:35.496413,9.9,knots,OK,340.0,degrees,OK,19.2,knots,OK,18.7,°C,OK,17.1,°C,OK,1014.3,hPa,OK,6560.0,meters,OK,2968.0,feet,OK,0.3,mm/hr,OK,1781.0,meters,OK,1574.0,meters,OK,1733.0,meters,OK
2025-01-26T19:49:36.500469,11.7,knots,OK,177.0,degrees,OK,19.6,knots,OK,20.0,°C,OK,11.5,°C,OK,1014.9,hPa,OK,7294.0,meters,OK,1868.0,feet,OK,0.3,mm/hr,OK,1914.0,meters,OK,1789.0,meters,OK,1567.0,meters,OK
2025-01-26T19:49:37.505003,5.3,knots,OK,292.0,degrees,OK,17.6,knots,OK,15.6,°C,OK,10.6,°C,OK,1014.0,hPa,OK,9551.0,meters,OK,1155.0,feet,OK,0.0,mm/hr,OK,1543.0,meters,OK,1519.0,meters,OK,1870.0,meters,OK
2025-01-26T19:49:38.509479,9.0,knots,OK,26.0,degrees,OK,20.2,knots,OK,15.4,°C,OK,18.0,°C,OK,1013.4,hPa,OK,7940.0,meters,OK,2063.0,feet,OK,0.0,mm/hr,OK,1593.0,meters,OK,1813.0,meters,OK,1917.0,meters,OK
2025-01-26T19:49:39.514191,6.7,knots,OK,153.0,degrees,OK,12.7,knots,OK,16.2,°C,OK,10.6,°C,OK,1013.1,hPa,OK,7749.0,meters,OK,1511.0,feet,OK,0.3,mm/hr,OK,1615.0,meters,OK,1522.0,meters,OK,1778.0,meters,OK
2025-01-26T19:49:40.518262,14.5,knots,OK,251.0,degrees,OK,14.5,knots,OK,22.4,°C,OK,10.3,°C,OK,1013.3,hPa,OK,8450.0,meters,OK,1612.0,feet,OK,0.4,mm/hr,OK,1738.0,meters,OK,1678.0,meters,OK,1866.0,meters,OK
2025-01-26T19:49:41.522918,7.3,knots,OK,355.0,degrees,OK,20.4,knots,OK,17.5,°C,OK,13.9,°C,OK,1014.6,hPa,OK,7547.0,meters,OK,2443.0,feet,OK,0.1,mm/hr,OK,1680.0,meters,OK,1938.0,meters,OK,1958.0,meters,OK
2025-01-26T19:49:42.526737,5.9,knots,OK,20.0,degrees,OK,12.7,knots,OK,23.7,°C,OK,14.1,°C,OK,1014.7,hPa,OK,8461.0,meters,OK,1485.0,feet,OK,0.1,mm/hr,OK,1607.0,meters,OK,1545.0,meters,OK,1567.0,meters,OK
2025-01-26T19:49:43.531930,6.9,knots,OK,226.0,degrees,OK,23.4,knots,OK,24.6,°C,OK,12.8,°C,OK,1014.8,hPa,OK,5164.0,meters,OK,2944.0,feet,OK,0.5,mm/hr,OK,1731.0,meters,OK,1872.0,meters,OK,1968.0,meters,OK
2025-01-26T19:49:44.536299,8.0,knots,OK,159.0,degrees,OK,16.1,knots,OK,17.3,°C,OK,12.9,°C,OK,1013.3,hPa,OK,9658.0,meters,OK,1951.0,feet,OK,0.4,mm/hr,OK,1934.0,meters,OK,1775.0,meters,OK,1916.0,meters,OK
2025-01-26T19:49:45.541448,5.8,knots,OK,64.0,degrees,OK,10.5,knots,OK,15.9,°C,OK,13.9,°C,OK,1014.9,hPa,OK,9189.0,meters,OK,2705.0,feet,OK,0.2,mm/hr,OK,1861.0,meters,OK,1695.0,meters,OK,1540.0,meters,OK
2025-01-26T19:49:46.546056,12.2,knots,OK,60.0,degrees,OK,19.4,knots,OK,20.2,°C,OK,13.3,°C,OK,1014.2,hPa,OK,7878.0,meters,OK,1664.0,feet,OK,0.5,mm/hr,OK,1733.0,meters,OK,1799.0,meters,OK,1671.0,meters,OK
2025-01-26T19:49:47.550333,10.0,knots,OK,49.0,degrees,OK,14.3,knots,OK,16.5,°C,OK,11.3,°C,OK,1014.2,hPa,OK,5802.0,meters,OK,2865.0,feet,OK,0.1,mm/hr,OK,1887.0,meters,OK,1823.0,meters,OK,1993.0,meters,OK
2025-01-26T19:49:48.555015,11.3,knots,OK,129.0,degrees,OK,21.8,knots,OK,22.2,°C,OK,11.2,°C,OK,1014.6,hPa,OK,5778.0,meters,OK,1455.0,feet,OK,0.1,mm/hr,OK,1841.0,meters,OK,1796.0,meters,OK,1897.0,meters,OK
2025-01-26T19:49:49.559466,5.7,knots,OK,327.0,degrees,OK,18.2,knots,OK,24.9,°C,OK,11.3,°C,OK,1014.8,hPa,OK,7615.0,meters,OK,1357.0,feet,OK,0.1,mm/hr,OK,1670.0,meters,OK,1977.0,meters,OK,1581.0,meters,OK
2025-01-26T19:49:50.564715,14.2,knots,OK,51.0,degrees,OK,19.5,knots,OK,17.9,°C,OK,11.8,°C,OK,1013.9,hPa,OK,8680.0,meters,OK,2981.0,feet,OK,0.5,mm/hr,OK,1717.0,meters,OK,1981.0,meters,OK,1948.0,meters,OK
2025-01-26T19:49:51.569039,13.8,knots,OK,117.0,degrees,OK,22.8,knots,OK,16.1,°C,OK,14.6,°C,OK,1014.2,hPa,OK,9638.0,meters,OK,2761.0,feet,OK,0.2,mm/hr,OK,1658.0,meters,OK,1708.0,meters,OK,1783.0,meters,OK
2025-01-26T19:49:52.574325,7.0,knots,OK,310.0,degrees,OK,16.2,knots,OK,18.9,°C,OK,12.2,°C,OK,1014.8,hPa,OK,7187.0,meters,OK,1410.0,feet,OK,0.2,mm/hr,OK,1670.0,meters,OK,1523.0,meters,OK,1655.0,meters,OK
2025-01-26T19:49:53.578611,9.5,knots,OK,354.0,degrees,OK,17.0,knots,OK,16.5,°C,OK,14.9,°C,OK,1013.3,hPa,OK,9262.0,meters,OK,1854.0,feet,OK,0.2,mm/hr,OK,1576.0,meters,OK,1524.0,meters,OK,1556.0,meters,OK
2025-01-26T19:49:54.581644,9.7,knots,OK,333.0,degrees,OK,22.2,knots,OK,15.5,°C,OK,17.2,°C,OK,1014.1,hPa,OK,6411.0,meters,OK,2942.0,feet,OK,0.4,mm/hr,OK,1704.0,meters,OK,1913.0,meters,OK,1880.0,meters,OK
2025-01-26T19:49:55.585659,7.4,knots,OK,355.0,degrees,OK,19.9,knots,OK,16.3,°C,OK,13.2,°C,OK,1014.0,hPa,OK,6771.0,meters,OK,1964.0,feet,OK,0.0,mm/hr,OK,1573.0,meters,OK,1698.0,meters,OK,1886.0,meters,OK
2025-01-26T19:49:56.588716,9.7,knots,OK,89.0,degrees,OK,22.2,knots,OK,21.1,°C,OK,12.5,°C,OK,1013.9,hPa,OK,6862.0,meters,OK,2864.0,feet,OK,0.2,mm/hr,OK,1624.0,meters,OK,1734.0,meters,OK,1982.0,meters,OK
2025-01-26T19:49:57.592121,5.5,knots,OK,151.0,degrees,OK,22.6,knots,OK,20.5,°C,OK,11.2,°C,OK,1013.7,hPa,OK,7727.0,meters,OK,2056.0,feet,OK,0.1,mm/hr,OK,1517.0,meters,OK,1883.0,meters,OK,1697.0,meters,OK
2025-01-26T19:49:58.596135,5.8,knots,OK,216.0,degrees,OK,24.5,knots,OK,17.9,°C,OK,18.3,°C,OK,1014.1,hPa,OK,5855.0,meters,OK,2892.0,feet,OK,0.2,mm/hr,OK,1624.0,meters,OK,1544.0,meters,OK,1521.0,meters,OK
2025-01-26T19:49:59.600607,6.7,knots,OK,154.0,degrees,OK,15.6,knots,OK,22.8,°C,OK,18.0,°C,OK,1014.6,hPa,OK,9780.0,meters,OK,1994.0,feet,OK,0.5,mm/hr,OK,1745.0,meters,OK,1831.0,meters,OK,1795.0,meters,OK
2025-01-26T19:50:00.604957,13.1,knots,OK,259.0,degrees,OK,15.1,knots,OK,22.7,°C,OK,14.3,°C,OK,1013.5,hPa,OK,7285.0,meters,OK,1246.0,feet,OK,0.0,mm/hr,OK,1868.0,meters,OK,1752.0,meters,OK,1943.0,meters,OK
2025-01-26T19:50:01.609301,8.5,knots,OK,144.0,degrees,OK,10.2,knots,OK,21.0,°C,OK,18.2,°C,OK,1013.7,hPa,OK,9560.0,meters,OK,1640.0,feet,OK,0.1,mm/hr,OK,1564.0,meters,OK,1604.0,meters,OK,1570.0,meters,OK
2025-01-26T19:50:02.614721,10.0,knots,OK,307.0,degrees,OK,18.4,knots,OK,17.7,°C,OK,16.7,°C,OK,1014.8,hPa,OK,8207.0,meters,OK,2999.0,feet,OK,0.4,mm/hr,OK,1595.0,meters,OK,1908.0,meters,OK,1708.0,meters,OK
2025-01-26T19:50:03.619981,7.1,knots,OK,277.0,degrees,OK,24.5,knots,OK,18.2,°C,OK,14.9,°C,OK,1014.7,hPa,OK,7236.0,meters,OK,1556.0,feet,OK,0.4,mm/hr,OK,1797.0,meters,OK,1696.0,meters,OK,1653.0,meters,OK
2025-01-26T19:50:04.624589,14.3,knots,OK,52.0,degrees,OK,14.8,knots,OK,20.7,°C,OK,13.6,°C,OK,1013.3,hPa,OK,7488.0,meters,OK,1627.0,feet,OK,0.2,mm/hr,OK,1657.0,meters,OK,1535.0,meters,OK,1824.0,meters,OK
2025-01-26T19:50:05.628297,7.8,knots,OK,16.0,degrees,OK,13.2,knots,OK,18.8,°C,OK,17.0,°C,OK,1014.8,hPa,OK,5765.0,meters,OK,1152.0,feet,OK,0.3,mm/hr,OK,1785.0,meters,OK,1536.0,meters,OK,1658.0,meters,OK
2025-01-26T19:50:06.631949,6.2,knots,OK,55.0,degrees,OK,11.9,knots,OK,22.9,°C,OK,15.8,°C,OK,1014.0,hPa,OK,6320.0,meters,OK,2148.0,feet,OK,0.4,mm/hr,OK,1588.0,meters,OK,1936.0,meters,OK,1671.0,meters,OK
2025-01-26T19:50:07.634506,9.3,knots,OK,265.0,degrees,OK,20.3,knots,OK,18.2,°C,OK,17.5,°C,OK,1014.2,hPa,OK,8031.0,meters,OK,2823.0,feet,OK,0.2,mm/hr,OK,1933.0,meters,OK,1690.0,meters,OK,1922.0,meters,OK
2025-01-26T19:50:08.638401,5.1,knots,OK,145.0,degrees,OK,16.9,knots,OK,20.5,°C,OK,16.3,°C,OK,1014.7,hPa,OK,8729.0,meters,OK,1429.0,feet,OK,0.0,mm/hr,OK,1852.0,meters,OK,1586.0,meters,OK,1828.0,meters,OK
2025-01-26T19:50:09.642740,9.6,knots,OK,163.0,degrees,OK,16.9,knots,OK,20.4,°C,OK,12.7,°C,OK,1014.0,hPa,OK,8692.0,meters,OK,2248.0,feet,OK,0.4,mm/hr,OK,1607.0,meters,OK,1515.0,meters,OK,1653.0,meters,OK
2025-01-26T19:50:10.647519,10.5,knots,OK,203.0,degrees,OK,17.4,knots,OK,15.7,°C,OK,11.8,°C,OK,1013.7,hPa,OK,9644.0,meters,OK,2303.0,feet,OK,0.0,mm/hr,OK,1926.0,meters,OK,1671.0,meters,OK,1755.0,meters,OK
2025-01-26T19:50:11.651729,10.9,knots,OK,114.0,degrees,OK,15.6,knots,OK,18.6,°C,OK,18.2,°C,OK,1013.1,hPa,OK,9620.0,meters,OK,2210.0,feet,OK,0.5,mm/hr,OK,1600.0,meters,OK,1669.0,meters,OK,1761.0,meters,OK
2025-01-26T19:50:12.655821,10.9,knots,OK,190.0,degrees,OK,16.7,knots,OK,18.3,°C,OK,13.1,°C,OK,1014.6,hPa,OK,8379.0,meters,OK,2368.0,feet,OK,0.2,mm/hr,OK,1573.0,meters,OK,1951.0,meters,OK,1504.0,meters,OK
2025-01-26T19:50:13.659332,7.6,knots,OK,178.0,degrees,OK,11.7,knots,OK,23.5,°C,OK,12.3,°C,OK,1014.4,hPa,OK,9390.0,meters,OK,1511.0,feet,OK,0.3,mm/hr,OK,1843.0,meters,OK,1587.0,meters,OK,1519.0,meters,OK
2025-01-26T19:50:14.663505,11.6,knots,OK,346.0,degrees,OK,15.6,knots,OK,15.9,°C,OK,16.3,°C,OK,1014.1,hPa,OK,9837.0,meters,OK,2991.0,feet,OK,0.2,mm/hr,OK,1843.0,meters,OK,1979.0,meters,OK,1702.0,meters,OK
2025-01-26T19:50:15.667257,8.7,knots,OK,351.0,degrees,OK,20.3,knots,OK,18.6,°C,OK,16.4,°C,OK,1014.1,hPa,OK,9410.0,meters,OK,2008.0,feet,OK,0.5,mm/hr,OK,1533.0,meters,OK,1657.0,meters,OK,1932.0,meters,OK
2025-01-26T19:50:16.671491,14.7,knots,OK,343.0,degrees,OK,24.6,knots,OK,15.7,°C,OK,12.5,°C,OK,1013.1,hPa,OK,7552.0,meters,OK,2856.0,feet,OK,0.3,mm/hr,OK,1786.0,meters,OK,1734.0,meters,OK,1651.0,meters,OK
2025-01-26T19:50:17.675571,9.6,knots,OK,30.0,degrees,OK,17.4,knots,OK,19.5,°C,OK,12.4,°C,OK,1014.1,hPa,OK,5790.0,meters,OK,1594.0,feet,OK,0.2,mm/hr,OK,1907.0,meters,OK,1535.0,meters,OK,1888.0,meters,OK
2025-01-26T19:50:18.679341,10.9,knots,OK,273.0,degrees,OK,18.0,knots,OK,22.9,°C,OK,13.2,°C,OK,1013.2,hPa,OK,8022.0,meters,OK,2440.0,feet,OK,0.2,mm/hr,OK,1911.0,meters,OK,1801.0,meters,OK,1547.0,meters,OK
2025-01-26T19:50:19.683140,9.6,knots,OK,112.0,degrees,OK,23.4,knots,OK,16.2,°C,OK,16.2,°C,OK,1013.0,hPa,OK,9813.0,meters,OK,1483.0,feet,OK,0.3,mm/hr,OK,1607.0,meters,OK,1521.0,meters,OK,1506.0,meters,OK
2025-01-26T19:50:20.687746,5.4,knots,OK,80.0,degrees,OK,15.1,knots,OK,20.3,°C,OK,19.3,°C,OK,1014.9,hPa,OK,6047.0,meters,OK,1754.0,feet,OK,0.2,mm/hr,OK,1663.0,meters,OK,1974.0,meters,OK,1695.0,meters,OK
2025-01-26T19:50:21.692002,11.5,knots,OK,11.0,degrees,OK,17.7,knots,OK,22.1,°C,OK,19.6,°C,OK,1013.5,hPa,OK,5831.0,meters,OK,2833.0,feet,OK,0.1,mm/hr,OK,1952.0,meters,OK,1837.0,meters,OK,1856.0,meters,OK
2025-01-26T19:50:22.696176,12.9,knots,OK,291.0,degrees,OK,13.0,knots,OK,16.4,°C,OK,10.8,°C,OK,1013.7,hPa,OK,8847.0,meters,OK,2422.0,feet,OK,0.1,mm/hr,OK,1890.0,meters,OK,1643.0,meters,OK,1624.0,meters,OK
2025-01-26T19:50:23.699424,9.6,knots,OK,316.0,degrees,OK,14.4,knots,OK,24.6,°C,OK,19.4,°C,OK,1014.3,hPa,OK,6690.0,meters,OK,1893.0,feet,OK,0.2,mm/hr,OK,1509.0,meters,OK,1639.0,meters,OK,1823.0,meters,OK
2025-01-26T19:50:24.703897,5.1,knots,OK,138.0,degrees,OK,18.5,knots,OK,19.5,°C,OK,12.6,°C,OK,1013.8,hPa,OK,8670.0,meters,OK,1038.0,feet,OK,0.2,mm/hr,OK,1517.0,meters,OK,1558.0,meters,OK,1780.0,meters,OK
2025-01-26T19:50:25.708431,10.9,knots,OK,154.0,degrees,OK,18.4,knots,OK,18.1,°C,OK,11.4,°C,OK,1014.0,hPa,OK,8186.0,meters,OK,2909.0,feet,OK,0.2,mm/hr,OK,1585.0,meters,OK,1947.0,meters,OK,1885.0,meters,OK
2025-01-26T19:50:26.712448,9.3,knots,OK,20.0,degrees,OK,17.6,knots,OK,15.8,°C,OK,18.9,°C,OK,1013.0,hPa,OK,8208.0,meters,OK,2286.0,feet,OK,0.5,mm/hr,OK,1569.0,meters,OK,1888.0,meters,OK,1593.0,meters,OK
2025-01-26T19:50:27.722048,11.7,knots,OK,189.0,degrees,OK,16.3,knots,OK,19.3,°C,OK,18.2,°C,OK,1014.1,hPa,OK,5025.0,meters,OK,2435.0,feet,OK,0.0,mm/hr,OK,1863.0,meters,OK,1689.0,meters,OK,1522.0,meters,OK
2025-01-26T19:50:28.731243,11.0,knots,OK,162.0,degrees,OK,12.3,knots,OK,18.0,°C,OK,13.4,°C,OK,1013.5,hPa,OK,5728.0,meters,OK,1591.0,feet,OK,0.1,mm/hr,OK,1901.0,meters,OK,1695.0,meters,OK,1693.0,meters,OK
2025-01-26T19:50:29.735839,11.6,knots,OK,136.0,degrees,OK,23.7,knots,OK,15.1,°C,OK,19.4,°C,OK,1013.3,hPa,OK,6198.0,meters,OK,1030.0,feet,OK,0.4,mm/hr,OK,1581.0,meters,OK,1817.0,meters,OK,1987.0,meters,OK
2025-01-26T19:50:30.739831,12.9,knots,OK,32.0,degrees,OK,19.7,knots,OK,15.2,°C,OK,16.8,°C,OK,1014.4,hPa,OK,7801.0,meters,OK,1225.0,feet,OK,0.1,mm/hr,OK,1743.0,meters,OK,1656.0,meters,OK,1697.0,meters,OK
2025-01-26T19:50:31.743142,14.5,knots,OK,293.0,degrees,OK,22.6,knots,OK,22.1,°C,OK,10.6,°C,OK,1014.8,hPa,OK,5266.0,meters,OK,2386.0,feet,OK,0.2,mm/hr,OK,1834.0,meters,OK,1824.0,meters,OK,1834.0,meters,OK
2025-01-26T19:50:32.747214,8.0,knots,OK,153.0,degrees,OK,14.0,knots,OK,16.2,°C,OK,11.6,°C,OK,1013.1,hPa,OK,5377.0,meters,OK,1288.0,feet,OK,0.1,mm/hr,OK,1538.0,meters,OK,1605.0,meters,OK,1956.0,meters,OK
2025-01-26T19:50:33.750446,12.7,knots,OK,196.0,degrees,OK,16.8,knots,OK,24.6,°C,OK,14.3,°C,OK,1014.5,hPa,OK,9684.0,meters,OK,2305.0,feet,OK,0.4,mm/hr,OK,1750.0,meters,OK,1861.0,meters,OK,1845.0,meters,OK
2025-01-26T19:50:34.754891,8.6,knots,OK,11.0,degrees,OK,15.0,knots,OK,24.7,°C,OK,16.6,°C,OK,1013.6,hPa,OK,9276.0,meters,OK,1069.0,feet,OK,0.3,mm/hr,OK,1881.0,meters,OK,1715.0,meters,OK,1740.0,meters,OK
2025-01-26T19:50:35.758491,5.5,knots,OK,169.0,degrees,OK,11.9,knots,OK,19.2,°C,OK,19.8,°C,OK,1014.7,hPa,OK,7710.0,meters,OK,2753.0,feet,OK,0.4,mm/hr,OK,1503.0,meters,OK,1893.0,meters,OK,1702.0,meters,OK
2025-01-26T19:50:36.763124,10.4,knots,OK,179.0,degrees,OK,13.1,knots,OK,21.9,°C,OK,19.6,°C,OK,1014.1,hPa,OK,9367.0,meters,OK,1134.0,feet,OK,0.3,mm/hr,OK,1858.0,meters,OK,1807.0,meters,OK,1654.0,meters,OK
2025-01-26T19:50:37.767295,11.8,knots,OK,74.0,degrees,OK,21.5,knots,OK,18.8,°C,OK,12.0,°C,OK,1013.4,hPa,OK,9977.0,meters,OK,1539.0,feet,OK,0.1,mm/hr,OK,1966.0,meters,OK,1920.0,meters,OK,1757.0,meters,OK
2025-01-26T19:50:38.771086,5.2,knots,OK,159.0,degrees,OK,11.4,knots,OK,19.3,°C,OK,19.1,°C,OK,1014.4,hPa,OK,5915.0,meters,OK,2236.0,feet,OK,0.5,mm/hr,OK,1940.0,meters,OK,1816.0,meters,OK,1812.0,meters,OK
2025-01-26T19:50:39.774413,6.2,knots,OK,44.0,degrees,OK,20.5,knots,OK,22.9,°C,OK,18.9,°C,OK,1014.4,hPa,OK,9992.0,meters,OK,1927.0,feet,OK,0.4,mm/hr,OK,1590.0,meters,OK,1986.0,meters,OK,1897.0,meters,OK
2025-01-26T19:50:40.778748,5.3,knots,OK,281.0,degrees,OK,14.7,knots,OK,17.7,°C,OK,16.1,°C,OK,1013.0,hPa,OK,9346.0,meters,OK,2078.0,feet,OK,0.1,mm/hr,OK,1886.0,meters,OK,1725.0,meters,OK,1915.0,meters,OK
2025-01-26T19:50:41.783198,6.5,knots,OK,164.0,degrees,OK,21.1,knots,OK,22.4,°C,OK,17.6,°C,OK,1014.4,hPa,OK,7053.0,meters,OK,1002.0,feet,OK,0.4,mm/hr,OK,1561.0,meters,OK,1979.0,meters,OK,1683.0,meters,OK
2025-01-26T19:50:42.787788,11.4,knots,OK,131.0,degrees,OK,17.8,knots,OK,15.7,°C,OK,15.3,°C,OK,1013.7,hPa,OK,6967.0,meters,OK,2181.0,feet,OK,0.0,mm/hr,OK,1838.0,meters,OK,1874.0,meters,OK,1845.0,meters,OK
2025-01-26T19:50:43.791787,13.5,knots,OK,309.0,degrees,OK,18.5,knots,OK,22.3,°C,OK,13.4,°C,OK,1013.7,hPa,OK,5006.0,meters,OK,1385.0,feet,OK,0.0,mm/hr,OK,1578.0,meters,OK,1935.0,meters,OK,1940.0,meters,OK
2025-01-26T19:50:44.796450,6.0,knots,OK,209.0,degrees,OK,18.0,knots,OK,18.0,°C,OK,17.9,°C,OK,1014.9,hPa,OK,7014.0,meters,OK,2705.0,feet,OK,0.2,mm/hr,OK,1822.0,meters,OK,1841.0,meters,OK,1622.0,meters,OK
2025-01-26T19:50:45.801033,13.9,knots,OK,46.0,degrees,OK,15.2,knots,OK,18.3,°C,OK,10.5,°C,OK,1013.9,hPa,OK,6948.0,meters,OK,1060.0,feet,OK,0.4,mm/hr,OK,1744.0,meters,OK,1738.0,meters,OK,1528.0,meters,OK
2025-01-26T19:50:46.805235,10.9,knots,OK,299.0,degrees,OK,10.7,knots,OK,21.9,°C,OK,15.4,°C,OK,1013.7,hPa,OK,9298.0,meters,OK,2894.0,feet,OK,0.5,mm/hr,OK,1596.0,meters,OK,1607.0,meters,OK,1822.0,meters,OK
2025-01-26T19:50:47.809400,7.9,knots,OK,3.0,degrees,OK,21.4,knots,OK,19.4,°C,OK,10.9,°C,OK,1013.0,hPa,OK,5811.0,meters,OK,1650.0,feet,OK,0.3,mm/hr,OK,1517.0,meters,OK,1972.0,meters,OK,1718.0,meters,OK
2025-01-26T19:50:48.813551,7.4,knots,OK,196.0,degrees,OK,15.4,knots,OK,23.0,°C,OK,13.3,°C,OK,1014.8,hPa,OK,8329.0,meters,OK,1095.0,feet,OK,0.4,mm/hr,OK,1696.0,meters,OK,1760.0,meters,OK,1708.0,meters,OK
2025-01-26T19:50:49.817945,14.4,knots,OK,87.0,degrees,OK,17.7,knots,OK,21.2,°C,OK,19.9,°C,OK,1014.9,hPa,OK,6979.0,meters,OK,1421.0,feet,OK,0.2,mm/hr,OK,1813.0,meters,OK,1693.0,meters,OK,1874.0,meters,OK
2025-01-26T19:50:50.821031,14.5,knots,OK,63.0,degrees,OK,21.4,knots,OK,15.0,°C,OK,18.7,°C,OK,1013.3,hPa,OK,7706.0,meters,OK,1565.0,feet,OK,0.4,mm/hr,OK,1682.0,meters,OK,1769.0,meters,OK,1761.0,meters,OK
2025-01-26T19:50:51.824371,7.3,knots,OK,57.0,degrees,OK,16.0,knots,OK,22.5,°C,OK,17.1,°C,OK,1014.0,hPa,OK,5402.0,meters,OK,2565.0,feet,OK,0.2,mm/hr,OK,1952.0,meters,OK,1815.0,meters,OK,1594.0,meters,OK
2025-01-26T19:50:52.828797,8.0,knots,OK,328.0,degrees,OK,16.2,knots,OK,24.7,°C,OK,18.1,°C,OK,1014.9,hPa,OK,8115.0,meters,OK,2756.0,feet,OK,0.2,mm/hr,OK,1734.0,meters,OK,1906.0,meters,OK,1814.0,meters,OK
2025-01-26T19:50:53.833121,13.8,knots,OK,174.0,degrees,OK,24.9,knots,OK,16.2,°C,OK,10.0,°C,OK,1014.5,hPa,OK,8350.0,meters,OK,2721.0,feet,OK,0.1,mm/hr,OK,1612.0,meters,OK,1820.0,meters,OK,1601.0,meters,OK
2025-01-26T19:50:54.835906,10.6,knots,OK,303.0,degrees,OK,21.3,knots,OK,24.6,°C,OK,11.3,°C,OK,1013.3,hPa,OK,8212.0,meters,OK,2939.0,feet,OK,0.3,mm/hr,OK,1813.0,meters,OK,1687.0,meters,OK,1964.0,meters,OK
2025-01-26T19:50:55.839590,5.5,knots,OK,203.0,degrees,OK,11.4,knots,OK,19.7,°C,OK,12.7,°C,OK,1014.0,hPa,OK,5501.0,meters,OK,2935.0,feet,OK,0.4,mm/hr,OK,1604.0,meters,OK,1923.0,meters,OK,1791.0,meters,OK
2025-01-26T19:50:56.843725,5.2,knots,OK,117.0,degrees,OK,17.0,knots,OK,23.5,°C,OK,17.0,°C,OK,1015.0,hPa,OK,6528.0,meters,OK,2680.0,feet,OK,0.0,mm/hr,OK,1569.0,meters,OK,1554.0,meters,OK,1688.0,meters,OK
2025-01-26T19:50:57.848159,12.2,knots,OK,309.0,degrees,OK,16.2,knots,OK,17.3,°C,OK,10.8,°C,OK,1014.7,hPa,OK,7498.0,meters,OK,1646.0,feet,OK,0.0,mm/hr,OK,1899.0,meters,OK,1755.0,meters,OK,1771.0,meters,OK
2025-01-26T19:50:58.852456,13.7,knots,OK,168.0,degrees,OK,24.3,knots,OK,15.9,°C,OK,13.4,°C,OK,1014.8,hPa,OK,6510.0,meters,OK,1422.0,feet,OK,0.2,mm/hr,OK,1602.0,meters,OK,1702.0,meters,OK,1633.0,meters,OK
2025-01-26T19:50:59.856219,5.2,knots,OK,17.0,degrees,OK,11.7,knots,OK,18.9,°C,OK,11.1,°C,OK,1013.6,hPa,OK,8509.0,meters,OK,2830.0,feet,OK,0.2,mm/hr,OK,1728.0,meters,OK,1928.0,meters,OK,1901.0,meters,OK
2025-01-26T19:51:00.860007,6.6,knots,OK,86.0,degrees,OK,22.6,knots,OK,18.3,°C,OK,14.7,°C,OK,1013.3,hPa,OK,5916.0,meters,OK,2575.0,feet,OK,0.4,mm/hr,OK,1642.0,meters,OK,1944.0,meters,OK,1519.0,meters,OK
2025-01-26T19:51:01.864523,9.7,knots,OK,192.0,degrees,OK,12.4,knots,OK,18.9,°C,OK,17.9,°C,OK,1013.3,hPa,OK,9724.0,meters,OK,1395.0,feet,OK,0.3,mm/hr,OK,1715.0,meters,OK,1721.0,meters,OK,1611.0,meters,OK
2025-01-26T19:51:02.868753,9.6,knots,OK,101.0,degrees,OK,14.9,knots,OK,19.5,°C,OK,17.5,°C,OK,1014.5,hPa,OK,7295.0,meters,OK,1595.0,feet,OK,0.1,mm/hr,OK,1889.0,meters,OK,1559.0,meters,OK,1952.0,meters,OK
2025-01-26T19:51:03.872841,5.6,knots,OK,71.0,degrees,OK,22.4,knots,OK,21.0,°C,OK,18.6,°C,OK,1013.1,hPa,OK,5439.0,meters,OK,1867.0,feet,OK,0.0,mm/hr,OK,1999.0,meters,OK,1824.0,meters,OK,1867.0,meters,OK
2025-01-26T19:51:04.876697,13.9,knots,OK,327.0,degrees,OK,21.9,knots,OK,19.3,°C,OK,13.6,°C,OK,1013.6,hPa,OK,6183.0,meters,OK,2863.0,feet,OK,0.3,mm/hr,OK,1937.0,meters,OK,1906.0,meters,OK,1879.0,meters,OK
2025-01-26T19:51:05.880481,9.8,knots,OK,169.0,degrees,OK,14.6,knots,OK,18.9,°C,OK,14.3,°C,OK,1014.2,hPa,OK,6965.0,meters,OK,2149.0,feet,OK,0.2,mm/hr,OK,1896.0,meters,OK,1768.0,meters,OK,1565.0,meters,OK
2025-01-26T19:51:06.884886,8.8,knots,OK,26.0,degrees,OK,13.6,knots,OK,20.0,°C,OK,11.1,°C,OK,1014.9,hPa,OK,9301.0,meters,OK,2192.0,feet,OK,0.2,mm/hr,OK,1710.0,meters,OK,1618.0,meters,OK,1604.0,meters,OK
2025-01-26T19:51:07.888894,7.2,knots,OK,332.0,degrees,OK,19.3,knots,OK,15.3,°C,OK,15.1,°C,OK,1014.2,hPa,OK,5580.0,meters,OK,1154.0,feet,OK,0.0,mm/hr,OK,1784.0,meters,OK,1789.0,meters,OK,1675.0,meters,OK
2025-01-26T19:51:08.893996,8.7,knots,OK,257.0,degrees,OK,10.1,knots,OK,23.0,°C,OK,18.5,°C,OK,1013.8,hPa,OK,7575.0,meters,OK,1466.0,feet,OK,0.3,mm/hr,OK,1576.0,meters,OK,1661.0,meters,OK,1693.0,meters,OK
2025-01-26T19:51:09.899258,12.5,knots,OK,338.0,degrees,OK,14.4,knots,OK,15.4,°C,OK,12.5,°C,OK,1013.0,hPa,OK,9814.0,meters,OK,1808.0,feet,OK,0.5,mm/hr,OK,1973.0,meters,OK,1998.0,meters,OK,1721.0,meters,OK
2025-01-26T19:51:10.903386,13.5,knots,OK,47.0,degrees,OK,11.2,knots,OK,20.4,°C,OK,13.5,°C,OK,1014.0,hPa,OK,8921.0,meters,OK,2908.0,feet,OK,0.5,mm/hr,OK,1764.0,meters,OK,1672.0,meters,OK,1862.0,meters,OK
2025-01-26T19:51:11.906781,6.7,knots,OK,115.0,degrees,OK,10.4,knots,OK,19.9,°C,OK,13.2,°C,OK,1013.7,hPa,OK,6375.0,meters,OK,1679.0,feet,OK,0.2,mm/hr,OK,1528.0,meters,OK,1618.0,meters,OK,1605.0,meters,OK
2025-01-26T19:51:12.909729,11.0,knots,OK,357.0,degrees,OK,15.5,knots,OK,16.9,°C,OK,12.6,°C,OK,1014.9,hPa,OK,9984.0,meters,OK,1255.0,feet,OK,0.3,mm/hr,OK,1512.0,meters,OK,1689.0,meters,OK,1643.0,meters,OK
2025-01-26T19:51:13.913438,7.8,knots,OK,324.0,degrees,OK,22.5,knots,OK,18.4,°C,OK,15.5,°C,OK,1014.0,hPa,OK,9841.0,meters,OK,1278.0,feet,OK,0.2,mm/hr,OK,1948.0,meters,OK,1701.0,meters,OK,1598.0,meters,OK
2025-01-26T19:51:14.917887,6.0,knots,OK,119.0,degrees,OK,15.9,knots,OK,15.8,°C,OK,14.2,°C,OK,1014.9,hPa,OK,5206.0,meters,OK,2722.0,feet,OK,0.1,mm/hr,OK,1774.0,meters,OK,1862.0,meters,OK,1643.0,meters,OK
2025-01-26T19:51:15.922178,12.4,knots,OK,155.0,degrees,OK,14.3,knots,OK,21.9,°C,OK,10.2,°C,OK,1014.9,hPa,OK,8231.0,meters,OK,2686.0,feet,OK,0.1,mm/hr,OK,1807.0,meters,OK,1711.0,meters,OK,1760.0,meters,OK
2025-01-26T19:51:16.927440,13.1,knots,OK,322.0,degrees,OK,24.4,knots,OK,16.5,°C,OK,11.9,°C,OK,1014.7,hPa,OK,5128.0,meters,OK,1652.0,feet,OK,0.4,mm/hr,OK,1606.0,meters,OK,1838.0,meters,OK,1659.0,meters,OK
2025-01-26T19:51:17.932050,9.3,knots,OK,8.0,degrees,OK,13.9,knots,OK,16.3,°C,OK,18.7,°C,OK,1015.0,hPa,OK,9394.0,meters,OK,2952.0,feet,OK,0.4,mm/hr,OK,1782.0,meters,OK,1721.0,meters,OK,1646.0,meters,OK
2025-01-26T19:51:18.935302,13.8,knots,OK,8.0,degrees,OK,11.7,knots,OK,23.4,°C,OK,11.4,°C,OK,1014.8,hPa,OK,8038.0,meters,OK,2020.0,feet,OK,0.3,mm/hr,OK,1792.0,meters,OK,1740.0,meters,OK,1714.0,meters,OK
2025-01-26T19:51:19.938433,10.2,knots,OK,188.0,degrees,OK,12.4,knots,OK,17.5,°C,OK,18.6,°C,OK,1013.1,hPa,OK,9087.0,meters,OK,2315.0,feet,OK,0.5,mm/hr,OK,1512.0,meters,OK,1568.0,meters,OK,1885.0,meters,OK
2025-01-26T19:51:20.941665,11.4,knots,OK,190.0,degrees,OK,20.2,knots,OK,18.7,°C,OK,20.0,°C,OK,1015.0,hPa,OK,5970.0,meters,OK,2660.0,feet,OK,0.0,mm/hr,OK,1827.0,meters,OK,1850.0,meters,OK,1584.0,meters,OK
2025-01-26T19:51:21.945597,8.9,knots,OK,290.0,degrees,OK,14.5,knots,OK,18.6,°C,OK,18.9,°C,OK,1013.5,hPa,OK,6753.0,meters,OK,1448.0,feet,OK,0.3,mm/hr,OK,1567.0,meters,OK,1839.0,meters,OK,1518.0,meters,OK
2025-01-26T19:51:22.948796,12.9,knots,OK,77.0,degrees,OK,17.0,knots,OK,20.9,°C,OK,14.4,°C,OK,1013.8,hPa,OK,6405.0,meters,OK,1760.0,feet,OK,0.2,mm/hr,OK,1787.0,meters,OK,1548.0,meters,OK,1556.0,meters,OK
2025-01-26T19:51:23.953488,8.5,knots,OK,243.0,degrees,OK,23.3,knots,OK,24.2,°C,OK,10.7,°C,OK,1013.5,hPa,OK,5852.0,meters,OK,1701.0,feet,OK,0.2,mm/hr,OK,1849.0,meters,OK,1793.0,meters,OK,1571.0,meters,OK
2025-01-26T19:51:24.957338,7.3,knots,OK,346.0,degrees,OK,23.6,knots,OK,20.5,°C,OK,15.4,°C,OK,1013.7,hPa,OK,7542.0,meters,OK,1985.0,feet,OK,0.5,mm/hr,OK,1675.0,meters,OK,1958.0,meters,OK,1724.0,meters,OK
2025-01-26T19:51:25.960704,13.7,knots,OK,288.0,degrees,OK,16.6,knots,OK,20.7,°C,OK,13.5,°C,OK,1014.1,hPa,OK,6739.0,meters,OK,2538.0,feet,OK,0.2,mm/hr,OK,1713.0,meters,OK,1886.0,meters,OK,1822.0,meters,OK
2025-01-26T19:51:26.965182,13.1,knots,OK,142.0,degrees,OK,17.7,knots,OK,17.9,°C,OK,19.8,°C,OK,1013.3,hPa,OK,6694.0,meters,OK,1054.0,feet,OK,0.2,mm/hr,OK,1605.0,meters,OK,1923.0,meters,OK,1799.0,meters,OK
2025-01-26T19:51:27.969986,9.6,knots,OK,227.0,degrees,OK,16.9,knots,OK,16.2,°C,OK,14.3,°C,OK,1013.0,hPa,OK,8957.0,meters,OK,1644.0,feet,OK,0.0,mm/hr,OK,1762.0,meters,OK,1836.0,meters,OK,1677.0,meters,OK
2025-01-26T19:51:28.974170,11.8,knots,OK,152.0,degrees,OK,19.5,knots,OK,21.0,°C,OK,12.7,°C,OK,1013.8,hPa,OK,9288.0,meters,OK,1060.0,feet,OK,0.2,mm/hr,OK,1951.0,meters,OK,1920.0,meters,OK,1574.0,meters,OK
2025-01-26T19:51:29.978095,8.1,knots,OK,204.0,degrees,OK,24.5,knots,OK,17.5,°C,OK,15.7,°C,OK,1014.2,hPa,OK,6447.0,meters,OK,2481.0,feet,OK,0.1,mm/hr,OK,1539.0,meters,OK,1985.0,meters,OK,1775.0,meters,OK
2025-01-26T19:51:30.981772,14.0,knots,OK,224.0,degrees,OK,10.6,knots,OK,23.2,°C,OK,11.7,°C,OK,1014.0,hPa,OK,6180.0,meters,OK,2311.0,feet,OK,0.3,mm/hr,OK,1802.0,meters,OK,1521.0,meters,OK,1755.0,meters,OK
2025-01-26T19:51:31.985411,14.6,knots,OK,304.0,degrees,OK,22.1,knots,OK,21.7,°C,OK,15.5,°C,OK,1013.2,hPa,OK,9414.0,meters,OK,1316.0,feet,OK,0.4,mm/hr,OK,1748.0,meters,OK,1662.0,meters,OK,1846.0,meters,OK
2025-01-26T19:51:32.989250,5.5,knots,OK,221.0,degrees,OK,13.5,knots,OK,17.9,°C,OK,15.7,°C,OK,1014.2,hPa,OK,6640.0,meters,OK,2302.0,feet,OK,0.1,mm/hr,OK,1603.0,meters,OK,1946.0,meters,OK,1693.0,meters,OK
2025-01-26T19:51:33.994114,14.8,knots,OK,168.0,degrees,OK,15.9,knots,OK,15.7,°C,OK,13.4,°C,OK,1013.2,hPa,OK,5066.0,meters,OK,2073.0,feet,OK,0.2,mm/hr,OK,1784.0,meters,OK,1916.0,meters,OK,1926.0,meters,OK
2025-01-26T19:51:34.998471,13.3,knots,OK,337.0,degrees,OK,11.1,knots,OK,22.1,°C,OK,10.7,°C,OK,1014.5,hPa,OK,9593.0,meters,OK,1640.0,feet,OK,0.2,mm/hr,OK,1507.0,meters,OK,1580.0,meters,OK,1659.0,meters,OK
2025-01-26T19:51:36.003175,9.1,knots,OK,75.0,degrees,OK,24.6,knots,OK,20.3,°C,OK,16.1,°C,OK,1014.4,hPa,OK,9761.0,meters,OK,1782.0,feet,OK,0.2,mm/hr,OK,1725.0,meters,OK,1843.0,meters,OK,1549.0,meters,OK
2025-01-26T19:51:37.007645,10.7,knots,OK,180.0,degrees,OK,16.8,knots,OK,21.3,°C,OK,14.2,°C,OK,1014.1,hPa,OK,8926.0,meters,OK,2770.0,feet,OK,0.2,mm/hr,OK,1820.0,meters,OK,1701.0,meters,OK,1793.0,meters,OK
2025-01-26T19:51:38.011525,12.4,knots,OK,152.0,degrees,OK,14.8,knots,OK,17.8,°C,OK,16.9,°C,OK,1014.4,hPa,OK,8747.0,meters,OK,2944.0,feet,OK,0.0,mm/hr,OK,1600.0,meters,OK,1898.0,meters,OK,1514.0,meters,OK
2025-01-26T19:51:39.015543,14.8,knots,OK,108.0,degrees,OK,24.4,knots,OK,22.5,°C,OK,18.0,°C,OK,1013.3,hPa,OK,8248.0,meters,OK,2300.0,feet,OK,0.4,mm/hr,OK,1777.0,meters,OK,1503.0,meters,OK,1935.0,meters,OK
2025-01-26T19:51:40.020439,13.8,knots,OK,4.0,degrees,OK,15.1,knots,OK,21.9,°C,OK,13.1,°C,OK,1013.7,hPa,OK,5365.0,meters,OK,1227.0,feet,OK,0.1,mm/hr,OK,1701.0,meters,OK,1789.0,meters,OK,1706.0,meters,OK
2025-01-26T19:51:41.025854,10.0,knots,OK,272.0,degrees,OK,18.4,knots,OK,23.3,°C,OK,16.9,°C,OK,1014.9,hPa,OK,7608.0,meters,OK,1496.0,feet,OK,0.1,mm/hr,OK,1517.0,meters,OK,1632.0,meters,OK,1656.0,meters,OK
2025-01-26T19:51:42.030300,8.6,knots,OK,222.0,degrees,OK,12.4,knots,OK,24.7,°C,OK,18.1,°C,OK,1014.6,hPa,OK,9454.0,meters,OK,1904.0,feet,OK,0.3,mm/hr,OK,1609.0,meters,OK,1675.0,meters,OK,1989.0,meters,OK
2025-01-26T19:51:43.034493,14.2,knots,OK,165.0,degrees,OK,20.1,knots,OK,23.4,°C,OK,19.1,°C,OK,1013.8,hPa,OK,8075.0,meters,OK,1142.0,feet,OK,0.3,mm/hr,OK,1946.0,meters,OK,1826.0,meters,OK,1827.0,meters,OK
2025-01-26T19:51:44.039375,13.2,knots,OK,168.0,degrees,OK,19.2,knots,OK,23.0,°C,OK,11.9,°C,OK,1013.7,hPa,OK,5727.0,meters,OK,2652.0,feet,OK,0.3,mm/hr,OK,1897.0,meters,OK,1705.0,meters,OK,1963.0,meters,OK
2025-01-26T19:51:45.043979,11.7,knots,OK,90.0,degrees,OK,23.1,knots,OK,19.9,°C,OK,16.4,°C,OK,1013.8,hPa,OK,5771.0,meters,OK,2742.0,feet,OK,0.4,mm/hr,OK,1657.0,meters,OK,1683.0,meters,OK,1602.0,meters,OK
2025-01-26T19:51:46.048231,7.8,knots,OK,246.0,degrees,OK,15.3,knots,OK,24.0,°C,OK,17.4,°C,OK,1014.9,hPa,OK,8572.0,meters,OK,1332.0,feet,OK,0.5,mm/hr,OK,1923.0,meters,OK,1550.0,meters,OK,1686.0,meters,OK
2025-01-26T19:51:47.052007,13.8,knots,OK,345.0,degrees,OK,11.1,knots,OK,22.0,°C,OK,18.5,°C,OK,1014.0,hPa,OK,6146.0,meters,OK,2038.0,feet,OK,0.1,mm/hr,OK,1648.0,meters,OK,1982.0,meters,OK,1689.0,meters,OK
2025-01-26T19:51:48.056016,7.4,knots,OK,286.0,degrees,OK,12.0,knots,OK,21.6,°C,OK,18.8,°C,OK,1014.4,hPa,OK,6244.0,meters,OK,1820.0,feet,OK,0.1,mm/hr,OK,1837.0,meters,OK,1909.0,meters,OK,1784.0,meters,OK
2025-01-26T19:51:49.060081,8.9,knots,OK,257.0,degrees,OK,19.9,knots,OK,23.9,°C,OK,10.6,°C,OK,1014.9,hPa,OK,6846.0,meters,OK,1848.0,feet,OK,0.3,mm/hr,OK,1707.0,meters,OK,1952.0,meters,OK,1653.0,meters,OK
2025-01-26T19:51:50.065114,14.8,knots,OK,105.0,degrees,OK,15.2,knots,OK,22.7,°C,OK,11.9,°C,OK,1014.3,hPa,OK,8699.0,meters,OK,2168.0,feet,OK,0.3,mm/hr,OK,1900.0,meters,OK,1948.0,meters,OK,1814.0,meters,OK
2025-01-26T19:51:51.068833,6.4,knots,OK,103.0,degrees,OK,19.6,knots,OK,22.0,°C,OK,19.4,°C,OK,1013.0,hPa,OK,8902.0,meters,OK,2995.0,feet,OK,0.2,mm/hr,OK,1798.0,meters,OK,1766.0,meters,OK,1676.0,meters,OK
2025-01-26T19:51:52.071270,13.6,knots,OK,10.0,degrees,OK,14.9,knots,OK,20.0,°C,OK,13.4,°C,OK,1014.2,hPa,OK,9826.0,meters,OK,2280.0,feet,OK,0.3,mm/hr,OK,1654.0,meters,OK,1557.0,meters,OK,1910.0,meters,OK
2025-01-26T19:51:53.075829,12.4,knots,OK,255.0,degrees,OK,18.3,knots,OK,15.3,°C,OK,13.6,°C,OK,1014.7,hPa,OK,7608.0,meters,OK,1552.0,feet,OK,0.1,mm/hr,OK,1736.0,meters,OK,1983.0,meters,OK,1542.0,meters,OK
2025-01-26T19:51:54.080284,10.5,knots,OK,172.0,degrees,OK,23.2,knots,OK,21.3,°C,OK,17.5,°C,OK,1014.2,hPa,OK,8121.0,meters,OK,1276.0,feet,OK,0.4,mm/hr,OK,1914.0,meters,OK,1856.0,meters,OK,1616.0,meters,OK
2025-01-26T19:51:55.085537,7.6,knots,OK,175.0,degrees,OK,17.5,knots,OK,24.5,°C,OK,15.7,°C,OK,1014.5,hPa,OK,7294.0,meters,OK,2178.0,feet,OK,0.1,mm/hr,OK,1822.0,meters,OK,1944.0,meters,OK,1662.0,meters,OK
2025-01-26T19:51:56.090261,9.8,knots,OK,297.0,degrees,OK,10.1,knots,OK,18.1,°C,OK,12.3,°C,OK,1013.1,hPa,OK,8948.0,meters,OK,1419.0,feet,OK,0.4,mm/hr,OK,1878.0,meters,OK,1679.0,meters,OK,1702.0,meters,OK
2025-01-26T19:51:57.094288,14.8,knots,OK,289.0,degrees,OK,10.7,knots,OK,16.1,°C,OK,13.3,°C,OK,1013.3,hPa,OK,9206.0,meters,OK,2741.0,feet,OK,0.2,mm/hr,OK,1669.0,meters,OK,1881.0,meters,OK,1864.0,meters,OK
2025-01-26T19:51:58.097196,14.5,knots,OK,347.0,degrees,OK,21.2,knots,OK,21.7,°C,OK,17.2,°C,OK,1013.1,hPa,OK,5261.0,meters,OK,1864.0,feet,OK,0.4,mm/hr,OK,1883.0,meters,OK,1880.0,meters,OK,1846.0,meters,OK
2025-01-26T19:51:59.101325,11.9,knots,OK,156.0,degrees,OK,18.7,knots,OK,15.4,°C,OK,14.2,°C,OK,1014.1,hPa,OK,6049.0,meters,OK,1705.0,feet,OK,0.3,mm/hr,OK,1627.0,meters,OK,1835.0,meters,OK,1836.0,meters,OK
2025-01-26T19:52:00.105080,11.0,knots,OK,295.0,degrees,OK,23.1,knots,OK,17.2,°C,OK,19.3,°C,OK,1013.3,hPa,OK,5500.0,meters,OK,2973.0,feet,OK,0.3,mm/hr,OK,1733.0,meters,OK,1610.0,meters,OK,1952.0,meters,OK
2025-01-26T19:52:01.108944,9.7,knots,OK,200.0,degrees,OK,21.3,knots,OK,23.7,°C,OK,14.6,°C,OK,1014.4,hPa,OK,8118.0,meters,OK,2308.0,feet,OK,0.4,mm/hr,OK,1852.0,meters,OK,1821.0,meters,OK,1767.0,meters,OK
2025-01-26T19:52:02.111888,11.1,knots,OK,44.0,degrees,OK,16.8,knots,OK,22.8,°C,OK,18.3,°C,OK,1014.2,hPa,OK,8330.0,meters,OK,1630.0,feet,OK,0.2,mm/hr,OK,1764.0,meters,OK,1861.0,meters,OK,1540.0,meters,OK
2025-01-26T19:52:03.115200,13.3,knots,OK,11.0,degrees,OK,23.4,knots,OK,20.3,°C,OK,15.4,°C,OK,1015.0,hPa,OK,9234.0,meters,OK,1901.0,feet,OK,0.4,mm/hr,OK,1980.0,meters,OK,1553.0,meters,OK,1879.0,meters,OK
2025-01-26T19:52:04.118688,11.2,knots,OK,10.0,degrees,OK,16.6,knots,OK,19.3,°C,OK,18.8,°C,OK,1013.7,hPa,OK,5670.0,meters,OK,1807.0,feet,OK,0.1,mm/hr,OK,1814.0,meters,OK,1853.0,meters,OK,1770.0,meters,OK
2025-01-26T19:52:05.122596,9.5,knots,OK,211.0,degrees,OK,13.5,knots,OK,21.2,°C,OK,11.3,°C,OK,1014.1,hPa,OK,5981.0,meters,OK,1555.0,feet,OK,0.5,mm/hr,OK,1899.0,meters,OK,1951.0,meters,OK,1920.0,meters,OK
2025-01-26T19:52:06.126538,8.0,knots,OK,103.0,degrees,OK,24.1,knots,OK,20.3,°C,OK,13.5,°C,OK,1014.3,hPa,OK,8855.0,meters,OK,2817.0,feet,OK,0.1,mm/hr,OK,1687.0,meters,OK,1630.0,meters,OK,1976.0,meters,OK
2025-01-26T19:52:07.130240,12.9,knots,OK,223.0,degrees,OK,14.8,knots,OK,15.5,°C,OK,13.1,°C,OK,1014.5,hPa,OK,5743.0,meters,OK,1126.0,feet,OK,0.1,mm/hr,OK,1534.0,meters,OK,1831.0,meters,OK,1830.0,meters,OK
2025-01-26T19:52:08.136154,8.3,knots,OK,259.0,degrees,OK,14.2,knots,OK,16.4,°C,OK,12.1,°C,OK,1013.1,hPa,OK,8791.0,meters,OK,1702.0,feet,OK,0.0,mm/hr,OK,1888.0,meters,OK,1832.0,meters,OK,1616.0,meters,OK
2025-01-26T19:52:09.139754,11.3,knots,OK,280.0,degrees,OK,22.2,knots,OK,18.3,°C,OK,13.3,°C,OK,1013.5,hPa,OK,6836.0,meters,OK,1392.0,feet,OK,0.0,mm/hr,OK,1792.0,meters,OK,1616.0,meters,OK,1626.0,meters,OK
2025-01-26T19:52:10.143528,7.6,knots,OK,10.0,degrees,OK,22.9,knots,OK,23.9,°C,OK,19.2,°C,OK,1013.4,hPa,OK,5001.0,meters,OK,2934.0,feet,OK,0.3,mm/hr,OK,1543.0,meters,OK,1601.0,meters,OK,1995.0,meters,OK
2025-01-26T19:52:11.147666,8.9,knots,OK,255.0,degrees,OK,18.8,knots,OK,15.9,°C,OK,17.6,°C,OK,1013.3,hPa,OK,5379.0,meters,OK,2621.0,feet,OK,0.1,mm/hr,OK,1997.0,meters,OK,1934.0,meters,OK,1564.0,meters,OK
2025-01-26T19:52:12.161796,9.0,knots,OK,58.0,degrees,OK,12.0,knots,OK,20.1,°C,OK,19.7,°C,OK,1013.3,hPa,OK,9369.0,meters,OK,1532.0,feet,OK,0.2,mm/hr,OK,1601.0,meters,OK,1843.0,meters,OK,1600.0,meters,OK
2025-01-26T19:52:13.167182,6.2,knots,OK,46.0,degrees,OK,19.8,knots,OK,23.1,°C,OK,18.9,°C,OK,1014.8,hPa,OK,7751.0,meters,OK,2896.0,feet,OK,0.1,mm/hr,OK,1707.0,meters,OK,1719.0,meters,OK,1915.0,meters,OK
2025-01-26T19:52:14.171134,6.8,knots,OK,222.0,degrees,OK,20.4,knots,OK,16.7,°C,OK,16.5,°C,OK,1014.9,hPa,OK,9552.0,meters,OK,1398.0,feet,OK,0.1,mm/hr,OK,1509.0,meters,OK,1601.0,meters,OK,1542.0,meters,OK
2025-01-26T19:52:15.175189,5.8,knots,OK,148.0,degrees,OK,22.2,knots,OK,20.4,°C,OK,15.7,°C,OK,1014.5,hPa,OK,5011.0,meters,OK,2811.0,feet,OK,0.0,mm/hr,OK,1931.0,meters,OK,1884.0,meters,OK,1603.0,meters,OK
2025-01-26T19:52:16.179158,7.1,knots,OK,284.0,degrees,OK,18.3,knots,OK,20.5,°C,OK,15.6,°C,OK,1014.4,hPa,OK,7983.0,meters,OK,2343.0,feet,OK,0.4,mm/hr,OK,1669.0,meters,OK,1622.0,meters,OK,1713.0,meters,OK
2025-01-26T19:52:17.183087,14.1,knots,OK,160.0,degrees,OK,10.8,knots,OK,18.2,°C,OK,10.5,°C,OK,1013.4,hPa,OK,9677.0,meters,OK,1256.0,feet,OK,0.0,mm/hr,OK,1749.0,meters,OK,1508.0,meters,OK,1711.0,meters,OK
2025-01-26T19:52:18.186453,7.2,knots,OK,93.0,degrees,OK,15.9,knots,OK,15.3,°C,OK,11.4,°C,OK,1014.3,hPa,OK,8150.0,meters,OK,2031.0,feet,OK,0.3,mm/hr,OK,1614.0,meters,OK,1911.0,meters,OK,1938.0,meters,OK
2025-01-26T19:52:19.190518,9.6,knots,OK,343.0,degrees,OK,17.5,knots,OK,24.6,°C,OK,10.2,°C,OK,1013.0,hPa,OK,7783.0,meters,OK,1105.0,feet,OK,0.1,mm/hr,OK,1699.0,meters,OK,1599.0,meters,OK,1503.0,meters,OK
2025-01-26T19:52:20.194548,7.9,knots,OK,147.0,degrees,OK,16.8,knots,OK,16.4,°C,OK,19.1,°C,OK,1013.4,hPa,OK,6139.0,meters,OK,2329.0,feet,OK,0.1,mm/hr,OK,1940.0,meters,OK,1983.0,meters,OK,1991.0,meters,OK
2025-01-26T19:52:21.198598,8.5,knots,OK,65.0,degrees,OK,21.4,knots,OK,22.9,°C,OK,13.5,°C,OK,1014.4,hPa,OK,6989.0,meters,OK,1690.0,feet,OK,0.0,mm/hr,OK,1831.0,meters,OK,1864.0,meters,OK,1904.0,meters,OK
2025-01-26T19:52:22.202384,14.6,knots,OK,329.0,degrees,OK,19.3,knots,OK,18.8,°C,OK,10.9,°C,OK,1013.3,hPa,OK,5058.0,meters,OK,1076.0,feet,OK,0.2,mm/hr,OK,1626.0,meters,OK,1648.0,meters,OK,1551.0,meters,OK
2025-01-26T19:52:23.206313,12.6,knots,OK,89.0,degrees,OK,22.3,knots,OK,18.7,°C,OK,10.5,°C,OK,1014.5,hPa,OK,7149.0,meters,OK,1689.0,feet,OK,0.0,mm/hr,OK,1820.0,meters,OK,1964.0,meters,OK,1761.0,meters,OK
2025-01-26T19:52:24.210034,6.0,knots,OK,211.0,degrees,OK,15.4,knots,OK,20.0,°C,OK,15.6,°C,OK,1013.5,hPa,OK,5054.0,meters,OK,2394.0,feet,OK,0.5,mm/hr,OK,1703.0,meters,OK,1969.0,meters,OK,1579.0,meters,OK
2025-01-26T19:52:25.214069,6.7,knots,OK,158.0,degrees,OK,14.5,knots,OK,17.0,°C,OK,19.9,°C,OK,1013.8,hPa,OK,9600.0,meters,OK,2145.0,feet,OK,0.5,mm/hr,OK,1596.0,meters,OK,1572.0,meters,OK,1685.0,meters,OK
2025-01-26T19:52:26.218249,11.6,knots,OK,325.0,degrees,OK,16.4,knots,OK,23.4,°C,OK,15.4,°C,OK,1013.1,hPa,OK,7420.0,meters,OK,1129.0,feet,OK,0.1,mm/hr,OK,1620.0,meters,OK,1960.0,meters,OK,1535.0,meters,OK
2025-01-26T19:52:27.223142,14.7,knots,OK,1.0,degrees,OK,10.2,knots,OK,21.5,°C,OK,18.6,°C,OK,1013.1,hPa,OK,5483.0,meters,OK,2902.0,feet,OK,0.1,mm/hr,OK,1827.0,meters,OK,1635.0,meters,OK,1679.0,meters,OK
2025-01-26T19:52:28.227520,9.3,knots,OK,259.0,degrees,OK,10.6,knots,OK,24.6,°C,OK,18.5,°C,OK,1013.4,hPa,OK,8020.0,meters,OK,2208.0,feet,OK,0.1,mm/hr,OK,1634.0,meters,OK,1720.0,meters,OK,1615.0,meters,OK
2025-01-26T19:52:29.231815,11.0,knots,OK,332.0,degrees,OK,18.0,knots,OK,19.4,°C,OK,14.0,°C,OK,1014.9,hPa,OK,5654.0,meters,OK,2085.0,feet,OK,0.3,mm/hr,OK,1750.0,meters,OK,1964.0,meters,OK,1758.0,meters,OK
2025-01-26T19:52:30.237037,13.5,knots,OK,158.0,degrees,OK,16.2,knots,OK,22.1,°C,OK,12.2,°C,OK,1014.9,hPa,OK,9177.0,meters,OK,1651.0,feet,OK,0.5,mm/hr,OK,1824.0,meters,OK,1993.0,meters,OK,1896.0,meters,OK
2025-01-26T19:52:31.241045,6.6,knots,OK,34.0,degrees,OK,12.9,knots,OK,24.0,°C,OK,19.1,°C,OK,1013.5,hPa,OK,7043.0,meters,OK,1826.0,feet,OK,0.2,mm/hr,OK,1711.0,meters,OK,1540.0,meters,OK,1755.0,meters,OK
2025-01-26T19:52:32.244621,5.1,knots,OK,346.0,degrees,OK,19.2,knots,OK,22.3,°C,OK,19.8,°C,OK,1014.0,hPa,OK,8673.0,meters,OK,1020.0,feet,OK,0.2,mm/hr,OK,1950.0,meters,OK,1769.0,meters,OK,1733.0,meters,OK
2025-01-26T19:52:33.249001,9.9,knots,OK,308.0,degrees,OK,15.0,knots,OK,20.9,°C,OK,17.1,°C,OK,1014.8,hPa,OK,7598.0,meters,OK,2715.0,feet,OK,0.4,mm/hr,OK,1579.0,meters,OK,1959.0,meters,OK,1958.0,meters,OK
2025-01-26T19:52:34.253097,12.1,knots,OK,293.0,degrees,OK,16.1,knots,OK,15.3,°C,OK,18.3,°C,OK,1014.8,hPa,OK,5326.0,meters,OK,1701.0,feet,OK,0.4,mm/hr,OK,1879.0,meters,OK,1576.0,meters,OK,1905.0,meters,OK
2025-01-26T19:52:35.257873,9.6,knots,OK,124.0,degrees,OK,22.3,knots,OK,24.2,°C,OK,15.5,°C,OK,1014.3,hPa,OK,9221.0,meters,OK,2200.0,feet,OK,0.1,mm/hr,OK,1636.0,meters,OK,1964.0,meters,OK,1675.0,meters,OK
2025-01-26T19:52:36.263534,7.2,knots,OK,85.0,degrees,OK,15.9,knots,OK,19.4,°C,OK,12.4,°C,OK,1014.8,hPa,OK,7736.0,meters,OK,1828.0,feet,OK,0.2,mm/hr,OK,1912.0,meters,OK,1635.0,meters,OK,1849.0,meters,OK
2025-01-26T19:52:37.267959,8.5,knots,OK,48.0,degrees,OK,15.0,knots,OK,20.2,°C,OK,10.4,°C,OK,1014.1,hPa,OK,9606.0,meters,OK,2090.0,feet,OK,0.4,mm/hr,OK,1947.0,meters,OK,1895.0,meters,OK,1870.0,meters,OK
2025-01-26T19:52:38.272642,12.7,knots,OK,135.0,degrees,OK,16.0,knots,OK,18.4,°C,OK,13.5,°C,OK,1013.6,hPa,OK,5804.0,meters,OK,2469.0,feet,OK,0.1,mm/hr,OK,1788.0,meters,OK,1768.0,meters,OK,1832.0,meters,OK
2025-01-26T19:52:39.277177,13.3,knots,OK,343.0,degrees,OK,11.5,knots,OK,17.1,°C,OK,16.6,°C,OK,1013.9,hPa,OK,7964.0,meters,OK,2631.0,feet,OK,0.4,mm/hr,OK,1900.0,meters,OK,1580.0,meters,OK,1536.0,meters,OK
2025-01-26T19:52:40.281934,9.5,knots,OK,226.0,degrees,OK,23.5,knots,OK,21.8,°C,OK,19.4,°C,OK,1014.1,hPa,OK,8130.0,meters,OK,2349.0,feet,OK,0.3,mm/hr,OK,1627.0,meters,OK,1776.0,meters,OK,1954.0,meters,OK
2025-01-26T19:52:41.287008,13.0,knots,OK,224.0,degrees,OK,17.9,knots,OK,17.7,°C,OK,15.6,°C,OK,1013.1,hPa,OK,6493.0,meters,OK,1957.0,feet,OK,0.3,mm/hr,OK,1771.0,meters,OK,1735.0,meters,OK,1897.0,meters,OK
2025-01-26T19:52:42.291700,13.8,knots,OK,271.0,degrees,OK,21.5,knots,OK,20.5,°C,OK,11.3,°C,OK,1013.1,hPa,OK,5077.0,meters,OK,1970.0,feet,OK,0.1,mm/hr,OK,1646.0,meters,OK,1636.0,meters,OK,1745.0,meters,OK
2025-01-26T19:52:43.296845,13.2,knots,OK,240.0,degrees,OK,23.1,knots,OK,21.4,°C,OK,15.9,°C,OK,1014.3,hPa,OK,6997.0,meters,OK,2965.0,feet,OK,0.1,mm/hr,OK,1504.0,meters,OK,1884.0,meters,OK,1752.0,meters,OK
2025-01-26T19:52:44.301378,11.1,knots,OK,72.0,degrees,OK,19.1,knots,OK,21.4,°C,OK,17.4,°C,OK,1014.1,hPa,OK,6313.0,meters,OK,2481.0,feet,OK,0.3,mm/hr,OK,1845.0,meters,OK,1731.0,meters,OK,1886.0,meters,OK
2025-01-26T19:52:45.305202,14.2,knots,OK,84.0,degrees,OK,24.7,knots,OK,15.6,°C,OK,15.7,°C,OK,1013.8,hPa,OK,9343.0,meters,OK,2146.0,feet,OK,0.4,mm/hr,OK,1580.0,meters,OK,1637.0,meters,OK,1625.0,meters,OK
2025-01-26T19:52:46.309723,6.3,knots,OK,185.0,degrees,OK,18.1,knots,OK,18.9,°C,OK,18.9,°C,OK,1014.6,hPa,OK,6401.0,meters,OK,1801.0,feet,OK,0.3,mm/hr,OK,1593.0,meters,OK,1840.0,meters,OK,1926.0,meters,OK
2025-01-26T19:52:47.315016,5.3,knots,OK,67.0,degrees,OK,18.7,knots,OK,17.9,°C,OK,16.5,°C,OK,1013.5,hPa,OK,5339.0,meters,OK,2203.0,feet,OK,0.4,mm/hr,OK,1845.0,meters,OK,1635.0,meters,OK,1584.0,meters,OK
2025-01-26T19:52:48.320213,12.2,knots,OK,259.0,degrees,OK,17.1,knots,OK,22.7,°C,OK,16.5,°C,OK,1013.8,hPa,OK,5643.0,meters,OK,2135.0,feet,OK,0.5,mm/hr,OK,1899.0,meters,OK,1521.0,meters,OK,1761.0,meters,OK
2025-01-26T19:52:49.324955,8.2,knots,OK,16.0,degrees,OK,19.2,knots,OK,16.5,°C,OK,17.4,°C,OK,1014.7,hPa,OK,9215.0,meters,OK,2682.0,feet,OK,0.1,mm/hr,OK,1580.0,meters,OK,1913.0,meters,OK,1816.0,meters,OK
2025-01-26T19:52:50.329230,10.2,knots,OK,282.0,degrees,OK,12.2,knots,OK,18.5,°C,OK,12.9,°C,OK,1013.0,hPa,OK,8355.0,meters,OK,1459.0,feet,OK,0.1,mm/hr,OK,1735.0,meters,OK,1914.0,meters,OK,1926.0,meters,OK
2025-01-26T19:52:51.333642,13.6,knots,OK,353.0,degrees,OK,18.6,knots,OK,16.6,°C,OK,17.9,°C,OK,1013.9,hPa,OK,9037.0,meters,OK,1537.0,feet,OK,0.4,mm/hr,OK,1501.0,meters,OK,1593.0,meters,OK,1756.0,meters,OK
2025-01-26T19:52:52.338161,12.0,knots,OK,54.0,degrees,OK,16.5,knots,OK,16.3,°C,OK,14.0,°C,OK,1013.3,hPa,OK,6507.0,meters,OK,2178.0,feet,OK,0.3,mm/hr,OK,1972.0,meters,OK,1946.0,meters,OK,1816.0,meters,OK
2025-01-26T19:52:53.342962,14.0,knots,OK,166.0,degrees,OK,21.5,knots,OK,17.1,°C,OK,15.9,°C,OK,1014.7,hPa,OK,8116.0,meters,OK,2443.0,feet,OK,0.4,mm/hr,OK,1525.0,meters,OK,1985.0,meters,OK,1943.0,meters,OK
2025-01-26T19:52:54.347932,13.9,knots,OK,254.0,degrees,OK,21.9,knots,OK,21.0,°C,OK,13.7,°C,OK,1014.1,hPa,OK,9765.0,meters,OK,1424.0,feet,OK,0.4,mm/hr,OK,1597.0,meters,OK,1560.0,meters,OK,1618.0,meters,OK
2025-01-26T19:52:55.352596,12.4,knots,OK,180.0,degrees,OK,19.4,knots,OK,16.9,°C,OK,17.4,°C,OK,1013.9,hPa,OK,6679.0,meters,OK,2368.0,feet,OK,0.0,mm/hr,OK,1782.0,meters,OK,1507.0,meters,OK,1618.0,meters,OK
2025-01-26T19:52:56.357172,5.6,knots,OK,75.0,degrees,OK,18.7,knots,OK,20.1,°C,OK,13.8,°C,OK,1014.5,hPa,OK,7163.0,meters,OK,2848.0,feet,OK,0.2,mm/hr,OK,1635.0,meters,OK,1833.0,meters,OK,1513.0,meters,OK
2025-01-26T19:52:57.361882,14.5,knots,OK,125.0,degrees,OK,11.8,knots,OK,18.2,°C,OK,11.0,°C,OK,1014.1,hPa,OK,6528.0,meters,OK,1526.0,feet,OK,0.0,mm/hr,OK,1961.0,meters,OK,1515.0,meters,OK,1686.0,meters,OK
2025-01-26T19:52:58.366061,9.1,knots,OK,122.0,degrees,OK,14.3,knots,OK,17.2,°C,OK,19.2,°C,OK,1014.4,hPa,OK,5803.0,meters,OK,1954.0,feet,OK,0.3,mm/hr,OK,1931.0,meters,OK,1576.0,meters,OK,1793.0,meters,OK
2025-01-26T19:52:59.370593,5.8,knots,OK,122.0,degrees,OK,12.8,knots,OK,16.0,°C,OK,10.6,°C,OK,1013.8,hPa,OK,7400.0,meters,OK,2103.0,feet,OK,0.4,mm/hr,OK,1572.0,meters,OK,1820.0,meters,OK,1758.0,meters,OK
2025-01-26T19:53:00.376128,13.2,knots,OK,139.0,degrees,OK,15.5,knots,OK,20.9,°C,OK,10.1,°C,OK,1014.4,hPa,OK,9771.0,meters,OK,2003.0,feet,OK,0.2,mm/hr,OK,1678.0,meters,OK,1915.0,meters,OK,1689.0,meters,OK
2025-01-26T19:53:01.380671,11.6,knots,OK,152.0,degrees,OK,14.0,knots,OK,22.2,°C,OK,11.2,°C,OK,1013.1,hPa,OK,5066.0,meters,OK,1101.0,feet,OK,0.3,mm/hr,OK,1619.0,meters,OK,1986.0,meters,OK,1837.0,meters,OK
2025-01-26T19:53:02.385442,9.0,knots,OK,243.0,degrees,OK,24.9,knots,OK,21.9,°C,OK,17.2,°C,OK,1013.9,hPa,OK,8314.0,meters,OK,1149.0,feet,OK,0.3,mm/hr,OK,1577.0,meters,OK,1824.0,meters,OK,1868.0,meters,OK
2025-01-26T19:53:03.389153,5.1,knots,OK,297.0,degrees,OK,23.8,knots,OK,24.5,°C,OK,16.0,°C,OK,1014.5,hPa,OK,9882.0,meters,OK,2630.0,feet,OK,0.1,mm/hr,OK,1865.0,meters,OK,1899.0,meters,OK,1560.0,meters,OK
2025-01-26T19:53:04.392854,13.8,knots,OK,240.0,degrees,OK,16.1,knots,OK,15.6,°C,OK,12.5,°C,OK,1013.6,hPa,OK,8323.0,meters,OK,2055.0,feet,OK,0.4,mm/hr,OK,1688.0,meters,OK,1515.0,meters,OK,1718.0,meters,OK
2025-01-26T19:53:05.397236,11.3,knots,OK,101.0,degrees,OK,10.9,knots,OK,21.4,°C,OK,15.6,°C,OK,1013.6,hPa,OK,8526.0,meters,OK,1747.0,feet,OK,0.1,mm/hr,OK,1769.0,meters,OK,1687.0,meters,OK,1770.0,meters,OK
2025-01-26T19:53:06.401969,8.9,knots,OK,292.0,degrees,OK,17.9,knots,OK,17.6,°C,OK,11.8,°C,OK,1013.1,hPa,OK,9254.0,meters,OK,1326.0,feet,OK,0.4,mm/hr,OK,1829.0,meters,OK,1977.0,meters,OK,1698.0,meters,OK
2025-01-26T19:53:07.406978,10.0,knots,OK,70.0,degrees,OK,20.7,knots,OK,17.4,°C,OK,10.3,°C,OK,1014.8,hPa,OK,9489.0,meters,OK,2121.0,feet,OK,0.4,mm/hr,OK,1854.0,meters,OK,1986.0,meters,OK,1527.0,meters,OK
2025-01-26T19:53:08.412250,12.6,knots,OK,314.0,degrees,OK,17.6,knots,OK,16.5,°C,OK,10.4,°C,OK,1013.9,hPa,OK,6875.0,meters,OK,1686.0,feet,OK,0.1,mm/hr,OK,1924.0,meters,OK,1725.0,meters,OK,1707.0,meters,OK
2025-01-26T19:53:09.416393,10.9,knots,OK,262.0,degrees,OK,20.9,knots,OK,18.2,°C,OK,10.1,°C,OK,1013.7,hPa,OK,7020.0,meters,OK,1720.0,feet,OK,0.1,mm/hr,OK,1541.0,meters,OK,1672.0,meters,OK,1542.0,meters,OK
2025-01-26T19:53:10.421082,9.2,knots,OK,247.0,degrees,OK,20.3,knots,OK,22.1,°C,OK,18.9,°C,OK,1014.5,hPa,OK,8856.0,meters,OK,2103.0,feet,OK,0.1,mm/hr,OK,1995.0,meters,OK,1521.0,meters,OK,1866.0,meters,OK
2025-01-26T19:53:11.425801,12.5,knots,OK,94.0,degrees,OK,21.5,knots,OK,15.3,°C,OK,15.6,°C,OK,1014.1,hPa,OK,8041.0,meters,OK,1707.0,feet,OK,0.2,mm/hr,OK,1875.0,meters,OK,1508.0,meters,OK,1853.0,meters,OK
2025-01-26T19:53:12.429848,10.9,knots,OK,18.0,degrees,OK,13.3,knots,OK,15.1,°C,OK,17.9,°C,OK,1013.7,hPa,OK,6254.0,meters,OK,2415.0,feet,OK,0.4,mm/hr,OK,1631.0,meters,OK,1524.0,meters,OK,1562.0,meters,OK
2025-01-26T19:53:13.434782,8.1,knots,OK,166.0,degrees,OK,15.8,knots,OK,15.4,°C,OK,16.1,°C,OK,1014.3,hPa,OK,7736.0,meters,OK,2519.0,feet,OK,0.2,mm/hr,OK,1764.0,meters,OK,1770.0,meters,OK,1929.0,meters,OK
2025-01-26T19:53:14.439375,11.9,knots,OK,347.0,degrees,OK,17.7,knots,OK,16.7,°C,OK,14.5,°C,OK,1014.6,hPa,OK,7404.0,meters,OK,2285.0,feet,OK,0.3,mm/hr,OK,1896.0,meters,OK,1545.0,meters,OK,1550.0,meters,OK
2025-01-26T19:53:15.443736,8.2,knots,OK,313.0,degrees,OK,23.5,knots,OK,20.0,°C,OK,14.9,°C,OK,1015.0,hPa,OK,6468.0,meters,OK,2812.0,feet,OK,0.2,mm/hr,OK,1831.0,meters,OK,1713.0,meters,OK,1675.0,meters,OK
2025-01-26T19:53:16.447752,9.5,knots,OK,234.0,degrees,OK,15.7,knots,OK,22.0,°C,OK,16.5,°C,OK,1014.3,hPa,OK,9088.0,meters,OK,1266.0,feet,OK,0.4,mm/hr,OK,1635.0,meters,OK,1957.0,meters,OK,1515.0,meters,OK
2025-01-26T19:53:17.451779,12.1,knots,OK,280.0,degrees,OK,14.2,knots,OK,24.1,°C,OK,15.5,°C,OK,1013.8,hPa,OK,5368.0,meters,OK,2458.0,feet,OK,0.4,mm/hr,OK,1817.0,meters,OK,1534.0,meters,OK,1951.0,meters,OK
2025-01-26T19:53:18.456508,14.7,knots,OK,182.0,degrees,OK,19.1,knots,OK,15.7,°C,OK,17.2,°C,OK,1013.9,hPa,OK,5487.0,meters,OK,1481.0,feet,OK,0.1,mm/hr,OK,1634.0,meters,OK,1537.0,meters,OK,1863.0,meters,OK
2025-01-26T19:53:19.460968,13.1,knots,OK,222.0,degrees,OK,16.6,knots,OK,21.5,°C,OK,11.9,°C,OK,1015.0,hPa,OK,6531.0,meters,OK,2535.0,feet,OK,0.3,mm/hr,OK,1753.0,meters,OK,1980.0,meters,OK,1730.0,meters,OK
2025-01-26T19:53:20.465901,12.6,knots,OK,221.0,degrees,OK,19.3,knots,OK,19.9,°C,OK,13.0,°C,OK,1015.0,hPa,OK,8106.0,meters,OK,1735.0,feet,OK,0.1,mm/hr,OK,1554.0,meters,OK,1613.0,meters,OK,1978.0,meters,OK
2025-01-26T19:53:21.471094,13.2,knots,OK,117.0,degrees,OK,10.9,knots,OK,23.2,°C,OK,16.6,°C,OK,1014.6,hPa,OK,9481.0,meters,OK,2161.0,feet,OK,0.4,mm/hr,OK,1531.0,meters,OK,1988.0,meters,OK,1992.0,meters,OK
2025-01-26T19:53:22.475392,7.5,knots,OK,233.0,degrees,OK,12.0,knots,OK,16.2,°C,OK,18.3,°C,OK,1013.5,hPa,OK,8983.0,meters,OK,1988.0,feet,OK,0.4,mm/hr,OK,1792.0,meters,OK,1806.0,meters,OK,1680.0,meters,OK
2025-01-26T19:53:23.478926,5.7,knots,OK,306.0,degrees,OK,24.6,knots,OK,22.0,°C,OK,14.7,°C,OK,1014.8,hPa,OK,5205.0,meters,OK,1291.0,feet,OK,0.5,mm/hr,OK,1852.0,meters,OK,1599.0,meters,OK,1856.0,meters,OK
2025-01-26T19:53:24.483301,8.3,knots,OK,201.0,degrees,OK,24.9,knots,OK,20.3,°C,OK,17.9,°C,OK,1013.9,hPa,OK,7505.0,meters,OK,1629.0,feet,OK,0.0,mm/hr,OK,1662.0,meters,OK,1553.0,meters,OK,1876.0,meters,OK
2025-01-26T19:53:25.488676,7.6,knots,OK,337.0,degrees,OK,17.7,knots,OK,20.5,°C,OK,14.2,°C,OK,1014.5,hPa,OK,7611.0,meters,OK,2717.0,feet,OK,0.5,mm/hr,OK,1539.0,meters,OK,1765.0,meters,OK,1736.0,meters,OK
2025-01-26T19:53:26.493721,14.7,knots,OK,170.0,degrees,OK,21.9,knots,OK,20.1,°C,OK,15.9,°C,OK,1013.9,hPa,OK,7457.0,meters,OK,1224.0,feet,OK,0.4,mm/hr,OK,1978.0,meters,OK,1649.0,meters,OK,1778.0,meters,OK
2025-01-26T19:53:27.498704,10.8,knots,OK,98.0,degrees,OK,21.4,knots,OK,15.6,°C,OK,15.9,°C,OK,1013.4,hPa,OK,9722.0,meters,OK,2612.0,feet,OK,0.3,mm/hr,OK,1644.0,meters,OK,1953.0,meters,OK,1977.0,meters,OK
2025-01-26T19:53:28.502900,11.6,knots,OK,51.0,degrees,OK,19.3,knots,OK,19.5,°C,OK,14.0,°C,OK,1014.6,hPa,OK,7649.0,meters,OK,2847.0,feet,OK,0.3,mm/hr,OK,1959.0,meters,OK,1891.0,meters,OK,1768.0,meters,OK
2025-01-26T19:53:29.506491,8.8,knots,OK,322.0,degrees,OK,21.6,knots,OK,17.1,°C,OK,19.1,°C,OK,1013.7,hPa,OK,9901.0,meters,OK,2798.0,feet,OK,0.1,mm/hr,OK,1517.0,meters,OK,1876.0,meters,OK,1800.0,meters,OK
2025-01-26T19:53:30.511430,14.6,knots,OK,2.0,degrees,OK,23.7,knots,OK,17.4,°C,OK,19.0,°C,OK,1013.6,hPa,OK,7552.0,meters,OK,1812.0,feet,OK,0.1,mm/hr,OK,1627.0,meters,OK,1783.0,meters,OK,1857.0,meters,OK
2025-01-26T19:53:31.516125,10.3,knots,OK,135.0,degrees,OK,18.8,knots,OK,20.8,°C,OK,12.8,°C,OK,1014.9,hPa,OK,7816.0,meters,OK,2817.0,feet,OK,0.5,mm/hr,OK,1520.0,meters,OK,1794.0,meters,OK,1722.0,meters,OK
2025-01-26T19:53:32.520657,15.0,knots,OK,294.0,degrees,OK,24.4,knots,OK,22.6,°C,OK,13.0,°C,OK,1013.5,hPa,OK,7121.0,meters,OK,1812.0,feet,OK,0.2,mm/hr,OK,1833.0,meters,OK,1751.0,meters,OK,1787.0,meters,OK
2025-01-26T19:53:33.525976,6.5,knots,OK,323.0,degrees,OK,24.5,knots,OK,18.5,°C,OK,16.6,°C,OK,1014.5,hPa,OK,8653.0,meters,OK,1997.0,feet,OK,0.0,mm/hr,OK,1688.0,meters,OK,1840.0,meters,OK,1504.0,meters,OK
2025-01-26T19:53:34.529855,9.3,knots,OK,102.0,degrees,OK,14.9,knots,OK,18.3,°C,OK,15.4,°C,OK,1015.0,hPa,OK,9013.0,meters,OK,1722.0,feet,OK,0.3,mm/hr,OK,1872.0,meters,OK,1945.0,meters,OK,1796.0,meters,OK
2025-01-26T19:53:35.534126,5.3,knots,OK,64.0,degrees,OK,15.6,knots,OK,24.7,°C,OK,15.2,°C,OK,1014.6,hPa,OK,6278.0,meters,OK,2104.0,feet,OK,0.4,mm/hr,OK,1648.0,meters,OK,1776.0,meters,OK,1672.0,meters,OK
2025-01-26T19:53:36.538309,9.8,knots,OK,352.0,degrees,OK,17.6,knots,OK,17.5,°C,OK,16.4,°C,OK,1014.0,hPa,OK,8469.0,meters,OK,2735.0,feet,OK,0.2,mm/hr,OK,1668.0,meters,OK,1947.0,meters,OK,1719.0,meters,OK
2025-01-26T19:53:37.542527,6.6,knots,OK,0.0,degrees,OK,14.1,knots,OK,19.8,°C,OK,12.0,°C,OK,1014.2,hPa,OK,8367.0,meters,OK,2722.0,feet,OK,0.3,mm/hr,OK,1718.0,meters,OK,1880.0,meters,OK,1715.0,meters,OK
2025-01-26T19:53:38.547314,5.3,knots,OK,262.0,degrees,OK,14.1,knots,OK,19.3,°C,OK,12.0,°C,OK,1013.1,hPa,OK,5691.0,meters,OK,1490.0,feet,OK,0.2,mm/hr,OK,1658.0,meters,OK,1557.0,meters,OK,1609.0,meters,OK
2025-01-26T19:53:39.552092,10.3,knots,OK,88.0,degrees,OK,19.1,knots,OK,23.8,°C,OK,17.1,°C,OK,1013.9,hPa,OK,6322.0,meters,OK,2219.0,feet,OK,0.3,mm/hr,OK,1777.0,meters,OK,1616.0,meters,OK,1525.0,meters,OK
2025-01-26T19:53:40.557047,8.9,knots,OK,279.0,degrees,OK,15.8,knots,OK,23.3,°C,OK,15.1,°C,OK,1014.2,hPa,OK,6893.0,meters,OK,2855.0,feet,OK,0.3,mm/hr,OK,1625.0,meters,OK,1616.0,meters,OK,1735.0,meters,OK
2025-01-26T19:53:41.561164,7.4,knots,OK,180.0,degrees,OK,19.3,knots,OK,20.2,°C,OK,14.3,°C,OK,1014.3,hPa,OK,6403.0,meters,OK,1967.0,feet,OK,0.3,mm/hr,OK,1525.0,meters,OK,1604.0,meters,OK,1728.0,meters,OK
2025-01-26T19:53:42.565379,13.8,knots,OK,207.0,degrees,OK,15.5,knots,OK,20.8,°C,OK,15.7,°C,OK,1014.5,hPa,OK,7414.0,meters,OK,1622.0,feet,OK,0.4,mm/hr,OK,1550.0,meters,OK,1706.0,meters,OK,1981.0,meters,OK
2025-01-26T19:53:43.569545,8.7,knots,OK,327.0,degrees,OK,16.4,knots,OK,16.7,°C,OK,19.9,°C,OK,1013.1,hPa,OK,6583.0,meters,OK,2631.0,feet,OK,0.1,mm/hr,OK,1942.0,meters,OK,1832.0,meters,OK,1837.0,meters,OK
2025-01-26T19:53:44.575123,13.9,knots,OK,242.0,degrees,OK,17.5,knots,OK,18.9,°C,OK,16.1,°C,OK,1013.9,hPa,OK,8435.0,meters,OK,1766.0,feet,OK,0.3,mm/hr,OK,1704.0,meters,OK,1722.0,meters,OK,1863.0,meters,OK
2025-01-26T19:53:45.580172,6.5,knots,OK,58.0,degrees,OK,19.5,knots,OK,19.0,°C,OK,11.0,°C,OK,1013.4,hPa,OK,5461.0,meters,OK,1656.0,feet,OK,0.3,mm/hr,OK,1634.0,meters,OK,1626.0,meters,OK,1533.0,meters,OK
2025-01-26T19:53:46.584951,6.1,knots,OK,138.0,degrees,OK,11.9,knots,OK,20.4,°C,OK,12.3,°C,OK,1013.5,hPa,OK,5836.0,meters,OK,2097.0,feet,OK,0.3,mm/hr,OK,1695.0,meters,OK,1679.0,meters,OK,1630.0,meters,OK
2025-01-26T19:53:47.588907,6.3,knots,OK,302.0,degrees,OK,14.8,knots,OK,22.8,°C,OK,19.7,°C,OK,1013.8,hPa,OK,9387.0,meters,OK,2217.0,feet,OK,0.3,mm/hr,OK,1870.0,meters,OK,1916.0,meters,OK,1705.0,meters,OK
2025-01-26T19:53:48.593684,8.5,knots,OK,271.0,degrees,OK,24.6,knots,OK,17.0,°C,OK,10.6,°C,OK,1014.0,hPa,OK,8136.0,meters,OK,1099.0,feet,OK,0.0,mm/hr,OK,1829.0,meters,OK,1512.0,meters,OK,1526.0,meters,OK
2025-01-26T19:53:49.597897,9.3,knots,OK,271.0,degrees,OK,16.4,knots,OK,17.2,°C,OK,11.6,°C,OK,1013.8,hPa,OK,5776.0,meters,OK,2467.0,feet,OK,0.4,mm/hr,OK,1687.0,meters,OK,1987.0,meters,OK,1730.0,meters,OK
2025-01-26T19:53:50.602615,14.8,knots,OK,99.0,degrees,OK,16.6,knots,OK,24.9,°C,OK,14.9,°C,OK,1014.2,hPa,OK,9200.0,meters,OK,2740.0,feet,OK,0.4,mm/hr,OK,1882.0,meters,OK,1777.0,meters,OK,1580.0,meters,OK
2025-01-26T19:53:51.608388,5.8,knots,OK,98.0,degrees,OK,21.6,knots,OK,16.4,°C,OK,16.9,°C,OK,1014.2,hPa,OK,5594.0,meters,OK,1013.0,feet,OK,0.5,mm/hr,OK,1885.0,meters,OK,1715.0,meters,OK,1928.0,meters,OK
2025-01-26T19:53:52.613837,14.1,knots,OK,165.0,degrees,OK,18.6,knots,OK,15.8,°C,OK,13.0,°C,OK,1014.9,hPa,OK,7875.0,meters,OK,2051.0,feet,OK,0.2,mm/hr,OK,1585.0,meters,OK,1926.0,meters,OK,1939.0,meters,OK
2025-01-26T19:53:53.617802,8.8,knots,OK,30.0,degrees,OK,13.1,knots,OK,19.0,°C,OK,15.5,°C,OK,1013.6,hPa,OK,7945.0,meters,OK,2312.0,feet,OK,0.3,mm/hr,OK,1934.0,meters,OK,1516.0,meters,OK,1704.0,meters,OK
2025-01-26T19:53:54.621368,14.5,knots,OK,205.0,degrees,OK,11.3,knots,OK,17.3,°C,OK,10.1,°C,OK,1013.5,hPa,OK,8424.0,meters,OK,1421.0,feet,OK,0.3,mm/hr,OK,1655.0,meters,OK,1543.0,meters,OK,1578.0,meters,OK
2025-01-26T19:53:55.625931,12.6,knots,OK,156.0,degrees,OK,23.8,knots,OK,23.9,°C,OK,14.7,°C,OK,1014.1,hPa,OK,5096.0,meters,OK,1830.0,feet,OK,0.4,mm/hr,OK,1691.0,meters,OK,1584.0,meters,OK,1920.0,meters,OK
2025-01-26T19:53:56.630263,6.1,knots,OK,249.0,degrees,OK,21.9,knots,OK,18.9,°C,OK,15.2,°C,OK,1013.6,hPa,OK,5446.0,meters,OK,2345.0,feet,OK,0.4,mm/hr,OK,1642.0,meters,OK,1904.0,meters,OK,1706.0,meters,OK
2025-01-26T19:53:57.635245,5.1,knots,OK,75.0,degrees,OK,16.5,knots,OK,18.0,°C,OK,18.4,°C,OK,1013.9,hPa,OK,6474.0,meters,OK,2917.0,feet,OK,0.1,mm/hr,OK,1870.0,meters,OK,1677.0,meters,OK,1922.0,meters,OK
2025-01-26T19:53:58.640092,14.3,knots,OK,345.0,degrees,OK,14.8,knots,OK,20.8,°C,OK,18.5,°C,OK,1014.1,hPa,OK,9414.0,meters,OK,2267.0,feet,OK,0.2,mm/hr,OK,1810.0,meters,OK,1599.0,meters,OK,1502.0,meters,OK
2025-01-26T19:53:59.644602,10.0,knots,OK,64.0,degrees,OK,23.1,knots,OK,18.2,°C,OK,15.4,°C,OK,1014.7,hPa,OK,6550.0,meters,OK,2045.0,feet,OK,0.3,mm/hr,OK,1660.0,meters,OK,1689.0,meters,OK,1834.0,meters,OK
2025-01-26T19:54:00.648947,11.0,knots,OK,183.0,degrees,OK,21.3,knots,OK,17.0,°C,OK,19.8,°C,OK,1013.7,hPa,OK,6197.0,meters,OK,1356.0,feet,OK,0.3,mm/hr,OK,1599.0,meters,OK,1959.0,meters,OK,1722.0,meters,OK
2025-01-26T19:54:01.653258,12.5,knots,OK,135.0,degrees,OK,17.4,knots,OK,17.2,°C,OK,16.3,°C,OK,1014.5,hPa,OK,6927.0,meters,OK,2855.0,feet,OK,0.5,mm/hr,OK,1984.0,meters,OK,1764.0,meters,OK,1570.0,meters,OK
2025-01-26T19:54:02.658029,10.2,knots,OK,24.0,degrees,OK,19.5,knots,OK,23.4,°C,OK,18.9,°C,OK,1013.7,hPa,OK,6547.0,meters,OK,2759.0,feet,OK,0.2,mm/hr,OK,1901.0,meters,OK,1925.0,meters,OK,1947.0,meters,OK
2025-01-26T19:54:03.663111,13.7,knots,OK,47.0,degrees,OK,10.3,knots,OK,15.9,°C,OK,18.9,°C,OK,1013.2,hPa,OK,7675.0,meters,OK,2276.0,feet,OK,0.3,mm/hr,OK,1528.0,meters,OK,1953.0,meters,OK,1548.0,meters,OK
2025-01-26T19:54:04.668548,9.6,knots,OK,350.0,degrees,OK,14.8,knots,OK,20.2,°C,OK,11.5,°C,OK,1015.0,hPa,OK,7021.0,meters,OK,1054.0,feet,OK,0.5,mm/hr,OK,1815.0,meters,OK,1659.0,meters,OK,1601.0,meters,OK
2025-01-26T19:54:05.674652,12.5,knots,OK,329.0,degrees,OK,14.9,knots,OK,21.7,°C,OK,17.7,°C,OK,1014.4,hPa,OK,9042.0,meters,OK,1345.0,feet,OK,0.0,mm/hr,OK,1866.0,meters,OK,1955.0,meters,OK,1781.0,meters,OK
2025-01-26T19:54:06.679380,5.1,knots,OK,43.0,degrees,OK,18.3,knots,OK,20.9,°C,OK,14.0,°C,OK,1014.3,hPa,OK,6394.0,meters,OK,2249.0,feet,OK,0.3,mm/hr,OK,1893.0,meters,OK,1818.0,meters,OK,1887.0,meters,OK
2025-01-26T19:54:07.683238,13.4,knots,OK,261.0,degrees,OK,19.3,knots,OK,19.4,°C,OK,14.5,°C,OK,1014.9,hPa,OK,9389.0,meters,OK,1923.0,feet,OK,0.4,mm/hr,OK,1847.0,meters,OK,1745.0,meters,OK,1942.0,meters,OK
2025-01-26T19:54:08.687934,8.0,knots,OK,295.0,degrees,OK,22.2,knots,OK,19.8,°C,OK,11.5,°C,OK,1013.6,hPa,OK,8184.0,meters,OK,1285.0,feet,OK,0.2,mm/hr,OK,1810.0,meters,OK,1780.0,meters,OK,1672.0,meters,OK
2025-01-26T19:54:09.691667,10.1,knots,OK,112.0,degrees,OK,20.1,knots,OK,17.0,°C,OK,18.0,°C,OK,1013.2,hPa,OK,5412.0,meters,OK,2827.0,feet,OK,0.3,mm/hr,OK,1737.0,meters,OK,1868.0,meters,OK,1618.0,meters,OK
2025-01-26T19:54:10.696628,14.9,knots,OK,44.0,degrees,OK,18.4,knots,OK,19.5,°C,OK,14.5,°C,OK,1014.4,hPa,OK,5591.0,meters,OK,2138.0,feet,OK,0.5,mm/hr,OK,1864.0,meters,OK,1556.0,meters,OK,1750.0,meters,OK
2025-01-26T19:54:11.701188,13.0,knots,OK,157.0,degrees,OK,23.5,knots,OK,22.4,°C,OK,19.0,°C,OK,1014.3,hPa,OK,9035.0,meters,OK,1565.0,feet,OK,0.4,mm/hr,OK,1713.0,meters,OK,1562.0,meters,OK,1753.0,meters,OK
2025-01-26T19:54:12.706228,14.1,knots,OK,239.0,degrees,OK,20.5,knots,OK,19.0,°C,OK,12.3,°C,OK,1013.3,hPa,OK,5288.0,meters,OK,1504.0,feet,OK,0.4,mm/hr,OK,1641.0,meters,OK,1734.0,meters,OK,1946.0,meters,OK
2025-01-26T19:54:13.710353,10.5,knots,OK,299.0,degrees,OK,21.1,knots,OK,22.3,°C,OK,19.9,°C,OK,1013.7,hPa,OK,9033.0,meters,OK,2543.0,feet,OK,0.4,mm/hr,OK,1640.0,meters,OK,1642.0,meters,OK,1887.0,meters,OK
2025-01-26T19:54:14.714314,14.1,knots,OK,340.0,degrees,OK,14.7,knots,OK,17.8,°C,OK,11.7,°C,OK,1014.0,hPa,OK,7519.0,meters,OK,2701.0,feet,OK,0.4,mm/hr,OK,1581.0,meters,OK,1670.0,meters,OK,1931.0,meters,OK
2025-01-26T19:54:15.719462,13.3,knots,OK,71.0,degrees,OK,12.5,knots,OK,19.4,°C,OK,16.4,°C,OK,1014.5,hPa,OK,9660.0,meters,OK,2385.0,feet,OK,0.4,mm/hr,OK,1623.0,meters,OK,1706.0,meters,OK,1551.0,meters,OK
2025-01-26T19:54:16.724250,14.4,knots,OK,155.0,degrees,OK,24.9,knots,OK,20.0,°C,OK,12.4,°C,OK,1014.8,hPa,OK,9124.0,meters,OK,1948.0,feet,OK,0.3,mm/hr,OK,1596.0,meters,OK,1953.0,meters,OK,1628.0,meters,OK
2025-01-26T19:54:17.729182,6.2,knots,OK,243.0,degrees,OK,10.1,knots,OK,20.1,°C,OK,18.2,°C,OK,1013.8,hPa,OK,9587.0,meters,OK,2567.0,feet,OK,0.2,mm/hr,OK,1522.0,meters,OK,1782.0,meters,OK,1821.0,meters,OK
2025-01-26T19:54:18.734275,8.5,knots,OK,263.0,degrees,OK,14.9,knots,OK,15.5,°C,OK,10.1,°C,OK,1014.2,hPa,OK,6452.0,meters,OK,2407.0,feet,OK,0.2,mm/hr,OK,1998.0,meters,OK,1771.0,meters,OK,1898.0,meters,OK
2025-01-26T19:54:19.738334,12.5,knots,OK,210.0,degrees,OK,13.5,knots,OK,21.2,°C,OK,17.5,°C,OK,1013.1,hPa,OK,5672.0,meters,OK,1249.0,feet,OK,0.3,mm/hr,OK,1696.0,meters,OK,1745.0,meters,OK,1608.0,meters,OK
2025-01-26T19:54:20.743070,12.8,knots,OK,203.0,degrees,OK,24.8,knots,OK,23.3,°C,OK,11.0,°C,OK,1014.5,hPa,OK,8919.0,meters,OK,1542.0,feet,OK,0.2,mm/hr,OK,1929.0,meters,OK,1565.0,meters,OK,1693.0,meters,OK
2025-01-26T19:54:21.748420,12.6,knots,OK,272.0,degrees,OK,17.7,knots,OK,19.8,°C,OK,13.5,°C,OK,1014.3,hPa,OK,9292.0,meters,OK,1267.0,feet,OK,0.3,mm/hr,OK,1903.0,meters,OK,1933.0,meters,OK,1946.0,meters,OK
2025-01-26T19:54:22.753227,5.5,knots,OK,153.0,degrees,OK,19.1,knots,OK,23.3,°C,OK,18.7,°C,OK,1013.8,hPa,OK,8407.0,meters,OK,1177.0,feet,OK,0.2,mm/hr,OK,1718.0,meters,OK,1738.0,meters,OK,1705.0,meters,OK
2025-01-26T19:54:23.757913,9.0,knots,OK,234.0,degrees,OK,15.8,knots,OK,17.2,°C,OK,10.7,°C,OK,1014.4,hPa,OK,5031.0,meters,OK,1845.0,feet,OK,0.3,mm/hr,OK,1814.0,meters,OK,1654.0,meters,OK,1518.0,meters,OK
2025-01-26T19:54:24.762724,10.4,knots,OK,356.0,degrees,OK,15.4,knots,OK,16.0,°C,OK,19.5,°C,OK,1013.4,hPa,OK,5602.0,meters,OK,1258.0,feet,OK,0.5,mm/hr,OK,1601.0,meters,OK,1583.0,meters,OK,1792.0,meters,OK
2025-01-26T19:54:25.767103,10.3,knots,OK,20.0,degrees,OK,13.0,knots,OK,22.7,°C,OK,16.4,°C,OK,1013.7,hPa,OK,6602.0,meters,OK,1582.0,feet,OK,0.3,mm/hr,OK,1654.0,meters,OK,1512.0,meters,OK,1738.0,meters,OK
2025-01-26T19:54:26.770401,11.8,knots,OK,158.0,degrees,OK,19.7,knots,OK,19.8,°C,OK,15.3,°C,OK,1013.0,hPa,OK,9240.0,meters,OK,1689.0,feet,OK,0.1,mm/hr,OK,1718.0,meters,OK,1915.0,meters,OK,1737.0,meters,OK
2025-01-26T19:54:27.775076,5.1,knots,OK,186.0,degrees,OK,22.4,knots,OK,22.9,°C,OK,12.1,°C,OK,1013.9,hPa,OK,6755.0,meters,OK,1607.0,feet,OK,0.2,mm/hr,OK,1619.0,meters,OK,1715.0,meters,OK,1645.0,meters,OK
2025-01-26T19:54:28.779569,13.6,knots,OK,270.0,degrees,OK,24.0,knots,OK,22.8,°C,OK,16.3,°C,OK,1013.2,hPa,OK,6161.0,meters,OK,2122.0,feet,OK,0.4,mm/hr,OK,1811.0,meters,OK,1740.0,meters,OK,1965.0,meters,OK
2025-01-26T19:54:29.784840,10.2,knots,OK,106.0,degrees,OK,17.5,knots,OK,16.8,°C,OK,17.4,°C,OK,1013.5,hPa,OK,6733.0,meters,OK,1447.0,feet,OK,0.3,mm/hr,OK,1706.0,meters,OK,1851.0,meters,OK,1766.0,meters,OK
2025-01-26T19:54:30.790134,10.6,knots,OK,104.0,degrees,OK,13.1,knots,OK,20.7,°C,OK,13.5,°C,OK,1013.8,hPa,OK,7606.0,meters,OK,1866.0,feet,OK,0.0,mm/hr,OK,1842.0,meters,OK,1734.0,meters,OK,1846.0,meters,OK
2025-01-26T19:54:31.794590,14.7,knots,OK,242.0,degrees,OK,11.4,knots,OK,23.0,°C,OK,10.5,°C,OK,1013.3,hPa,OK,5169.0,meters,OK,2994.0,feet,OK,0.2,mm/hr,OK,1661.0,meters,OK,1542.0,meters,OK,1851.0,meters,OK
2025-01-26T19:54:32.798936,13.2,knots,OK,4.0,degrees,OK,18.0,knots,OK,21.3,°C,OK,13.9,°C,OK,1013.9,hPa,OK,7852.0,meters,OK,1818.0,feet,OK,0.5,mm/hr,OK,1528.0,meters,OK,1674.0,meters,OK,1730.0,meters,OK
2025-01-26T19:54:33.803635,8.6,knots,OK,249.0,degrees,OK,15.8,knots,OK,24.4,°C,OK,18.7,°C,OK,1014.7,hPa,OK,7411.0,meters,OK,2641.0,feet,OK,0.4,mm/hr,OK,1642.0,meters,OK,1689.0,meters,OK,1534.0,meters,OK
2025-01-26T19:54:34.808247,11.6,knots,OK,152.0,degrees,OK,10.6,knots,OK,18.5,°C,OK,14.3,°C,OK,1013.9,hPa,OK,7092.0,meters,OK,2582.0,feet,OK,0.3,mm/hr,OK,1654.0,meters,OK,1714.0,meters,OK,1903.0,meters,OK
2025-01-26T19:54:35.813184,5.3,knots,OK,233.0,degrees,OK,21.8,knots,OK,21.7,°C,OK,10.4,°C,OK,1013.3,hPa,OK,8639.0,meters,OK,1988.0,feet,OK,0.1,mm/hr,OK,1994.0,meters,OK,1650.0,meters,OK,1683.0,meters,OK
2025-01-26T19:54:36.817927,5.8,knots,OK,291.0,degrees,OK,21.0,knots,OK,24.1,°C,OK,15.8,°C,OK,1014.8,hPa,OK,6343.0,meters,OK,2147.0,feet,OK,0.2,mm/hr,OK,1949.0,meters,OK,1829.0,meters,OK,1591.0,meters,OK
2025-01-26T19:54:37.822206,5.1,knots,OK,160.0,degrees,OK,14.2,knots,OK,17.7,°C,OK,19.5,°C,OK,1014.2,hPa,OK,7205.0,meters,OK,2253.0,feet,OK,0.1,mm/hr,OK,1857.0,meters,OK,1570.0,meters,OK,1840.0,meters,OK
2025-01-26T19:54:38.825497,10.3,knots,OK,316.0,degrees,OK,19.6,knots,OK,20.4,°C,OK,12.4,°C,OK,1014.4,hPa,OK,7996.0,meters,OK,1660.0,feet,OK,0.1,mm/hr,OK,1776.0,meters,OK,1960.0,meters,OK,1527.0,meters,OK
2025-01-26T19:54:39.829466,13.4,knots,OK,291.0,degrees,OK,15.9,knots,OK,22.0,°C,OK,14.4,°C,OK,1013.8,hPa,OK,5575.0,meters,OK,1575.0,feet,OK,0.3,mm/hr,OK,1959.0,meters,OK,1561.0,meters,OK,1734.0,meters,OK
2025-01-26T19:54:40.834490,13.9,knots,OK,264.0,degrees,OK,19.0,knots,OK,18.5,°C,OK,19.0,°C,OK,1014.7,hPa,OK,9942.0,meters,OK,1664.0,feet,OK,0.5,mm/hr,OK,1693.0,meters,OK,1700.0,meters,OK,1853.0,meters,OK
2025-01-26T19:54:41.839526,9.0,knots,OK,334.0,degrees,OK,19.5,knots,OK,22.0,°C,OK,17.9,°C,OK,1014.7,hPa,OK,8623.0,meters,OK,2118.0,feet,OK,0.3,mm/hr,OK,1629.0,meters,OK,1578.0,meters,OK,1913.0,meters,OK
2025-01-26T19:54:42.844132,8.6,knots,OK,115.0,degrees,OK,18.8,knots,OK,18.1,°C,OK,17.3,°C,OK,1014.1,hPa,OK,5801.0,meters,OK,1917.0,feet,OK,0.1,mm/hr,OK,1520.0,meters,OK,1999.0,meters,OK,1873.0,meters,OK
2025-01-26T19:54:43.849290,12.2,knots,OK,94.0,degrees,OK,20.8,knots,OK,24.7,°C,OK,10.6,°C,OK,1014.1,hPa,OK,8997.0,meters,OK,1255.0,feet,OK,0.4,mm/hr,OK,1848.0,meters,OK,1665.0,meters,OK,1569.0,meters,OK
2025-01-26T19:54:44.853808,5.3,knots,OK,358.0,degrees,OK,15.1,knots,OK,21.6,°C,OK,19.0,°C,OK,1014.3,hPa,OK,9182.0,meters,OK,1618.0,feet,OK,0.5,mm/hr,OK,1884.0,meters,OK,1914.0,meters,OK,1792.0,meters,OK
2025-01-26T19:54:45.858631,9.2,knots,OK,251.0,degrees,OK,17.8,knots,OK,23.1,°C,OK,12.6,°C,OK,1013.1,hPa,OK,8524.0,meters,OK,2014.0,feet,OK,0.1,mm/hr,OK,1669.0,meters,OK,1635.0,meters,OK,1588.0,meters,OK
2025-01-26T19:54:46.863912,10.4,knots,OK,328.0,degrees,OK,22.8,knots,OK,22.1,°C,OK,18.2,°C,OK,1013.1,hPa,OK,9658.0,meters,OK,2631.0,feet,OK,0.3,mm/hr,OK,1540.0,meters,OK,1819.0,meters,OK,1835.0,meters,OK
2025-01-26T19:54:47.868993,8.4,knots,OK,38.0,degrees,OK,21.4,knots,OK,17.3,°C,OK,14.3,°C,OK,1013.9,hPa,OK,7923.0,meters,OK,2099.0,feet,OK,0.2,mm/hr,OK,1586.0,meters,OK,1869.0,meters,OK,1738.0,meters,OK
2025-01-26T19:54:48.874583,14.4,knots,OK,234.0,degrees,OK,15.6,knots,OK,22.7,°C,OK,10.6,°C,OK,1013.1,hPa,OK,6837.0,meters,OK,2359.0,feet,OK,0.3,mm/hr,OK,1535.0,meters,OK,1671.0,meters,OK,1657.0,meters,OK
2025-01-26T19:54:49.879330,12.3,knots,OK,232.0,degrees,OK,17.2,knots,OK,24.7,°C,OK,11.3,°C,OK,1014.3,hPa,OK,8900.0,meters,OK,1698.0,feet,OK,0.4,mm/hr,OK,1526.0,meters,OK,1989.0,meters,OK,1825.0,meters,OK
2025-01-26T19:54:50.884193,11.3,knots,OK,192.0,degrees,OK,11.2,knots,OK,16.7,°C,OK,15.0,°C,OK,1013.1,hPa,OK,5599.0,meters,OK,1031.0,feet,OK,0.2,mm/hr,OK,1614.0,meters,OK,1852.0,meters,OK,1821.0,meters,OK
2025-01-26T19:54:51.888479,8.4,knots,OK,24.0,degrees,OK,24.9,knots,OK,23.0,°C,OK,12.8,°C,OK,1013.7,hPa,OK,7413.0,meters,OK,2593.0,feet,OK,0.2,mm/hr,OK,1654.0,meters,OK,1972.0,meters,OK,1561.0,meters,OK
2025-01-26T19:54:52.893282,11.0,knots,OK,263.0,degrees,OK,19.9,knots,OK,24.9,°C,OK,10.6,°C,OK,1013.8,hPa,OK,7125.0,meters,OK,1396.0,feet,OK,0.1,mm/hr,OK,1618.0,meters,OK,1996.0,meters,OK,1614.0,meters,OK
2025-01-26T19:54:53.897986,13.9,knots,OK,358.0,degrees,OK,21.7,knots,OK,21.6,°C,OK,11.5,°C,OK,1013.1,hPa,OK,6783.0,meters,OK,1606.0,feet,OK,0.3,mm/hr,OK,1802.0,meters,OK,1665.0,meters,OK,1706.0,meters,OK
2025-01-26T19:54:54.902512,14.5,knots,OK,349.0,degrees,OK,22.5,knots,OK,20.3,°C,OK,17.6,°C,OK,1013.6,hPa,OK,8350.0,meters,OK,2365.0,feet,OK,0.2,mm/hr,OK,1636.0,meters,OK,1649.0,meters,OK,1843.0,meters,OK
2025-01-26T19:54:55.907252,7.1,knots,OK,50.0,degrees,OK,22.6,knots,OK,16.0,°C,OK,12.7,°C,OK,1014.8,hPa,OK,5551.0,meters,OK,2496.0,feet,OK,0.0,mm/hr,OK,1978.0,meters,OK,1649.0,meters,OK,1979.0,meters,OK
2025-01-26T19:54:56.912176,10.6,knots,OK,304.0,degrees,OK,20.6,knots,OK,21.1,°C,OK,13.8,°C,OK,1013.2,hPa,OK,9102.0,meters,OK,2210.0,feet,OK,0.2,mm/hr,OK,1995.0,meters,OK,1714.0,meters,OK,1549.0,meters,OK
2025-01-26T19:54:57.915769,10.3,knots,OK,58.0,degrees,OK,12.9,knots,OK,15.6,°C,OK,18.6,°C,OK,1013.6,hPa,OK,7563.0,meters,OK,2371.0,feet,OK,0.4,mm/hr,OK,1627.0,meters,OK,1514.0,meters,OK,1647.0,meters,OK
2025-01-26T19:54:58.920421,5.4,knots,OK,58.0,degrees,OK,11.9,knots,OK,22.2,°C,OK,12.8,°C,OK,1013.1,hPa,OK,6247.0,meters,OK,2775.0,feet,OK,0.5,mm/hr,OK,1555.0,meters,OK,1916.0,meters,OK,1967.0,meters,OK
2025-01-26T19:54:59.924870,8.2,knots,OK,273.0,degrees,OK,15.9,knots,OK,17.1,°C,OK,11.8,°C,OK,1013.4,hPa,OK,8636.0,meters,OK,1072.0,feet,OK,0.1,mm/hr,OK,1860.0,meters,OK,1517.0,meters,OK,1642.0,meters,OK
2025-01-26T19:55:00.930256,5.9,knots,OK,203.0,degrees,OK,16.7,knots,OK,18.6,°C,OK,13.7,°C,OK,1013.6,hPa,OK,7641.0,meters,OK,1078.0,feet,OK,0.3,mm/hr,OK,1591.0,meters,OK,1645.0,meters,OK,1752.0,meters,OK
2025-01-26T19:55:01.934912,14.0,knots,OK,24.0,degrees,OK,16.4,knots,OK,24.9,°C,OK,17.9,°C,OK,1013.5,hPa,OK,5910.0,meters,OK,1933.0,feet,OK,0.3,mm/hr,OK,1773.0,meters,OK,1666.0,meters,OK,1699.0,meters,OK
2025-01-26T19:55:02.939796,5.3,knots,OK,205.0,degrees,OK,16.9,knots,OK,21.6,°C,OK,18.8,°C,OK,1013.4,hPa,OK,7216.0,meters,OK,1073.0,feet,OK,0.5,mm/hr,OK,1882.0,meters,OK,1576.0,meters,OK,1877.0,meters,OK
2025-01-26T19:55:03.944732,12.3,knots,OK,254.0,degrees,OK,15.4,knots,OK,21.2,°C,OK,10.6,°C,OK,1014.2,hPa,OK,7078.0,meters,OK,1662.0,feet,OK,0.1,mm/hr,OK,1852.0,meters,OK,1987.0,meters,OK,1790.0,meters,OK
2025-01-26T19:55:04.950070,8.2,knots,OK,182.0,degrees,OK,12.6,knots,OK,20.0,°C,OK,13.9,°C,OK,1013.9,hPa,OK,6910.0,meters,OK,1666.0,feet,OK,0.4,mm/hr,OK,1852.0,meters,OK,1858.0,meters,OK,1526.0,meters,OK
2025-01-26T19:55:05.955145,8.3,knots,OK,3.0,degrees,OK,16.2,knots,OK,24.2,°C,OK,10.4,°C,OK,1014.5,hPa,OK,8829.0,meters,OK,2274.0,feet,OK,0.0,mm/hr,OK,1875.0,meters,OK,1563.0,meters,OK,1547.0,meters,OK
2025-01-26T19:55:06.959886,10.7,knots,OK,9.0,degrees,OK,22.0,knots,OK,17.7,°C,OK,13.3,°C,OK,1014.4,hPa,OK,5675.0,meters,OK,2053.0,feet,OK,0.3,mm/hr,OK,1613.0,meters,OK,1587.0,meters,OK,1652.0,meters,OK
2025-01-26T19:55:07.965436,12.8,knots,OK,230.0,degrees,OK,24.5,knots,OK,18.2,°C,OK,14.9,°C,OK,1014.6,hPa,OK,7843.0,meters,OK,1160.0,feet,OK,0.2,mm/hr,OK,1842.0,meters,OK,1885.0,meters,OK,1804.0,meters,OK
2025-01-26T19:55:08.970768,13.2,knots,OK,287.0,degrees,OK,21.7,knots,OK,15.5,°C,OK,15.2,°C,OK,1014.2,hPa,OK,6429.0,meters,OK,1473.0,feet,OK,0.1,mm/hr,OK,1549.0,meters,OK,1639.0,meters,OK,1508.0,meters,OK
2025-01-26T19:55:09.974798,13.6,knots,OK,328.0,degrees,OK,16.6,knots,OK,22.7,°C,OK,13.7,°C,OK,1015.0,hPa,OK,7178.0,meters,OK,2450.0,feet,OK,0.1,mm/hr,OK,1695.0,meters,OK,1928.0,meters,OK,1738.0,meters,OK
2025-01-26T19:55:10.977644,8.0,knots,OK,287.0,degrees,OK,11.2,knots,OK,15.3,°C,OK,11.7,°C,OK,1014.4,hPa,OK,7186.0,meters,OK,1430.0,feet,OK,0.5,mm/hr,OK,1951.0,meters,OK,1966.0,meters,OK,1636.0,meters,OK
2025-01-26T19:55:11.981615,6.5,knots,OK,58.0,degrees,OK,21.7,knots,OK,22.0,°C,OK,14.6,°C,OK,1013.1,hPa,OK,8366.0,meters,OK,2644.0,feet,OK,0.1,mm/hr,OK,1772.0,meters,OK,1602.0,meters,OK,1515.0,meters,OK
2025-01-26T19:55:12.985968,12.6,knots,OK,190.0,degrees,OK,19.0,knots,OK,22.6,°C,OK,11.4,°C,OK,1014.1,hPa,OK,8857.0,meters,OK,2558.0,feet,OK,0.2,mm/hr,OK,1561.0,meters,OK,1752.0,meters,OK,1874.0,meters,OK
2025-01-26T19:55:13.989971,7.4,knots,OK,42.0,degrees,OK,10.5,knots,OK,21.3,°C,OK,15.9,°C,OK,1014.8,hPa,OK,8174.0,meters,OK,2231.0,feet,OK,0.3,mm/hr,OK,1906.0,meters,OK,1704.0,meters,OK,1749.0,meters,OK
2025-01-26T19:55:14.995043,15.0,knots,OK,44.0,degrees,OK,17.3,knots,OK,15.9,°C,OK,10.5,°C,OK,1014.9,hPa,OK,7105.0,meters,OK,2763.0,feet,OK,0.3,mm/hr,OK,1684.0,meters,OK,1949.0,meters,OK,1887.0,meters,OK
2025-01-26T19:55:15.999504,6.9,knots,OK,63.0,degrees,OK,20.4,knots,OK,21.9,°C,OK,17.6,°C,OK,1013.9,hPa,OK,6015.0,meters,OK,2105.0,feet,OK,0.5,mm/hr,OK,1761.0,meters,OK,1747.0,meters,OK,1987.0,meters,OK
2025-01-26T19:55:17.002691,6.8,knots,OK,340.0,degrees,OK,11.7,knots,OK,19.1,°C,OK,12.1,°C,OK,1014.5,hPa,OK,7833.0,meters,OK,1977.0,feet,OK,0.4,mm/hr,OK,1765.0,meters,OK,1970.0,meters,OK,1584.0,meters,OK
2025-01-26T19:55:18.007172,14.6,knots,OK,341.0,degrees,OK,14.1,knots,OK,24.5,°C,OK,14.6,°C,OK,1013.7,hPa,OK,5989.0,meters,OK,1400.0,feet,OK,0.1,mm/hr,OK,1815.0,meters,OK,1668.0,meters,OK,1819.0,meters,OK
2025-01-26T19:55:19.012203,5.3,knots,OK,247.0,degrees,OK,24.7,knots,OK,16.2,°C,OK,16.4,°C,OK,1013.2,hPa,OK,7963.0,meters,OK,2810.0,feet,OK,0.0,mm/hr,OK,1573.0,meters,OK,1507.0,meters,OK,1719.0,meters,OK
2025-01-26T19:55:20.016979,8.0,knots,OK,294.0,degrees,OK,16.2,knots,OK,23.8,°C,OK,15.9,°C,OK,1014.9,hPa,OK,7771.0,meters,OK,2637.0,feet,OK,0.3,mm/hr,OK,1577.0,meters,OK,1786.0,meters,OK,1643.0,meters,OK
2025-01-26T19:55:21.021228,7.8,knots,OK,79.0,degrees,OK,22.5,knots,OK,16.3,°C,OK,15.1,°C,OK,1013.9,hPa,OK,9313.0,meters,OK,2312.0,feet,OK,0.1,mm/hr,OK,1861.0,meters,OK,1829.0,meters,OK,1614.0,meters,OK
2025-01-26T19:55:22.025967,7.6,knots,OK,194.0,degrees,OK,16.7,knots,OK,24.0,°C,OK,16.6,°C,OK,1014.5,hPa,OK,9742.0,meters,OK,2972.0,feet,OK,0.2,mm/hr,OK,1754.0,meters,OK,1944.0,meters,OK,1582.0,meters,OK
2025-01-26T19:55:23.031060,5.6,knots,OK,118.0,degrees,OK,18.4,knots,OK,22.8,°C,OK,13.0,°C,OK,1013.1,hPa,OK,9582.0,meters,OK,1639.0,feet,OK,0.4,mm/hr,OK,1773.0,meters,OK,1854.0,meters,OK,1599.0,meters,OK
2025-01-26T19:55:24.035381,10.8,knots,OK,211.0,degrees,OK,16.1,knots,OK,24.4,°C,OK,11.1,°C,OK,1013.7,hPa,OK,6148.0,meters,OK,1367.0,feet,OK,0.3,mm/hr,OK,1792.0,meters,OK,1679.0,meters,OK,1754.0,meters,OK
2025-01-26T19:55:25.039612,6.6,knots,OK,32.0,degrees,OK,10.4,knots,OK,15.6,°C,OK,16.2,°C,OK,1013.4,hPa,OK,6457.0,meters,OK,1923.0,feet,OK,0.2,mm/hr,OK,1603.0,meters,OK,1998.0,meters,OK,1729.0,meters,OK
2025-01-26T19:55:26.044321,13.5,knots,OK,136.0,degrees,OK,24.0,knots,OK,16.0,°C,OK,13.3,°C,OK,1014.7,hPa,OK,6112.0,meters,OK,2619.0,feet,OK,0.1,mm/hr,OK,1535.0,meters,OK,1503.0,meters,OK,1903.0,meters,OK
2025-01-26T19:55:27.049145,11.6,knots,OK,36.0,degrees,OK,11.3,knots,OK,18.4,°C,OK,12.1,°C,OK,1013.6,hPa,OK,6304.0,meters,OK,1517.0,feet,OK,0.2,mm/hr,OK,1662.0,meters,OK,1841.0,meters,OK,1598.0,meters,OK
2025-01-26T19:55:28.054674,10.0,knots,OK,280.0,degrees,OK,24.5,knots,OK,17.3,°C,OK,13.5,°C,OK,1014.9,hPa,OK,7828.0,meters,OK,2945.0,feet,OK,0.4,mm/hr,OK,1523.0,meters,OK,1658.0,meters,OK,1991.0,meters,OK
2025-01-26T19:55:29.059059,10.0,knots,OK,340.0,degrees,OK,15.0,knots,OK,24.1,°C,OK,19.0,°C,OK,1014.5,hPa,OK,9446.0,meters,OK,1127.0,feet,OK,0.3,mm/hr,OK,1651.0,meters,OK,1932.0,meters,OK,1704.0,meters,OK
2025-01-26T19:55:30.062627,14.6,knots,OK,25.0,degrees,OK,21.8,knots,OK,23.2,°C,OK,13.9,°C,OK,1013.4,hPa,OK,5088.0,meters,OK,2631.0,feet,OK,0.3,mm/hr,OK,1641.0,meters,OK,1671.0,meters,OK,1663.0,meters,OK
2025-01-26T19:55:31.067307,14.4,knots,OK,289.0,degrees,OK,20.5,knots,OK,23.5,°C,OK,18.9,°C,OK,1014.1,hPa,OK,8088.0,meters,OK,2877.0,feet,OK,0.4,mm/hr,OK,1531.0,meters,OK,1510.0,meters,OK,1940.0,meters,OK
2025-01-26T19:55:32.071523,9.3,knots,OK,199.0,degrees,OK,11.4,knots,OK,24.4,°C,OK,16.8,°C,OK,1013.4,hPa,OK,8856.0,meters,OK,1404.0,feet,OK,0.4,mm/hr,OK,1977.0,meters,OK,1739.0,meters,OK,1905.0,meters,OK
2025-01-26T19:55:33.076348,9.8,knots,OK,32.0,degrees,OK,24.2,knots,OK,21.3,°C,OK,19.3,°C,OK,1015.0,hPa,OK,8218.0,meters,OK,1096.0,feet,OK,0.5,mm/hr,OK,1883.0,meters,OK,1970.0,meters,OK,1868.0,meters,OK
2025-01-26T19:55:34.081445,13.6,knots,OK,82.0,degrees,OK,16.8,knots,OK,21.0,°C,OK,11.5,°C,OK,1014.0,hPa,OK,8324.0,meters,OK,1695.0,feet,OK,0.3,mm/hr,OK,1719.0,meters,OK,1946.0,meters,OK,1686.0,meters,OK
2025-01-26T19:55:35.086556,9.9,knots,OK,229.0,degrees,OK,19.2,knots,OK,21.9,°C,OK,17.2,°C,OK,1013.1,hPa,OK,7198.0,meters,OK,2171.0,feet,OK,0.4,mm/hr,OK,1956.0,meters,OK,1991.0,meters,OK,1821.0,meters,OK
2025-01-26T19:55:36.090626,8.2,knots,OK,59.0,degrees,OK,22.0,knots,OK,23.4,°C,OK,12.3,°C,OK,1013.8,hPa,OK,6958.0,meters,OK,2097.0,feet,OK,0.1,mm/hr,OK,1845.0,meters,OK,1935.0,meters,OK,1537.0,meters,OK
2025-01-26T19:55:37.095881,9.9,knots,OK,223.0,degrees,OK,21.4,knots,OK,20.6,°C,OK,17.1,°C,OK,1013.9,hPa,OK,8682.0,meters,OK,1880.0,feet,OK,0.0,mm/hr,OK,1668.0,meters,OK,1653.0,meters,OK,1609.0,meters,OK
2025-01-26T19:55:38.100085,6.4,knots,OK,246.0,degrees,OK,14.5,knots,OK,15.6,°C,OK,16.7,°C,OK,1013.2,hPa,OK,8064.0,meters,OK,1712.0,feet,OK,0.3,mm/hr,OK,1737.0,meters,OK,1910.0,meters,OK,1913.0,meters,OK
2025-01-26T19:55:39.104967,11.5,knots,OK,13.0,degrees,OK,18.0,knots,OK,19.1,°C,OK,14.1,°C,OK,1013.5,hPa,OK,9952.0,meters,OK,1173.0,feet,OK,0.1,mm/hr,OK,1842.0,meters,OK,1901.0,meters,OK,1791.0,meters,OK
2025-01-26T19:55:40.109746,14.2,knots,OK,43.0,degrees,OK,21.6,knots,OK,15.3,°C,OK,10.1,°C,OK,1014.8,hPa,OK,5149.0,meters,OK,2430.0,feet,OK,0.2,mm/hr,OK,1720.0,meters,OK,1949.0,meters,OK,1923.0,meters,OK
2025-01-26T19:55:41.112569,5.4,knots,OK,28.0,degrees,OK,18.0,knots,OK,21.6,°C,OK,12.5,°C,OK,1013.1,hPa,OK,6356.0,meters,OK,2193.0,feet,OK,0.4,mm/hr,OK,1685.0,meters,OK,1506.0,meters,OK,1636.0,meters,OK
2025-01-26T19:55:42.116900,10.3,knots,OK,209.0,degrees,OK,14.5,knots,OK,21.0,°C,OK,19.0,°C,OK,1013.3,hPa,OK,6626.0,meters,OK,2619.0,feet,OK,0.2,mm/hr,OK,1895.0,meters,OK,1712.0,meters,OK,1922.0,meters,OK
2025-01-26T19:55:43.121201,10.3,knots,OK,101.0,degrees,OK,19.9,knots,OK,22.5,°C,OK,19.7,°C,OK,1014.2,hPa,OK,9851.0,meters,OK,2413.0,feet,OK,0.3,mm/hr,OK,1916.0,meters,OK,1929.0,meters,OK,1909.0,meters,OK
2025-01-26T19:55:44.125913,14.4,knots,OK,223.0,degrees,OK,16.7,knots,OK,19.0,°C,OK,14.0,°C,OK,1014.0,hPa,OK,7088.0,meters,OK,1849.0,feet,OK,0.2,mm/hr,OK,1820.0,meters,OK,1957.0,meters,OK,1787.0,meters,OK
2025-01-26T19:55:45.130186,5.4,knots,OK,147.0,degrees,OK,24.4,knots,OK,22.6,°C,OK,12.8,°C,OK,1014.3,hPa,OK,7710.0,meters,OK,2540.0,feet,OK,0.5,mm/hr,OK,1875.0,meters,OK,1534.0,meters,OK,1686.0,meters,OK
2025-01-26T19:55:46.134482,5.5,knots,OK,303.0,degrees,OK,12.5,knots,OK,24.5,°C,OK,13.3,°C,OK,1013.4,hPa,OK,5962.0,meters,OK,2578.0,feet,OK,0.5,mm/hr,OK,1749.0,meters,OK,1913.0,meters,OK,1728.0,meters,OK
2025-01-26T19:55:47.139200,11.9,knots,OK,159.0,degrees,OK,17.1,knots,OK,19.0,°C,OK,19.5,°C,OK,1014.7,hPa,OK,6944.0,meters,OK,2819.0,feet,OK,0.0,mm/hr,OK,1953.0,meters,OK,1537.0,meters,OK,1988.0,meters,OK
2025-01-26T19:55:48.142872,7.5,knots,OK,153.0,degrees,OK,24.3,knots,OK,20.4,°C,OK,14.4,°C,OK,1014.2,hPa,OK,5480.0,meters,OK,1576.0,feet,OK,0.2,mm/hr,OK,1999.0,meters,OK,1543.0,meters,OK,1875.0,meters,OK
2025-01-26T19:55:49.146886,8.8,knots,OK,331.0,degrees,OK,13.3,knots,OK,22.9,°C,OK,15.5,°C,OK,1013.3,hPa,OK,9528.0,meters,OK,2984.0,feet,OK,0.4,mm/hr,OK,1585.0,meters,OK,1850.0,meters,OK,1778.0,meters,OK
2025-01-26T19:55:50.152176,10.9,knots,OK,267.0,degrees,OK,23.1,knots,OK,19.8,°C,OK,13.5,°C,OK,1013.2,hPa,OK,8108.0,meters,OK,1524.0,feet,OK,0.4,mm/hr,OK,1698.0,meters,OK,1918.0,meters,OK,1838.0,meters,OK
2025-01-26T19:55:51.156894,7.4,knots,OK,323.0,degrees,OK,11.0,knots,OK,20.9,°C,OK,11.2,°C,OK,1014.8,hPa,OK,8952.0,meters,OK,1330.0,feet,OK,0.2,mm/hr,OK,1896.0,meters,OK,1988.0,meters,OK,1724.0,meters,OK
2025-01-26T19:55:52.168277,6.0,knots,OK,218.0,degrees,OK,11.4,knots,OK,18.4,°C,OK,10.3,°C,OK,1014.9,hPa,OK,5829.0,meters,OK,1360.0,feet,OK,0.0,mm/hr,OK,1702.0,meters,OK,1549.0,meters,OK,1576.0,meters,OK
2025-01-26T19:55:53.172964,7.7,knots,OK,138.0,degrees,OK,24.8,knots,OK,17.0,°C,OK,11.2,°C,OK,1013.6,hPa,OK,8892.0,meters,OK,2960.0,feet,OK,0.1,mm/hr,OK,1887.0,meters,OK,1741.0,meters,OK,1897.0,meters,OK
2025-01-26T19:55:54.176545,8.5,knots,OK,17.0,degrees,OK,17.3,knots,OK,20.5,°C,OK,13.4,°C,OK,1013.1,hPa,OK,5190.0,meters,OK,2194.0,feet,OK,0.4,mm/hr,OK,1779.0,meters,OK,1995.0,meters,OK,1525.0,meters,OK
2025-01-26T19:55:55.179744,9.3,knots,OK,53.0,degrees,OK,25.0,knots,OK,23.1,°C,OK,12.3,°C,OK,1013.9,hPa,OK,8823.0,meters,OK,1816.0,feet,OK,0.0,mm/hr,OK,1952.0,meters,OK,1597.0,meters,OK,1989.0,meters,OK
2025-01-26T19:55:56.184520,9.3,knots,OK,185.0,degrees,OK,12.5,knots,OK,22.8,°C,OK,18.3,°C,OK,1014.1,hPa,OK,8879.0,meters,OK,2936.0,feet,OK,0.4,mm/hr,OK,1883.0,meters,OK,1630.0,meters,OK,1853.0,meters,OK
2025-01-26T19:55:57.188867,11.5,knots,OK,340.0,degrees,OK,23.4,knots,OK,19.8,°C,OK,17.8,°C,OK,1013.1,hPa,OK,9792.0,meters,OK,1719.0,feet,OK,0.4,mm/hr,OK,1837.0,meters,OK,1999.0,meters,OK,1776.0,meters,OK
2025-01-26T19:55:58.194065,7.2,knots,OK,42.0,degrees,OK,18.8,knots,OK,24.7,°C,OK,18.2,°C,OK,1014.6,hPa,OK,7809.0,meters,OK,2419.0,feet,OK,0.2,mm/hr,OK,1746.0,meters,OK,1835.0,meters,OK,1706.0,meters,OK
2025-01-26T19:55:59.198880,9.0,knots,OK,192.0,degrees,OK,10.1,knots,OK,15.4,°C,OK,18.0,°C,OK,1014.4,hPa,OK,9864.0,meters,OK,2696.0,feet,OK,0.3,mm/hr,OK,1905.0,meters,OK,1934.0,meters,OK,1673.0,meters,OK
2025-01-26T19:56:00.203104,10.9,knots,OK,92.0,degrees,OK,16.0,knots,OK,16.2,°C,OK,19.8,°C,OK,1013.9,hPa,OK,9470.0,meters,OK,2950.0,feet,OK,0.4,mm/hr,OK,1624.0,meters,OK,1844.0,meters,OK,1661.0,meters,OK
2025-01-26T19:56:01.207189,11.4,knots,OK,43.0,degrees,OK,20.6,knots,OK,23.4,°C,OK,17.7,°C,OK,1014.7,hPa,OK,7749.0,meters,OK,2180.0,feet,OK,0.3,mm/hr,OK,1931.0,meters,OK,1722.0,meters,OK,1733.0,meters,OK
2025-01-26T19:56:02.211603,14.0,knots,OK,94.0,degrees,OK,18.5,knots,OK,20.5,°C,OK,10.7,°C,OK,1014.1,hPa,OK,7934.0,meters,OK,1314.0,feet,OK,0.4,mm/hr,OK,1913.0,meters,OK,1760.0,meters,OK,1627.0,meters,OK
2025-01-26T19:56:03.216939,11.4,knots,OK,282.0,degrees,OK,15.2,knots,OK,22.9,°C,OK,16.1,°C,OK,1013.9,hPa,OK,7664.0,meters,OK,2915.0,feet,OK,0.3,mm/hr,OK,1744.0,meters,OK,1527.0,meters,OK,1751.0,meters,OK
2025-01-26T19:56:04.221215,13.4,knots,OK,158.0,degrees,OK,21.9,knots,OK,20.7,°C,OK,15.3,°C,OK,1013.7,hPa,OK,7355.0,meters,OK,2719.0,feet,OK,0.5,mm/hr,OK,1790.0,meters,OK,1759.0,meters,OK,1641.0,meters,OK
2025-01-26T19:56:05.225338,14.5,knots,OK,38.0,degrees,OK,23.2,knots,OK,17.1,°C,OK,19.7,°C,OK,1013.4,hPa,OK,6617.0,meters,OK,1071.0,feet,OK,0.1,mm/hr,OK,1531.0,meters,OK,1682.0,meters,OK,1728.0,meters,OK
2025-01-26T19:56:06.230320,14.1,knots,OK,51.0,degrees,OK,20.4,knots,OK,15.4,°C,OK,17.8,°C,OK,1013.3,hPa,OK,9626.0,meters,OK,2050.0,feet,OK,0.1,mm/hr,OK,1798.0,meters,OK,1753.0,meters,OK,1792.0,meters,OK
2025-01-26T19:56:07.234797,5.7,knots,OK,40.0,degrees,OK,11.3,knots,OK,19.1,°C,OK,19.4,°C,OK,1014.5,hPa,OK,7179.0,meters,OK,2400.0,feet,OK,0.4,mm/hr,OK,1732.0,meters,OK,1809.0,meters,OK,1690.0,meters,OK
2025-01-26T19:56:08.237893,11.8,knots,OK,126.0,degrees,OK,22.4,knots,OK,23.6,°C,OK,13.8,°C,OK,1013.8,hPa,OK,5653.0,meters,OK,2108.0,feet,OK,0.4,mm/hr,OK,1927.0,meters,OK,1653.0,meters,OK,1916.0,meters,OK
2025-01-26T19:56:09.242215,9.4,knots,OK,213.0,degrees,OK,13.8,knots,OK,22.3,°C,OK,16.0,°C,OK,1014.1,hPa,OK,7251.0,meters,OK,1411.0,feet,OK,0.0,mm/hr,OK,1764.0,meters,OK,1872.0,meters,OK,1909.0,meters,OK
2025-01-26T19:56:10.246813,9.1,knots,OK,165.0,degrees,OK,12.5,knots,OK,20.0,°C,OK,11.7,°C,OK,1013.6,hPa,OK,8881.0,meters,OK,2078.0,feet,OK,0.3,mm/hr,OK,1533.0,meters,OK,1806.0,meters,OK,1747.0,meters,OK
2025-01-26T19:56:11.251804,7.1,knots,OK,19.0,degrees,OK,22.1,knots,OK,22.1,°C,OK,17.1,°C,OK,1014.0,hPa,OK,5747.0,meters,OK,2636.0,feet,OK,0.4,mm/hr,OK,1729.0,meters,OK,1769.0,meters,OK,1696.0,meters,OK
2025-01-26T19:56:12.256276,11.9,knots,OK,215.0,degrees,OK,20.9,knots,OK,20.8,°C,OK,16.7,°C,OK,1014.4,hPa,OK,6564.0,meters,OK,1991.0,feet,OK,0.4,mm/hr,OK,1785.0,meters,OK,1539.0,meters,OK,1646.0,meters,OK
2025-01-26T19:56:13.260801,6.6,knots,OK,252.0,degrees,OK,14.3,knots,OK,23.6,°C,OK,17.6,°C,OK,1014.5,hPa,OK,7132.0,meters,OK,2447.0,feet,OK,0.2,mm/hr,OK,1882.0,meters,OK,1605.0,meters,OK,1559.0,meters,OK
2025-01-26T19:56:14.265223,6.3,knots,OK,199.0,degrees,OK,23.6,knots,OK,15.3,°C,OK,10.3,°C,OK,1014.7,hPa,OK,6333.0,meters,OK,1944.0,feet,OK,0.4,mm/hr,OK,1546.0,meters,OK,1659.0,meters,OK,1792.0,meters,OK
2025-01-26T19:56:15.270111,10.8,knots,OK,81.0,degrees,OK,17.0,knots,OK,16.5,°C,OK,18.8,°C,OK,1013.8,hPa,OK,8289.0,meters,OK,2480.0,feet,OK,0.4,mm/hr,OK,1774.0,meters,OK,1694.0,meters,OK,1537.0,meters,OK
2025-01-26T19:56:16.274762,13.8,knots,OK,99.0,degrees,OK,12.0,knots,OK,22.0,°C,OK,12.9,°C,OK,1014.2,hPa,OK,8133.0,meters,OK,2119.0,feet,OK,0.4,mm/hr,OK,1789.0,meters,OK,1559.0,meters,OK,1741.0,meters,OK
2025-01-26T19:56:17.280404,12.7,knots,OK,250.0,degrees,OK,19.5,knots,OK,23.1,°C,OK,14.4,°C,OK,1014.1,hPa,OK,9214.0,meters,OK,2768.0,feet,OK,0.3,mm/hr,OK,1722.0,meters,OK,1635.0,meters,OK,1550.0,meters,OK
2025-01-26T19:56:18.285964,12.3,knots,OK,229.0,degrees,OK,18.3,knots,OK,20.0,°C,OK,14.3,°C,OK,1013.3,hPa,OK,5124.0,meters,OK,1019.0,feet,OK,0.1,mm/hr,OK,1752.0,meters,OK,1773.0,meters,OK,1637.0,meters,OK
2025-01-26T19:56:19.290041,6.4,knots,OK,159.0,degrees,OK,15.5,knots,OK,21.4,°C,OK,15.7,°C,OK,1013.7,hPa,OK,5295.0,meters,OK,2669.0,feet,OK,0.1,mm/hr,OK,1740.0,meters,OK,1712.0,meters,OK,1918.0,meters,OK
2025-01-26T19:56:20.294862,9.0,knots,OK,54.0,degrees,OK,11.7,knots,OK,21.6,°C,OK,12.1,°C,OK,1014.3,hPa,OK,8740.0,meters,OK,1462.0,feet,OK,0.5,mm/hr,OK,1517.0,meters,OK,1933.0,meters,OK,1532.0,meters,OK
2025-01-26T19:56:21.299289,9.7,knots,OK,201.0,degrees,OK,16.0,knots,OK,15.1,°C,OK,20.0,°C,OK,1014.9,hPa,OK,6016.0,meters,OK,1850.0,feet,OK,0.3,mm/hr,OK,1763.0,meters,OK,1837.0,meters,OK,1869.0,meters,OK
2025-01-26T19:56:22.304080,12.2,knots,OK,147.0,degrees,OK,15.2,knots,OK,15.9,°C,OK,10.0,°C,OK,1013.1,hPa,OK,6948.0,meters,OK,2490.0,feet,OK,0.2,mm/hr,OK,1912.0,meters,OK,1701.0,meters,OK,1682.0,meters,OK
2025-01-26T19:56:23.309661,13.9,knots,OK,41.0,degrees,OK,11.1,knots,OK,23.1,°C,OK,13.7,°C,OK,1014.3,hPa,OK,6732.0,meters,OK,2998.0,feet,OK,0.2,mm/hr,OK,1783.0,meters,OK,1798.0,meters,OK,1504.0,meters,OK
2025-01-26T19:56:24.314524,6.4,knots,OK,215.0,degrees,OK,20.3,knots,OK,21.9,°C,OK,17.2,°C,OK,1013.9,hPa,OK,8364.0,meters,OK,2669.0,feet,OK,0.1,mm/hr,OK,1827.0,meters,OK,1736.0,meters,OK,1803.0,meters,OK
2025-01-26T19:56:25.318681,11.8,knots,OK,202.0,degrees,OK,20.5,knots,OK,22.0,°C,OK,15.3,°C,OK,1013.8,hPa,OK,7215.0,meters,OK,1228.0,feet,OK,0.3,mm/hr,OK,1725.0,meters,OK,1547.0,meters,OK,1811.0,meters,OK
2025-01-26T19:56:26.322303,10.3,knots,OK,291.0,degrees,OK,19.4,knots,OK,17.4,°C,OK,18.4,°C,OK,1014.9,hPa,OK,5268.0,meters,OK,2592.0,feet,OK,0.2,mm/hr,OK,1984.0,meters,OK,1970.0,meters,OK,1858.0,meters,OK
2025-01-26T19:56:27.326844,11.9,knots,OK,167.0,degrees,OK,17.0,knots,OK,19.5,°C,OK,13.2,°C,OK,1013.4,hPa,OK,7381.0,meters,OK,1670.0,feet,OK,0.0,mm/hr,OK,1572.0,meters,OK,1772.0,meters,OK,1618.0,meters,OK
2025-01-26T19:56:28.331777,7.7,knots,OK,294.0,degrees,OK,11.6,knots,OK,22.0,°C,OK,15.5,°C,OK,1014.6,hPa,OK,5847.0,meters,OK,1538.0,feet,OK,0.5,mm/hr,OK,1961.0,meters,OK,1872.0,meters,OK,1513.0,meters,OK
2025-01-26T19:56:29.336672,8.3,knots,OK,255.0,degrees,OK,18.6,knots,OK,19.3,°C,OK,17.4,°C,OK,1013.5,hPa,OK,7236.0,meters,OK,2203.0,feet,OK,0.1,mm/hr,OK,1524.0,meters,OK,1841.0,meters,OK,1629.0,meters,OK
2025-01-26T19:56:30.341785,9.5,knots,OK,284.0,degrees,OK,12.3,knots,OK,16.5,°C,OK,10.9,°C,OK,1014.4,hPa,OK,8722.0,meters,OK,2579.0,feet,OK,0.4,mm/hr,OK,1635.0,meters,OK,1619.0,meters,OK,1867.0,meters,OK
2025-01-26T19:56:31.346206,10.2,knots,OK,27.0,degrees,OK,24.1,knots,OK,15.4,°C,OK,18.4,°C,OK,1013.4,hPa,OK,7964.0,meters,OK,2269.0,feet,OK,0.0,mm/hr,OK,1835.0,meters,OK,1744.0,meters,OK,1679.0,meters,OK
2025-01-26T19:56:32.350924,11.1,knots,OK,214.0,degrees,OK,10.9,knots,OK,22.8,°C,OK,10.4,°C,OK,1014.4,hPa,OK,5004.0,meters,OK,1214.0,feet,OK,0.4,mm/hr,OK,1533.0,meters,OK,1945.0,meters,OK,1553.0,meters,OK
2025-01-26T19:56:33.354816,13.6,knots,OK,109.0,degrees,OK,20.0,knots,OK,19.9,°C,OK,17.2,°C,OK,1013.1,hPa,OK,5875.0,meters,OK,2270.0,feet,OK,0.2,mm/hr,OK,1856.0,meters,OK,1984.0,meters,OK,1776.0,meters,OK
2025-01-26T19:56:34.358773,12.4,knots,OK,20.0,degrees,OK,23.0,knots,OK,16.1,°C,OK,18.9,°C,OK,1013.3,hPa,OK,9049.0,meters,OK,1662.0,feet,OK,0.0,mm/hr,OK,1835.0,meters,OK,1593.0,meters,OK,1793.0,meters,OK
2025-01-26T19:56:35.362712,8.3,knots,OK,342.0,degrees,OK,14.0,knots,OK,24.3,°C,OK,10.6,°C,OK,1013.0,hPa,OK,8681.0,meters,OK,2600.0,feet,OK,0.4,mm/hr,OK,1946.0,meters,OK,1721.0,meters,OK,1941.0,meters,OK
2025-01-26T19:56:36.366257,9.7,knots,OK,55.0,degrees,OK,15.6,knots,OK,17.9,°C,OK,16.1,°C,OK,1014.2,hPa,OK,7224.0,meters,OK,1878.0,feet,OK,0.4,mm/hr,OK,1534.0,meters,OK,1744.0,meters,OK,1624.0,meters,OK
2025-01-26T19:56:37.370677,5.7,knots,OK,204.0,degrees,OK,12.0,knots,OK,19.8,°C,OK,13.0,°C,OK,1013.7,hPa,OK,9243.0,meters,OK,1335.0,feet,OK,0.4,mm/hr,OK,1964.0,meters,OK,1686.0,meters,OK,1589.0,meters,OK
2025-01-26T19:56:38.375504,6.4,knots,OK,339.0,degrees,OK,11.9,knots,OK,18.2,°C,OK,19.2,°C,OK,1013.7,hPa,OK,5141.0,meters,OK,1507.0,feet,OK,0.4,mm/hr,OK,1549.0,meters,OK,1619.0,meters,OK,1726.0,meters,OK
2025-01-26T19:56:39.379217,13.3,knots,OK,153.0,degrees,OK,22.0,knots,OK,21.4,°C,OK,15.3,°C,OK,1014.7,hPa,OK,6258.0,meters,OK,1694.0,feet,OK,0.5,mm/hr,OK,1832.0,meters,OK,1529.0,meters,OK,1992.0,meters,OK
2025-01-26T19:56:40.382855,7.8,knots,OK,267.0,degrees,OK,23.3,knots,OK,17.5,°C,OK,19.6,°C,OK,1013.6,hPa,OK,7563.0,meters,OK,1010.0,feet,OK,0.2,mm/hr,OK,1953.0,meters,OK,1554.0,meters,OK,1918.0,meters,OK
2025-01-26T19:56:41.387531,12.0,knots,OK,164.0,degrees,OK,21.7,knots,OK,16.6,°C,OK,10.6,°C,OK,1013.9,hPa,OK,8676.0,meters,OK,2484.0,feet,OK,0.1,mm/hr,OK,1502.0,meters,OK,1731.0,meters,OK,1744.0,meters,OK
2025-01-26T19:56:42.391720,6.5,knots,OK,111.0,degrees,OK,21.9,knots,OK,21.4,°C,OK,12.4,°C,OK,1014.4,hPa,OK,8811.0,meters,OK,1303.0,feet,OK,0.4,mm/hr,OK,1804.0,meters,OK,1740.0,meters,OK,1622.0,meters,OK
2025-01-26T19:56:43.396890,6.5,knots,OK,20.0,degrees,OK,21.7,knots,OK,17.8,°C,OK,19.3,°C,OK,1013.9,hPa,OK,6168.0,meters,OK,1764.0,feet,OK,0.2,mm/hr,OK,1680.0,meters,OK,1574.0,meters,OK,1734.0,meters,OK
2025-01-26T19:56:44.402610,6.3,knots,OK,340.0,degrees,OK,24.8,knots,OK,23.5,°C,OK,18.2,°C,OK,1013.1,hPa,OK,7572.0,meters,OK,1175.0,feet,OK,0.4,mm/hr,OK,1943.0,meters,OK,1849.0,meters,OK,1690.0,meters,OK
2025-01-26T19:56:45.406557,14.8,knots,OK,82.0,degrees,OK,23.2,knots,OK,20.4,°C,OK,16.2,°C,OK,1013.6,hPa,OK,8048.0,meters,OK,2169.0,feet,OK,0.4,mm/hr,OK,1654.0,meters,OK,1640.0,meters,OK,1548.0,meters,OK
2025-01-26T19:56:46.410137,13.1,knots,OK,47.0,degrees,OK,11.4,knots,OK,23.8,°C,OK,14.2,°C,OK,1013.2,hPa,OK,9749.0,meters,OK,2402.0,feet,OK,0.4,mm/hr,OK,1693.0,meters,OK,1518.0,meters,OK,1721.0,meters,OK
2025-01-26T19:56:47.414373,6.7,knots,OK,153.0,degrees,OK,12.6,knots,OK,18.1,°C,OK,10.3,°C,OK,1013.2,hPa,OK,5385.0,meters,OK,1590.0,feet,OK,0.5,mm/hr,OK,1818.0,meters,OK,1775.0,meters,OK,1618.0,meters,OK
2025-01-26T19:56:48.418624,7.2,knots,OK,319.0,degrees,OK,17.7,knots,OK,19.6,°C,OK,20.0,°C,OK,1013.1,hPa,OK,8605.0,meters,OK,1716.0,feet,OK,0.4,mm/hr,OK,1880.0,meters,OK,1844.0,meters,OK,1841.0,meters,OK
2025-01-26T19:56:49.422186,8.4,knots,OK,56.0,degrees,OK,10.2,knots,OK,19.1,°C,OK,12.4,°C,OK,1013.5,hPa,OK,7478.0,meters,OK,2492.0,feet,OK,0.0,mm/hr,OK,1803.0,meters,OK,1555.0,meters,OK,1604.0,meters,OK
2025-01-26T19:56:50.426386,5.1,knots,OK,213.0,degrees,OK,12.8,knots,OK,19.9,°C,OK,16.0,°C,OK,1013.5,hPa,OK,8166.0,meters,OK,2821.0,feet,OK,0.3,mm/hr,OK,1662.0,meters,OK,1942.0,meters,OK,1772.0,meters,OK
2025-01-26T19:56:51.430870,6.8,knots,OK,5.0,degrees,OK,10.9,knots,OK,20.6,°C,OK,19.2,°C,OK,1013.4,hPa,OK,6057.0,meters,OK,1470.0,feet,OK,0.5,mm/hr,OK,1620.0,meters,OK,1714.0,meters,OK,1901.0,meters,OK
2025-01-26T19:56:52.434538,14.7,knots,OK,89.0,degrees,OK,11.3,knots,OK,20.2,°C,OK,15.9,°C,OK,1013.8,hPa,OK,8572.0,meters,OK,1550.0,feet,OK,0.0,mm/hr,OK,1618.0,meters,OK,1914.0,meters,OK,1673.0,meters,OK
2025-01-26T19:56:53.438801,7.1,knots,OK,129.0,degrees,OK,20.0,knots,OK,24.9,°C,OK,18.7,°C,OK,1013.1,hPa,OK,8742.0,meters,OK,2181.0,feet,OK,0.2,mm/hr,OK,1571.0,meters,OK,1808.0,meters,OK,1749.0,meters,OK
2025-01-26T19:56:54.442921,5.4,knots,OK,260.0,degrees,OK,11.1,knots,OK,21.3,°C,OK,11.0,°C,OK,1014.5,hPa,OK,5173.0,meters,OK,1169.0,feet,OK,0.2,mm/hr,OK,1516.0,meters,OK,1932.0,meters,OK,1507.0,meters,OK
2025-01-26T19:56:55.448038,12.4,knots,OK,83.0,degrees,OK,11.4,knots,OK,16.8,°C,OK,18.7,°C,OK,1013.3,hPa,OK,9714.0,meters,OK,1415.0,feet,OK,0.3,mm/hr,OK,1757.0,meters,OK,1684.0,meters,OK,1621.0,meters,OK
2025-01-26T19:56:56.451981,9.0,knots,OK,190.0,degrees,OK,21.3,knots,OK,21.9,°C,OK,16.7,°C,OK,1014.1,hPa,OK,7778.0,meters,OK,1400.0,feet,OK,0.1,mm/hr,OK,1625.0,meters,OK,1652.0,meters,OK,1792.0,meters,OK
2025-01-26T19:56:57.456034,8.0,knots,OK,192.0,degrees,OK,15.8,knots,OK,16.2,°C,OK,15.3,°C,OK,1013.4,hPa,OK,5987.0,meters,OK,1002.0,feet,OK,0.4,mm/hr,OK,1996.0,meters,OK,1932.0,meters,OK,1764.0,meters,OK
2025-01-26T19:56:58.461739,9.3,knots,OK,215.0,degrees,OK,18.4,knots,OK,17.9,°C,OK,19.4,°C,OK,1014.9,hPa,OK,7895.0,meters,OK,1223.0,feet,OK,0.5,mm/hr,OK,1873.0,meters,OK,1660.0,meters,OK,1659.0,meters,OK
2025-01-26T19:56:59.465785,6.0,knots,OK,35.0,degrees,OK,14.3,knots,OK,21.9,°C,OK,16.2,°C,OK,1014.0,hPa,OK,8075.0,meters,OK,1249.0,feet,OK,0.4,mm/hr,OK,1571.0,meters,OK,1877.0,meters,OK,1942.0,meters,OK
2025-01-26T19:57:00.470712,10.5,knots,OK,114.0,degrees,OK,18.4,knots,OK,16.7,°C,OK,19.5,°C,OK,1014.1,hPa,OK,9490.0,meters,OK,1506.0,feet,OK,0.0,mm/hr,OK,1899.0,meters,OK,1553.0,meters,OK,1929.0,meters,OK
2025-01-26T19:57:01.475214,7.8,knots,OK,81.0,degrees,OK,11.0,knots,OK,16.2,°C,OK,18.4,°C,OK,1014.6,hPa,OK,8078.0,meters,OK,1944.0,feet,OK,0.0,mm/hr,OK,1732.0,meters,OK,1695.0,meters,OK,1682.0,meters,OK
2025-01-26T19:57:02.480407,9.1,knots,OK,23.0,degrees,OK,10.2,knots,OK,17.1,°C,OK,16.9,°C,OK,1013.6,hPa,OK,7099.0,meters,OK,2738.0,feet,OK,0.2,mm/hr,OK,1876.0,meters,OK,1693.0,meters,OK,1950.0,meters,OK
2025-01-26T19:57:03.485138,10.9,knots,OK,335.0,degrees,OK,17.5,knots,OK,21.8,°C,OK,14.5,°C,OK,1014.3,hPa,OK,6362.0,meters,OK,2053.0,feet,OK,0.4,mm/hr,OK,1903.0,meters,OK,1866.0,meters,OK,1837.0,meters,OK
2025-01-26T19:57:04.489222,10.0,knots,OK,252.0,degrees,OK,19.2,knots,OK,18.6,°C,OK,15.3,°C,OK,1014.4,hPa,OK,7465.0,meters,OK,1585.0,feet,OK,0.4,mm/hr,OK,1554.0,meters,OK,1681.0,meters,OK,1558.0,meters,OK
2025-01-26T19:57:05.493176,11.8,knots,OK,48.0,degrees,OK,13.8,knots,OK,15.8,°C,OK,12.0,°C,OK,1014.0,hPa,OK,6045.0,meters,OK,2447.0,feet,OK,0.5,mm/hr,OK,1736.0,meters,OK,1910.0,meters,OK,1951.0,meters,OK
2025-01-26T19:57:06.498026,13.8,knots,OK,336.0,degrees,OK,17.2,knots,OK,24.3,°C,OK,15.8,°C,OK,1013.1,hPa,OK,9608.0,meters,OK,1603.0,feet,OK,0.3,mm/hr,OK,1974.0,meters,OK,1995.0,meters,OK,1736.0,meters,OK
2025-01-26T19:57:07.502870,12.4,knots,OK,86.0,degrees,OK,16.0,knots,OK,19.2,°C,OK,18.1,°C,OK,1013.8,hPa,OK,8978.0,meters,OK,2274.0,feet,OK,0.3,mm/hr,OK,1563.0,meters,OK,1558.0,meters,OK,1928.0,meters,OK
2025-01-26T19:57:08.507939,11.5,knots,OK,146.0,degrees,OK,11.0,knots,OK,20.3,°C,OK,17.0,°C,OK,1013.4,hPa,OK,9255.0,meters,OK,2808.0,feet,OK,0.0,mm/hr,OK,1986.0,meters,OK,1507.0,meters,OK,1700.0,meters,OK
2025-01-26T19:57:09.512801,12.4,knots,OK,110.0,degrees,OK,23.6,knots,OK,21.6,°C,OK,17.0,°C,OK,1013.3,hPa,OK,5548.0,meters,OK,2180.0,feet,OK,0.3,mm/hr,OK,1996.0,meters,OK,1810.0,meters,OK,1972.0,meters,OK
2025-01-26T19:57:10.517725,6.7,knots,OK,232.0,degrees,OK,12.9,knots,OK,19.3,°C,OK,12.8,°C,OK,1014.4,hPa,OK,7038.0,meters,OK,2907.0,feet,OK,0.3,mm/hr,OK,1577.0,meters,OK,1687.0,meters,OK,1974.0,meters,OK
2025-01-26T19:57:11.521754,12.9,knots,OK,125.0,degrees,OK,16.2,knots,OK,20.6,°C,OK,14.2,°C,OK,1014.1,hPa,OK,5675.0,meters,OK,1659.0,feet,OK,0.1,mm/hr,OK,1564.0,meters,OK,1547.0,meters,OK,1932.0,meters,OK
2025-01-26T19:57:12.526419,11.7,knots,OK,140.0,degrees,OK,12.6,knots,OK,16.3,°C,OK,14.7,°C,OK,1013.8,hPa,OK,6293.0,meters,OK,2530.0,feet,OK,0.1,mm/hr,OK,1652.0,meters,OK,1955.0,meters,OK,1565.0,meters,OK
2025-01-26T19:57:13.530098,13.2,knots,OK,46.0,degrees,OK,15.5,knots,OK,19.0,°C,OK,16.1,°C,OK,1014.6,hPa,OK,6894.0,meters,OK,2027.0,feet,OK,0.1,mm/hr,OK,1777.0,meters,OK,1510.0,meters,OK,1922.0,meters,OK
2025-01-26T19:57:14.533737,13.8,knots,OK,72.0,degrees,OK,24.3,knots,OK,17.0,°C,OK,17.1,°C,OK,1014.8,hPa,OK,9968.0,meters,OK,2535.0,feet,OK,0.3,mm/hr,OK,1912.0,meters,OK,1525.0,meters,OK,1657.0,meters,OK
2025-01-26T19:57:15.538621,9.1,knots,OK,10.0,degrees,OK,16.4,knots,OK,19.2,°C,OK,15.6,°C,OK,1014.9,hPa,OK,7048.0,meters,OK,1007.0,feet,OK,0.3,mm/hr,OK,1553.0,meters,OK,1769.0,meters,OK,1892.0,meters,OK
2025-01-26T19:57:16.543859,5.8,knots,OK,97.0,degrees,OK,15.6,knots,OK,17.6,°C,OK,14.8,°C,OK,1013.6,hPa,OK,8986.0,meters,OK,2192.0,feet,OK,0.1,mm/hr,OK,1757.0,meters,OK,1933.0,meters,OK,1741.0,meters,OK
2025-01-26T19:57:17.547681,8.0,knots,OK,246.0,degrees,OK,23.6,knots,OK,17.3,°C,OK,16.6,°C,OK,1013.0,hPa,OK,6661.0,meters,OK,2241.0,feet,OK,0.4,mm/hr,OK,1596.0,meters,OK,1914.0,meters,OK,1801.0,meters,OK
2025-01-26T19:57:18.551571,13.4,knots,OK,8.0,degrees,OK,16.0,knots,OK,20.3,°C,OK,19.3,°C,OK,1014.7,hPa,OK,5206.0,meters,OK,2976.0,feet,OK,0.2,mm/hr,OK,1691.0,meters,OK,1637.0,meters,OK,1500.0,meters,OK
2025-01-26T19:57:19.555858,7.4,knots,OK,66.0,degrees,OK,19.0,knots,OK,15.6,°C,OK,19.5,°C,OK,1013.8,hPa,OK,6190.0,meters,OK,1942.0,feet,OK,0.2,mm/hr,OK,1754.0,meters,OK,1627.0,meters,OK,1504.0,meters,OK
2025-01-26T19:57:20.560238,6.9,knots,OK,212.0,degrees,OK,12.5,knots,OK,19.7,°C,OK,18.0,°C,OK,1014.7,hPa,OK,8652.0,meters,OK,2547.0,feet,OK,0.3,mm/hr,OK,1877.0,meters,OK,1711.0,meters,OK,1649.0,meters,OK
2025-01-26T19:57:21.564384,6.7,knots,OK,208.0,degrees,OK,12.9,knots,OK,21.6,°C,OK,10.2,°C,OK,1014.5,hPa,OK,5900.0,meters,OK,1124.0,feet,OK,0.4,mm/hr,OK,1613.0,meters,OK,1711.0,meters,OK,1712.0,meters,OK
2025-01-26T19:57:22.569527,13.6,knots,OK,270.0,degrees,OK,20.3,knots,OK,17.3,°C,OK,14.8,°C,OK,1014.4,hPa,OK,8261.0,meters,OK,2214.0,feet,OK,0.4,mm/hr,OK,1691.0,meters,OK,1676.0,meters,OK,1638.0,meters,OK
2025-01-26T19:57:23.573270,10.7,knots,OK,23.0,degrees,OK,12.8,knots,OK,23.8,°C,OK,16.7,°C,OK,1013.7,hPa,OK,9312.0,meters,OK,2995.0,feet,OK,0.0,mm/hr,OK,1562.0,meters,OK,1569.0,meters,OK,1735.0,meters,OK
2025-01-26T19:57:24.577015,7.3,knots,OK,92.0,degrees,OK,10.3,knots,OK,16.8,°C,OK,12.5,°C,OK,1013.1,hPa,OK,7825.0,meters,OK,2237.0,feet,OK,0.1,mm/hr,OK,1617.0,meters,OK,1714.0,meters,OK,1976.0,meters,OK
2025-01-26T19:57:25.581094,6.3,knots,OK,248.0,degrees,OK,15.9,knots,OK,24.9,°C,OK,12.0,°C,OK,1013.3,hPa,OK,6122.0,meters,OK,1833.0,feet,OK,0.0,mm/hr,OK,1945.0,meters,OK,1631.0,meters,OK,1791.0,meters,OK
2025-01-26T19:57:26.586152,8.1,knots,OK,129.0,degrees,OK,15.7,knots,OK,23.1,°C,OK,16.9,°C,OK,1015.0,hPa,OK,7340.0,meters,OK,1907.0,feet,OK,0.1,mm/hr,OK,1779.0,meters,OK,1618.0,meters,OK,1508.0,meters,OK
2025-01-26T19:57:27.590393,13.4,knots,OK,326.0,degrees,OK,23.4,knots,OK,24.8,°C,OK,17.0,°C,OK,1014.1,hPa,OK,9514.0,meters,OK,1395.0,feet,OK,0.3,mm/hr,OK,1582.0,meters,OK,1716.0,meters,OK,1536.0,meters,OK
2025-01-26T19:57:28.595210,13.5,knots,OK,113.0,degrees,OK,17.0,knots,OK,16.3,°C,OK,13.7,°C,OK,1013.2,hPa,OK,5566.0,meters,OK,2034.0,feet,OK,0.0,mm/hr,OK,1709.0,meters,OK,1517.0,meters,OK,1949.0,meters,OK
2025-01-26T19:57:29.600528,13.0,knots,OK,41.0,degrees,OK,21.7,knots,OK,18.2,°C,OK,14.7,°C,OK,1014.8,hPa,OK,6705.0,meters,OK,1166.0,feet,OK,0.0,mm/hr,OK,1768.0,meters,OK,1837.0,meters,OK,1726.0,meters,OK
2025-01-26T19:57:30.605465,7.5,knots,OK,64.0,degrees,OK,19.5,knots,OK,20.9,°C,OK,18.9,°C,OK,1013.8,hPa,OK,5504.0,meters,OK,1358.0,feet,OK,0.4,mm/hr,OK,1695.0,meters,OK,1581.0,meters,OK,1672.0,meters,OK
2025-01-26T19:57:31.609946,14.0,knots,OK,253.0,degrees,OK,18.8,knots,OK,24.9,°C,OK,12.8,°C,OK,1014.2,hPa,OK,6989.0,meters,OK,1020.0,feet,OK,0.1,mm/hr,OK,1772.0,meters,OK,1505.0,meters,OK,1647.0,meters,OK
2025-01-26T19:57:32.615348,7.5,knots,OK,285.0,degrees,OK,12.4,knots,OK,24.3,°C,OK,17.8,°C,OK,1013.9,hPa,OK,9909.0,meters,OK,2544.0,feet,OK,0.3,mm/hr,OK,1645.0,meters,OK,1935.0,meters,OK,1768.0,meters,OK
2025-01-26T19:57:33.620420,11.0,knots,OK,57.0,degrees,OK,15.2,knots,OK,17.3,°C,OK,11.3,°C,OK,1013.7,hPa,OK,8291.0,meters,OK,1335.0,feet,OK,0.0,mm/hr,OK,1751.0,meters,OK,1938.0,meters,OK,1849.0,meters,OK
2025-01-26T19:57:34.624171,14.0,knots,OK,235.0,degrees,OK,14.8,knots,OK,22.6,°C,OK,18.2,°C,OK,1014.4,hPa,OK,7617.0,meters,OK,1604.0,feet,OK,0.0,mm/hr,OK,1745.0,meters,OK,1589.0,meters,OK,1834.0,meters,OK
2025-01-26T19:57:35.628130,7.9,knots,OK,159.0,degrees,OK,14.3,knots,OK,20.3,°C,OK,19.4,°C,OK,1014.4,hPa,OK,8880.0,meters,OK,2314.0,feet,OK,0.2,mm/hr,OK,1597.0,meters,OK,1592.0,meters,OK,1833.0,meters,OK
2025-01-26T19:57:36.632365,8.4,knots,OK,129.0,degrees,OK,10.7,knots,OK,16.6,°C,OK,15.8,°C,OK,1013.8,hPa,OK,8065.0,meters,OK,2519.0,feet,OK,0.2,mm/hr,OK,1651.0,meters,OK,1927.0,meters,OK,1824.0,meters,OK
2025-01-26T19:57:37.636088,5.5,knots,OK,9.0,degrees,OK,24.2,knots,OK,16.8,°C,OK,15.9,°C,OK,1014.9,hPa,OK,9585.0,meters,OK,1365.0,feet,OK,0.5,mm/hr,OK,1506.0,meters,OK,1858.0,meters,OK,1555.0,meters,OK
2025-01-26T19:57:38.640395,10.1,knots,OK,70.0,degrees,OK,24.2,knots,OK,19.2,°C,OK,14.4,°C,OK,1014.2,hPa,OK,9548.0,meters,OK,2434.0,feet,OK,0.1,mm/hr,OK,1977.0,meters,OK,1563.0,meters,OK,1924.0,meters,OK
2025-01-26T19:57:39.644891,6.3,knots,OK,183.0,degrees,OK,20.2,knots,OK,22.4,°C,OK,19.4,°C,OK,1014.6,hPa,OK,6282.0,meters,OK,1655.0,feet,OK,0.0,mm/hr,OK,1571.0,meters,OK,1665.0,meters,OK,1975.0,meters,OK
2025-01-26T19:57:40.650458,14.0,knots,OK,262.0,degrees,OK,14.7,knots,OK,23.7,°C,OK,13.1,°C,OK,1013.6,hPa,OK,8084.0,meters,OK,2392.0,feet,OK,0.3,mm/hr,OK,1531.0,meters,OK,1835.0,meters,OK,1527.0,meters,OK
2025-01-26T19:57:41.655131,8.9,knots,OK,296.0,degrees,OK,13.3,knots,OK,15.3,°C,OK,17.5,°C,OK,1013.0,hPa,OK,6871.0,meters,OK,2346.0,feet,OK,0.1,mm/hr,OK,1826.0,meters,OK,1778.0,meters,OK,1884.0,meters,OK
2025-01-26T19:57:42.659829,10.1,knots,OK,193.0,degrees,OK,13.1,knots,OK,19.7,°C,OK,18.3,°C,OK,1013.7,hPa,OK,9685.0,meters,OK,1186.0,feet,OK,0.4,mm/hr,OK,1707.0,meters,OK,1503.0,meters,OK,1553.0,meters,OK
2025-01-26T19:57:43.663795,10.6,knots,OK,54.0,degrees,OK,14.1,knots,OK,17.9,°C,OK,15.5,°C,OK,1014.6,hPa,OK,9954.0,meters,OK,1050.0,feet,OK,0.2,mm/hr,OK,1901.0,meters,OK,1908.0,meters,OK,1800.0,meters,OK
2025-01-26T19:57:44.668126,11.6,knots,OK,19.0,degrees,OK,20.1,knots,OK,21.7,°C,OK,12.9,°C,OK,1015.0,hPa,OK,9543.0,meters,OK,2839.0,feet,OK,0.3,mm/hr,OK,1610.0,meters,OK,1690.0,meters,OK,1898.0,meters,OK
2025-01-26T19:57:45.673174,14.8,knots,OK,333.0,degrees,OK,10.7,knots,OK,15.4,°C,OK,13.0,°C,OK,1014.9,hPa,OK,8746.0,meters,OK,2349.0,feet,OK,0.4,mm/hr,OK,1772.0,meters,OK,1801.0,meters,OK,1848.0,meters,OK
2025-01-26T19:57:46.679214,9.9,knots,OK,179.0,degrees,OK,15.0,knots,OK,18.7,°C,OK,12.3,°C,OK,1013.4,hPa,OK,8442.0,meters,OK,2014.0,feet,OK,0.4,mm/hr,OK,1686.0,meters,OK,1518.0,meters,OK,1692.0,meters,OK
2025-01-26T19:57:47.683806,10.9,knots,OK,8.0,degrees,OK,17.4,knots,OK,15.1,°C,OK,18.8,°C,OK,1013.3,hPa,OK,5507.0,meters,OK,1825.0,feet,OK,0.4,mm/hr,OK,1955.0,meters,OK,1617.0,meters,OK,1887.0,meters,OK
2025-01-26T19:57:48.688121,6.5,knots,OK,95.0,degrees,OK,20.9,knots,OK,20.8,°C,OK,17.8,°C,OK,1014.6,hPa,OK,6003.0,meters,OK,1850.0,feet,OK,0.4,mm/hr,OK,1807.0,meters,OK,1520.0,meters,OK,1524.0,meters,OK
2025-01-26T19:57:49.691633,11.0,knots,OK,30.0,degrees,OK,14.5,knots,OK,24.6,°C,OK,16.6,°C,OK,1013.3,hPa,OK,7689.0,meters,OK,1386.0,feet,OK,0.4,mm/hr,OK,1915.0,meters,OK,1954.0,meters,OK,1596.0,meters,OK
2025-01-26T19:57:50.696352,6.1,knots,OK,238.0,degrees,OK,18.6,knots,OK,17.0,°C,OK,13.1,°C,OK,1013.0,hPa,OK,5511.0,meters,OK,2061.0,feet,OK,0.4,mm/hr,OK,1864.0,meters,OK,1806.0,meters,OK,1983.0,meters,OK
2025-01-26T19:57:51.701383,12.7,knots,OK,179.0,degrees,OK,19.5,knots,OK,19.1,°C,OK,18.7,°C,OK,1014.2,hPa,OK,7597.0,meters,OK,1922.0,feet,OK,0.3,mm/hr,OK,1769.0,meters,OK,1624.0,meters,OK,1875.0,meters,OK
2025-01-26T19:57:52.705796,5.0,knots,OK,138.0,degrees,OK,13.6,knots,OK,15.3,°C,OK,10.6,°C,OK,1014.9,hPa,OK,7837.0,meters,OK,2001.0,feet,OK,0.2,mm/hr,OK,1893.0,meters,OK,1791.0,meters,OK,1581.0,meters,OK
2025-01-26T19:57:53.710851,14.2,knots,OK,358.0,degrees,OK,12.8,knots,OK,15.1,°C,OK,15.3,°C,OK,1013.0,hPa,OK,9201.0,meters,OK,1372.0,feet,OK,0.2,mm/hr,OK,1730.0,meters,OK,1507.0,meters,OK,1519.0,meters,OK
2025-01-26T19:57:54.715208,6.3,knots,OK,273.0,degrees,OK,19.2,knots,OK,17.0,°C,OK,15.6,°C,OK,1014.1,hPa,OK,6666.0,meters,OK,1445.0,feet,OK,0.1,mm/hr,OK,1979.0,meters,OK,1676.0,meters,OK,1699.0,meters,OK
2025-01-26T19:57:55.719211,12.2,knots,OK,261.0,degrees,OK,13.9,knots,OK,23.9,°C,OK,14.5,°C,OK,1013.6,hPa,OK,9609.0,meters,OK,1644.0,feet,OK,0.4,mm/hr,OK,1905.0,meters,OK,1699.0,meters,OK,1999.0,meters,OK
2025-01-26T19:57:56.723294,5.3,knots,OK,41.0,degrees,OK,15.2,knots,OK,18.0,°C,OK,16.1,°C,OK,1013.0,hPa,OK,9760.0,meters,OK,1459.0,feet,OK,0.2,mm/hr,OK,1937.0,meters,OK,1662.0,meters,OK,1752.0,meters,OK
2025-01-26T19:57:57.728152,5.7,knots,OK,268.0,degrees,OK,15.2,knots,OK,15.6,°C,OK,15.2,°C,OK,1013.7,hPa,OK,7832.0,meters,OK,2013.0,feet,OK,0.1,mm/hr,OK,1689.0,meters,OK,1727.0,meters,OK,1901.0,meters,OK
2025-01-26T19:57:58.732711,5.8,knots,OK,193.0,degrees,OK,16.1,knots,OK,22.6,°C,OK,18.5,°C,OK,1015.0,hPa,OK,6389.0,meters,OK,2395.0,feet,OK,0.1,mm/hr,OK,1928.0,meters,OK,1785.0,meters,OK,1716.0,meters,OK
2025-01-26T19:57:59.736450,9.3,knots,OK,242.0,degrees,OK,15.0,knots,OK,22.5,°C,OK,11.1,°C,OK,1014.8,hPa,OK,6349.0,meters,OK,1830.0,feet,OK,0.5,mm/hr,OK,1513.0,meters,OK,1575.0,meters,OK,1802.0,meters,OK
2025-01-26T19:58:00.740268,10.9,knots,OK,30.0,degrees,OK,17.4,knots,OK,15.0,°C,OK,10.3,°C,OK,1014.0,hPa,OK,7042.0,meters,OK,2824.0,feet,OK,0.2,mm/hr,OK,1737.0,meters,OK,1710.0,meters,OK,1554.0,meters,OK
2025-01-26T19:58:01.746683,11.7,knots,OK,92.0,degrees,OK,21.7,knots,OK,16.9,°C,OK,14.8,°C,OK,1014.7,hPa,OK,9362.0,meters,OK,1256.0,feet,OK,0.1,mm/hr,OK,1836.0,meters,OK,1674.0,meters,OK,1512.0,meters,OK
2025-01-26T19:58:02.751544,13.7,knots,OK,35.0,degrees,OK,23.7,knots,OK,19.0,°C,OK,18.6,°C,OK,1013.7,hPa,OK,9955.0,meters,OK,2461.0,feet,OK,0.1,mm/hr,OK,1918.0,meters,OK,1635.0,meters,OK,1726.0,meters,OK
2025-01-26T19:58:03.755671,14.3,knots,OK,297.0,degrees,OK,21.5,knots,OK,19.6,°C,OK,16.1,°C,OK,1014.5,hPa,OK,6291.0,meters,OK,1611.0,feet,OK,0.4,mm/hr,OK,1672.0,meters,OK,1861.0,meters,OK,1501.0,meters,OK
2025-01-26T19:58:04.760844,9.2,knots,OK,324.0,degrees,OK,18.6,knots,OK,24.4,°C,OK,14.4,°C,OK,1014.5,hPa,OK,5597.0,meters,OK,2538.0,feet,OK,0.4,mm/hr,OK,1985.0,meters,OK,1933.0,meters,OK,1976.0,meters,OK
2025-01-26T19:58:05.766202,10.6,knots,OK,170.0,degrees,OK,10.0,knots,OK,20.1,°C,OK,11.4,°C,OK,1014.6,hPa,OK,5928.0,meters,OK,2566.0,feet,OK,0.0,mm/hr,OK,1658.0,meters,OK,1837.0,meters,OK,1689.0,meters,OK
2025-01-26T19:58:06.771494,5.3,knots,OK,206.0,degrees,OK,17.2,knots,OK,19.6,°C,OK,14.5,°C,OK,1014.2,hPa,OK,7180.0,meters,OK,2089.0,feet,OK,0.4,mm/hr,OK,1762.0,meters,OK,1523.0,meters,OK,1724.0,meters,OK
2025-01-26T19:58:07.775579,8.7,knots,OK,292.0,degrees,OK,20.8,knots,OK,20.2,°C,OK,19.3,°C,OK,1013.0,hPa,OK,7982.0,meters,OK,2800.0,feet,OK,0.1,mm/hr,OK,1647.0,meters,OK,1917.0,meters,OK,1967.0,meters,OK
2025-01-26T19:58:08.779503,5.3,knots,OK,187.0,degrees,OK,18.8,knots,OK,18.9,°C,OK,10.4,°C,OK,1014.8,hPa,OK,9809.0,meters,OK,1735.0,feet,OK,0.3,mm/hr,OK,1964.0,meters,OK,1782.0,meters,OK,1998.0,meters,OK
2025-01-26T19:58:09.783340,8.1,knots,OK,217.0,degrees,OK,19.4,knots,OK,23.2,°C,OK,10.9,°C,OK,1013.1,hPa,OK,6600.0,meters,OK,1460.0,feet,OK,0.0,mm/hr,OK,1570.0,meters,OK,1852.0,meters,OK,1689.0,meters,OK
2025-01-26T19:58:10.788133,6.1,knots,OK,130.0,degrees,OK,19.9,knots,OK,19.0,°C,OK,17.9,°C,OK,1013.4,hPa,OK,5372.0,meters,OK,2959.0,feet,OK,0.3,mm/hr,OK,1952.0,meters,OK,1546.0,meters,OK,1855.0,meters,OK
2025-01-26T19:58:11.792749,12.6,knots,OK,337.0,degrees,OK,13.9,knots,OK,24.6,°C,OK,13.7,°C,OK,1015.0,hPa,OK,8662.0,meters,OK,2379.0,feet,OK,0.4,mm/hr,OK,1970.0,meters,OK,1765.0,meters,OK,1579.0,meters,OK
2025-01-26T19:58:12.797689,10.2,knots,OK,22.0,degrees,OK,22.4,knots,OK,22.8,°C,OK,18.9,°C,OK,1014.3,hPa,OK,9969.0,meters,OK,2321.0,feet,OK,0.2,mm/hr,OK,1869.0,meters,OK,1883.0,meters,OK,1788.0,meters,OK
2025-01-26T19:58:13.802390,9.6,knots,OK,78.0,degrees,OK,24.6,knots,OK,24.8,°C,OK,14.9,°C,OK,1013.4,hPa,OK,8930.0,meters,OK,2555.0,feet,OK,0.3,mm/hr,OK,1725.0,meters,OK,1603.0,meters,OK,1709.0,meters,OK
2025-01-26T19:58:14.806433,6.9,knots,OK,185.0,degrees,OK,14.8,knots,OK,19.9,°C,OK,10.6,°C,OK,1014.9,hPa,OK,5371.0,meters,OK,1072.0,feet,OK,0.3,mm/hr,OK,1666.0,meters,OK,1716.0,meters,OK,1538.0,meters,OK
2025-01-26T19:58:15.809918,8.6,knots,OK,3.0,degrees,OK,19.4,knots,OK,17.2,°C,OK,16.7,°C,OK,1014.2,hPa,OK,7161.0,meters,OK,1270.0,feet,OK,0.4,mm/hr,OK,1570.0,meters,OK,1779.0,meters,OK,1957.0,meters,OK
2025-01-26T19:58:16.813450,7.4,knots,OK,168.0,degrees,OK,22.9,knots,OK,17.5,°C,OK,13.0,°C,OK,1014.7,hPa,OK,9508.0,meters,OK,2102.0,feet,OK,0.4,mm/hr,OK,1610.0,meters,OK,1603.0,meters,OK,1631.0,meters,OK
2025-01-26T19:58:17.816990,8.0,knots,OK,269.0,degrees,OK,16.5,knots,OK,15.0,°C,OK,14.2,°C,OK,1013.1,hPa,OK,7092.0,meters,OK,2238.0,feet,OK,0.5,mm/hr,OK,1686.0,meters,OK,1867.0,meters,OK,1937.0,meters,OK
2025-01-26T19:58:18.822132,7.4,knots,OK,145.0,degrees,OK,18.3,knots,OK,19.2,°C,OK,20.0,°C,OK,1014.2,hPa,OK,5187.0,meters,OK,2685.0,feet,OK,0.3,mm/hr,OK,1982.0,meters,OK,1857.0,meters,OK,1794.0,meters,OK
2025-01-26T19:58:19.827086,9.4,knots,OK,77.0,degrees,OK,21.0,knots,OK,16.4,°C,OK,11.8,°C,OK,1013.9,hPa,OK,8371.0,meters,OK,2346.0,feet,OK,0.0,mm/hr,OK,1817.0,meters,OK,1791.0,meters,OK,1955.0,meters,OK
2025-01-26T19:58:20.830702,11.9,knots,OK,63.0,degrees,OK,19.8,knots,OK,18.4,°C,OK,15.9,°C,OK,1014.3,hPa,OK,7410.0,meters,OK,2324.0,feet,OK,0.2,mm/hr,OK,1909.0,meters,OK,1768.0,meters,OK,1653.0,meters,OK
2025-01-26T19:58:21.833822,10.4,knots,OK,335.0,degrees,OK,22.4,knots,OK,16.7,°C,OK,18.6,°C,OK,1013.4,hPa,OK,7026.0,meters,OK,2514.0,feet,OK,0.4,mm/hr,OK,1511.0,meters,OK,1844.0,meters,OK,1524.0,meters,OK
2025-01-26T19:58:22.838220,9.8,knots,OK,339.0,degrees,OK,15.5,knots,OK,24.3,°C,OK,14.2,°C,OK,1014.8,hPa,OK,6104.0,meters,OK,1679.0,feet,OK,0.3,mm/hr,OK,1529.0,meters,OK,1946.0,meters,OK,1868.0,meters,OK
2025-01-26T19:58:23.842728,9.0,knots,OK,266.0,degrees,OK,21.7,knots,OK,21.9,°C,OK,14.4,°C,OK,1014.5,hPa,OK,8810.0,meters,OK,2680.0,feet,OK,0.2,mm/hr,OK,1696.0,meters,OK,1719.0,meters,OK,1816.0,meters,OK
2025-01-26T19:58:24.847337,9.2,knots,OK,221.0,degrees,OK,17.6,knots,OK,21.9,°C,OK,15.2,°C,OK,1014.2,hPa,OK,8699.0,meters,OK,2862.0,feet,OK,0.3,mm/hr,OK,1637.0,meters,OK,1789.0,meters,OK,1982.0,meters,OK
2025-01-26T19:58:25.852364,7.7,knots,OK,160.0,degrees,OK,11.9,knots,OK,24.0,°C,OK,15.3,°C,OK,1014.9,hPa,OK,6953.0,meters,OK,2044.0,feet,OK,0.4,mm/hr,OK,1803.0,meters,OK,1676.0,meters,OK,1912.0,meters,OK
2025-01-26T19:58:26.856570,9.7,knots,OK,131.0,degrees,OK,10.9,knots,OK,15.6,°C,OK,12.8,°C,OK,1014.9,hPa,OK,9487.0,meters,OK,2020.0,feet,OK,0.3,mm/hr,OK,1649.0,meters,OK,1678.0,meters,OK,1784.0,meters,OK
2025-01-26T19:58:27.861106,11.0,knots,OK,338.0,degrees,OK,16.4,knots,OK,19.5,°C,OK,13.6,°C,OK,1014.7,hPa,OK,7882.0,meters,OK,2742.0,feet,OK,0.4,mm/hr,OK,1570.0,meters,OK,1525.0,meters,OK,1589.0,meters,OK
2025-01-26T19:58:28.865561,7.7,knots,OK,338.0,degrees,OK,19.9,knots,OK,24.1,°C,OK,16.4,°C,OK,1013.1,hPa,OK,9113.0,meters,OK,1907.0,feet,OK,0.0,mm/hr,OK,1710.0,meters,OK,1775.0,meters,OK,1757.0,meters,OK
2025-01-26T19:58:29.870424,14.4,knots,OK,333.0,degrees,OK,20.5,knots,OK,19.4,°C,OK,15.0,°C,OK,1014.0,hPa,OK,9904.0,meters,OK,1057.0,feet,OK,0.4,mm/hr,OK,1669.0,meters,OK,1546.0,meters,OK,1725.0,meters,OK
2025-01-26T19:58:30.874117,10.6,knots,OK,2.0,degrees,OK,21.4,knots,OK,20.9,°C,OK,15.2,°C,OK,1013.1,hPa,OK,5336.0,meters,OK,2609.0,feet,OK,0.5,mm/hr,OK,1697.0,meters,OK,1534.0,meters,OK,1751.0,meters,OK
2025-01-26T19:58:31.877995,5.8,knots,OK,179.0,degrees,OK,20.5,knots,OK,23.8,°C,OK,19.4,°C,OK,1013.0,hPa,OK,5205.0,meters,OK,2015.0,feet,OK,0.2,mm/hr,OK,1564.0,meters,OK,1784.0,meters,OK,1865.0,meters,OK
2025-01-26T19:58:32.883326,15.0,knots,OK,334.0,degrees,OK,15.2,knots,OK,21.7,°C,OK,15.4,°C,OK,1014.4,hPa,OK,9758.0,meters,OK,2267.0,feet,OK,0.5,mm/hr,OK,1620.0,meters,OK,1640.0,meters,OK,1540.0,meters,OK
2025-01-26T19:58:33.888075,8.5,knots,OK,324.0,degrees,OK,23.2,knots,OK,21.8,°C,OK,19.7,°C,OK,1014.2,hPa,OK,5019.0,meters,OK,2327.0,feet,OK,0.5,mm/hr,OK,1818.0,meters,OK,1812.0,meters,OK,1661.0,meters,OK
2025-01-26T19:58:34.892860,8.6,knots,OK,4.0,degrees,OK,16.3,knots,OK,17.5,°C,OK,14.8,°C,OK,1014.0,hPa,OK,5033.0,meters,OK,2307.0,feet,OK,0.2,mm/hr,OK,1751.0,meters,OK,1647.0,meters,OK,1970.0,meters,OK
2025-01-26T19:58:35.896851,5.3,knots,OK,40.0,degrees,OK,13.7,knots,OK,22.3,°C,OK,17.6,°C,OK,1014.4,hPa,OK,9827.0,meters,OK,2361.0,feet,OK,0.0,mm/hr,OK,1871.0,meters,OK,1575.0,meters,OK,1621.0,meters,OK
2025-01-26T19:58:36.901056,14.3,knots,OK,236.0,degrees,OK,12.6,knots,OK,23.6,°C,OK,19.6,°C,OK,1014.9,hPa,OK,5362.0,meters,OK,2141.0,feet,OK,0.2,mm/hr,OK,1673.0,meters,OK,1797.0,meters,OK,1943.0,meters,OK
2025-01-26T19:58:37.905826,8.7,knots,OK,180.0,degrees,OK,23.4,knots,OK,18.2,°C,OK,18.3,°C,OK,1014.2,hPa,OK,7676.0,meters,OK,1142.0,feet,OK,0.1,mm/hr,OK,1980.0,meters,OK,1826.0,meters,OK,1993.0,meters,OK
2025-01-26T19:58:38.911659,11.1,knots,OK,355.0,degrees,OK,14.3,knots,OK,19.3,°C,OK,14.5,°C,OK,1014.5,hPa,OK,6560.0,meters,OK,2866.0,feet,OK,0.0,mm/hr,OK,1712.0,meters,OK,1518.0,meters,OK,1592.0,meters,OK
2025-01-26T19:58:39.916484,12.3,knots,OK,317.0,degrees,OK,13.4,knots,OK,18.9,°C,OK,11.3,°C,OK,1013.2,hPa,OK,5130.0,meters,OK,2869.0,feet,OK,0.3,mm/hr,OK,1761.0,meters,OK,1918.0,meters,OK,1953.0,meters,OK
2025-01-26T19:58:40.920703,14.1,knots,OK,30.0,degrees,OK,15.0,knots,OK,22.6,°C,OK,12.4,°C,OK,1013.2,hPa,OK,6817.0,meters,OK,2088.0,feet,OK,0.3,mm/hr,OK,1685.0,meters,OK,1956.0,meters,OK,1955.0,meters,OK
2025-01-26T19:58:41.925627,12.4,knots,OK,184.0,degrees,OK,21.1,knots,OK,25.0,°C,OK,15.1,°C,OK,1014.8,hPa,OK,9172.0,meters,OK,2207.0,feet,OK,0.3,mm/hr,OK,1722.0,meters,OK,1621.0,meters,OK,1943.0,meters,OK
2025-01-26T19:58:42.930157,10.6,knots,OK,57.0,degrees,OK,21.0,knots,OK,16.6,°C,OK,16.2,°C,OK,1013.9,hPa,OK,6346.0,meters,OK,2291.0,feet,OK,0.2,mm/hr,OK,1616.0,meters,OK,1625.0,meters,OK,1726.0,meters,OK
2025-01-26T19:58:43.934561,7.4,knots,OK,348.0,degrees,OK,10.4,knots,OK,19.9,°C,OK,14.5,°C,OK,1013.4,hPa,OK,6564.0,meters,OK,1227.0,feet,OK,0.2,mm/hr,OK,1968.0,meters,OK,1641.0,meters,OK,1814.0,meters,OK
2025-01-26T19:58:44.939159,7.1,knots,OK,245.0,degrees,OK,17.2,knots,OK,19.9,°C,OK,15.2,°C,OK,1014.5,hPa,OK,7803.0,meters,OK,1456.0,feet,OK,0.1,mm/hr,OK,1793.0,meters,OK,1560.0,meters,OK,1849.0,meters,OK
2025-01-26T19:58:45.943731,14.3,knots,OK,282.0,degrees,OK,24.8,knots,OK,19.8,°C,OK,15.0,°C,OK,1014.0,hPa,OK,8841.0,meters,OK,1545.0,feet,OK,0.2,mm/hr,OK,1705.0,meters,OK,1690.0,meters,OK,1661.0,meters,OK
2025-01-26T19:58:46.947167,5.9,knots,OK,105.0,degrees,OK,14.7,knots,OK,19.6,°C,OK,17.1,°C,OK,1014.9,hPa,OK,8919.0,meters,OK,2678.0,feet,OK,0.4,mm/hr,OK,1857.0,meters,OK,1558.0,meters,OK,1558.0,meters,OK
2025-01-26T19:58:47.951620,11.6,knots,OK,277.0,degrees,OK,18.5,knots,OK,17.1,°C,OK,19.8,°C,OK,1014.0,hPa,OK,7148.0,meters,OK,1550.0,feet,OK,0.3,mm/hr,OK,1806.0,meters,OK,1891.0,meters,OK,1644.0,meters,OK
2025-01-26T19:58:48.957119,6.4,knots,OK,134.0,degrees,OK,13.9,knots,OK,22.0,°C,OK,13.5,°C,OK,1014.9,hPa,OK,6954.0,meters,OK,1192.0,feet,OK,0.2,mm/hr,OK,1885.0,meters,OK,1610.0,meters,OK,1754.0,meters,OK
2025-01-26T19:58:49.961432,6.6,knots,OK,171.0,degrees,OK,14.9,knots,OK,21.6,°C,OK,16.2,°C,OK,1014.7,hPa,OK,7664.0,meters,OK,2895.0,feet,OK,0.2,mm/hr,OK,1649.0,meters,OK,1782.0,meters,OK,1982.0,meters,OK
2025-01-26T19:58:50.966059,5.7,knots,OK,245.0,degrees,OK,14.6,knots,OK,19.4,°C,OK,14.2,°C,OK,1013.1,hPa,OK,9056.0,meters,OK,2443.0,feet,OK,0.5,mm/hr,OK,1752.0,meters,OK,1801.0,meters,OK,1603.0,meters,OK
2025-01-26T19:58:51.971549,14.0,knots,OK,217.0,degrees,OK,17.9,knots,OK,24.7,°C,OK,18.3,°C,OK,1013.9,hPa,OK,8822.0,meters,OK,2207.0,feet,OK,0.0,mm/hr,OK,1868.0,meters,OK,1588.0,meters,OK,1598.0,meters,OK
2025-01-26T19:58:52.975805,11.1,knots,OK,346.0,degrees,OK,11.3,knots,OK,19.2,°C,OK,14.0,°C,OK,1014.4,hPa,OK,8540.0,meters,OK,1787.0,feet,OK,0.0,mm/hr,OK,1850.0,meters,OK,1710.0,meters,OK,1526.0,meters,OK
2025-01-26T19:58:53.980214,7.3,knots,OK,216.0,degrees,OK,23.7,knots,OK,22.0,°C,OK,10.6,°C,OK,1013.5,hPa,OK,6107.0,meters,OK,1315.0,feet,OK,0.3,mm/hr,OK,1917.0,meters,OK,1982.0,meters,OK,1812.0,meters,OK
2025-01-26T19:58:54.984020,15.0,knots,OK,47.0,degrees,OK,13.9,knots,OK,23.7,°C,OK,16.7,°C,OK,1014.3,hPa,OK,6149.0,meters,OK,1180.0,feet,OK,0.4,mm/hr,OK,1912.0,meters,OK,1760.0,meters,OK,1727.0,meters,OK
2025-01-26T19:58:55.988155,5.7,knots,OK,255.0,degrees,OK,22.3,knots,OK,19.3,°C,OK,16.8,°C,OK,1013.1,hPa,OK,6741.0,meters,OK,1878.0,feet,OK,0.1,mm/hr,OK,1519.0,meters,OK,1815.0,meters,OK,1633.0,meters,OK
2025-01-26T19:58:56.992948,6.2,knots,OK,278.0,degrees,OK,11.3,knots,OK,21.1,°C,OK,17.1,°C,OK,1013.5,hPa,OK,8654.0,meters,OK,2058.0,feet,OK,0.5,mm/hr,OK,1502.0,meters,OK,1537.0,meters,OK,1806.0,meters,OK
2025-01-26T19:58:57.997741,11.9,knots,OK,108.0,degrees,OK,13.2,knots,OK,16.7,°C,OK,18.3,°C,OK,1013.1,hPa,OK,5310.0,meters,OK,2746.0,feet,OK,0.2,mm/hr,OK,1668.0,meters,OK,1822.0,meters,OK,1612.0,meters,OK
2025-01-26T19:58:59.002148,13.0,knots,OK,335.0,degrees,OK,17.2,knots,OK,21.2,°C,OK,16.3,°C,OK,1013.8,hPa,OK,6631.0,meters,OK,2397.0,feet,OK,0.3,mm/hr,OK,1727.0,meters,OK,1775.0,meters,OK,1827.0,meters,OK
2025-01-26T19:59:00.006509,6.7,knots,OK,249.0,degrees,OK,16.7,knots,OK,24.8,°C,OK,17.7,°C,OK,1014.5,hPa,OK,6977.0,meters,OK,2472.0,feet,OK,0.5,mm/hr,OK,1735.0,meters,OK,1905.0,meters,OK,1916.0,meters,OK
2025-01-26T19:59:01.010462,6.0,knots,OK,144.0,degrees,OK,20.9,knots,OK,22.7,°C,OK,13.7,°C,OK,1013.1,hPa,OK,9680.0,meters,OK,2992.0,feet,OK,0.0,mm/hr,OK,1715.0,meters,OK,1968.0,meters,OK,1910.0,meters,OK
2025-01-26T19:59:02.015597,6.9,knots,OK,166.0,degrees,OK,17.9,knots,OK,18.2,°C,OK,20.0,°C,OK,1014.3,hPa,OK,8001.0,meters,OK,2947.0,feet,OK,0.5,mm/hr,OK,1788.0,meters,OK,1710.0,meters,OK,1793.0,meters,OK
2025-01-26T19:59:03.020073,11.0,knots,OK,283.0,degrees,OK,11.7,knots,OK,17.9,°C,OK,15.6,°C,OK,1014.2,hPa,OK,8807.0,meters,OK,1723.0,feet,OK,0.3,mm/hr,OK,1886.0,meters,OK,1782.0,meters,OK,1997.0,meters,OK
2025-01-26T19:59:04.024161,8.1,knots,OK,245.0,degrees,OK,23.8,knots,OK,24.1,°C,OK,10.4,°C,OK,1014.1,hPa,OK,6471.0,meters,OK,2951.0,feet,OK,0.4,mm/hr,OK,1844.0,meters,OK,1774.0,meters,OK,1956.0,meters,OK
2025-01-26T19:59:05.028503,6.5,knots,OK,269.0,degrees,OK,19.1,knots,OK,19.4,°C,OK,15.2,°C,OK,1013.3,hPa,OK,5755.0,meters,OK,2261.0,feet,OK,0.4,mm/hr,OK,1869.0,meters,OK,1900.0,meters,OK,1655.0,meters,OK
2025-01-26T19:59:06.032494,11.8,knots,OK,3.0,degrees,OK,11.0,knots,OK,24.8,°C,OK,12.2,°C,OK,1013.8,hPa,OK,5628.0,meters,OK,1144.0,feet,OK,0.2,mm/hr,OK,1911.0,meters,OK,1509.0,meters,OK,1809.0,meters,OK
2025-01-26T19:59:07.037422,10.4,knots,OK,219.0,degrees,OK,12.8,knots,OK,20.1,°C,OK,12.3,°C,OK,1014.3,hPa,OK,5787.0,meters,OK,2437.0,feet,OK,0.1,mm/hr,OK,1899.0,meters,OK,1942.0,meters,OK,1613.0,meters,OK
2025-01-26T19:59:08.041375,10.2,knots,OK,122.0,degrees,OK,23.2,knots,OK,19.7,°C,OK,14.4,°C,OK,1014.3,hPa,OK,7961.0,meters,OK,1184.0,feet,OK,0.3,mm/hr,OK,1913.0,meters,OK,1981.0,meters,OK,1725.0,meters,OK
2025-01-26T19:59:09.045895,13.2,knots,OK,122.0,degrees,OK,16.6,knots,OK,20.9,°C,OK,17.5,°C,OK,1014.3,hPa,OK,5940.0,meters,OK,1837.0,feet,OK,0.3,mm/hr,OK,1914.0,meters,OK,1958.0,meters,OK,1633.0,meters,OK
2025-01-26T19:59:10.051635,10.7,knots,OK,149.0,degrees,OK,17.9,knots,OK,15.5,°C,OK,10.1,°C,OK,1013.6,hPa,OK,8053.0,meters,OK,1297.0,feet,OK,0.3,mm/hr,OK,1574.0,meters,OK,1991.0,meters,OK,1595.0,meters,OK
2025-01-26T19:59:11.056417,13.0,knots,OK,292.0,degrees,OK,12.5,knots,OK,16.0,°C,OK,15.2,°C,OK,1013.2,hPa,OK,6447.0,meters,OK,2772.0,feet,OK,0.1,mm/hr,OK,1611.0,meters,OK,1561.0,meters,OK,1869.0,meters,OK
2025-01-26T19:59:12.061565,8.1,knots,OK,194.0,degrees,OK,13.8,knots,OK,22.7,°C,OK,13.4,°C,OK,1013.6,hPa,OK,8378.0,meters,OK,1017.0,feet,OK,0.4,mm/hr,OK,1544.0,meters,OK,1697.0,meters,OK,1651.0,meters,OK
2025-01-26T19:59:13.065430,8.1,knots,OK,178.0,degrees,OK,15.5,knots,OK,18.1,°C,OK,16.4,°C,OK,1014.0,hPa,OK,8026.0,meters,OK,1068.0,feet,OK,0.2,mm/hr,OK,1652.0,meters,OK,1537.0,meters,OK,1578.0,meters,OK
2025-01-26T19:59:14.070580,10.0,knots,OK,237.0,degrees,OK,16.7,knots,OK,21.3,°C,OK,19.4,°C,OK,1014.6,hPa,OK,8539.0,meters,OK,1401.0,feet,OK,0.2,mm/hr,OK,1785.0,meters,OK,1507.0,meters,OK,1879.0,meters,OK
2025-01-26T19:59:15.074960,12.1,knots,OK,190.0,degrees,OK,15.8,knots,OK,24.7,°C,OK,11.9,°C,OK,1014.9,hPa,OK,7422.0,meters,OK,1444.0,feet,OK,0.1,mm/hr,OK,1941.0,meters,OK,1936.0,meters,OK,1726.0,meters,OK
2025-01-26T19:59:16.079294,13.6,knots,OK,321.0,degrees,OK,18.2,knots,OK,21.2,°C,OK,19.0,°C,OK,1013.2,hPa,OK,6861.0,meters,OK,2666.0,feet,OK,0.4,mm/hr,OK,1911.0,meters,OK,1823.0,meters,OK,1503.0,meters,OK
2025-01-26T19:59:17.083796,13.0,knots,OK,317.0,degrees,OK,23.0,knots,OK,24.9,°C,OK,16.3,°C,OK,1013.3,hPa,OK,6525.0,meters,OK,2357.0,feet,OK,0.2,mm/hr,OK,1634.0,meters,OK,1592.0,meters,OK,1640.0,meters,OK
2025-01-26T19:59:18.088228,14.0,knots,OK,85.0,degrees,OK,16.8,knots,OK,17.7,°C,OK,14.1,°C,OK,1013.4,hPa,OK,8189.0,meters,OK,2435.0,feet,OK,0.0,mm/hr,OK,1717.0,meters,OK,1960.0,meters,OK,1679.0,meters,OK
2025-01-26T19:59:19.092053,12.7,knots,OK,121.0,degrees,OK,23.2,knots,OK,22.8,°C,OK,13.7,°C,OK,1014.6,hPa,OK,5670.0,meters,OK,2315.0,feet,OK,0.2,mm/hr,OK,1721.0,meters,OK,1522.0,meters,OK,1827.0,meters,OK
2025-01-26T19:59:20.096918,14.9,knots,OK,216.0,degrees,OK,20.9,knots,OK,17.1,°C,OK,18.1,°C,OK,1013.6,hPa,OK,8408.0,meters,OK,1101.0,feet,OK,0.4,mm/hr,OK,1557.0,meters,OK,1510.0,meters,OK,1557.0,meters,OK
2025-01-26T19:59:21.101574,14.2,knots,OK,57.0,degrees,OK,18.7,knots,OK,19.3,°C,OK,15.8,°C,OK,1013.7,hPa,OK,9298.0,meters,OK,2606.0,feet,OK,0.1,mm/hr,OK,1607.0,meters,OK,1919.0,meters,OK,1958.0,meters,OK
2025-01-26T19:59:22.106179,12.6,knots,OK,32.0,degrees,OK,12.8,knots,OK,21.6,°C,OK,14.1,°C,OK,1013.1,hPa,OK,6743.0,meters,OK,1750.0,feet,OK,0.4,mm/hr,OK,1588.0,meters,OK,1709.0,meters,OK,1676.0,meters,OK
2025-01-26T19:59:23.111269,6.4,knots,OK,13.0,degrees,OK,13.9,knots,OK,23.2,°C,OK,19.7,°C,OK,1014.5,hPa,OK,8348.0,meters,OK,2314.0,feet,OK,0.1,mm/hr,OK,1596.0,meters,OK,1985.0,meters,OK,1555.0,meters,OK
2025-01-26T19:59:24.116501,6.5,knots,OK,151.0,degrees,OK,12.5,knots,OK,22.2,°C,OK,14.9,°C,OK,1015.0,hPa,OK,6068.0,meters,OK,1906.0,feet,OK,0.1,mm/hr,OK,1729.0,meters,OK,1813.0,meters,OK,1612.0,meters,OK
2025-01-26T19:59:25.121243,14.2,knots,OK,323.0,degrees,OK,19.5,knots,OK,23.2,°C,OK,17.7,°C,OK,1013.4,hPa,OK,9422.0,meters,OK,2588.0,feet,OK,0.2,mm/hr,OK,1601.0,meters,OK,1538.0,meters,OK,1887.0,meters,OK
2025-01-26T19:59:26.126361,13.6,knots,OK,337.0,degrees,OK,19.6,knots,OK,24.3,°C,OK,19.0,°C,OK,1013.1,hPa,OK,6901.0,meters,OK,2564.0,feet,OK,0.4,mm/hr,OK,1638.0,meters,OK,1839.0,meters,OK,1668.0,meters,OK
2025-01-26T19:59:27.131685,7.1,knots,OK,11.0,degrees,OK,20.5,knots,OK,18.0,°C,OK,13.3,°C,OK,1013.3,hPa,OK,9615.0,meters,OK,2341.0,feet,OK,0.3,mm/hr,OK,1670.0,meters,OK,1955.0,meters,OK,1689.0,meters,OK
2025-01-26T19:59:28.136484,9.4,knots,OK,202.0,degrees,OK,23.9,knots,OK,18.6,°C,OK,16.1,°C,OK,1014.6,hPa,OK,9413.0,meters,OK,1422.0,feet,OK,0.0,mm/hr,OK,1940.0,meters,OK,1658.0,meters,OK,1611.0,meters,OK
2025-01-26T19:59:29.141286,11.9,knots,OK,273.0,degrees,OK,14.3,knots,OK,20.1,°C,OK,13.9,°C,OK,1014.2,hPa,OK,7722.0,meters,OK,2357.0,feet,OK,0.4,mm/hr,OK,1787.0,meters,OK,1812.0,meters,OK,1861.0,meters,OK
2025-01-26T19:59:30.146216,12.5,knots,OK,225.0,degrees,OK,20.6,knots,OK,18.0,°C,OK,12.8,°C,OK,1013.1,hPa,OK,8161.0,meters,OK,2414.0,feet,OK,0.3,mm/hr,OK,1662.0,meters,OK,1892.0,meters,OK,1869.0,meters,OK
2025-01-26T19:59:31.150175,9.3,knots,OK,15.0,degrees,OK,20.3,knots,OK,24.4,°C,OK,13.7,°C,OK,1013.2,hPa,OK,5106.0,meters,OK,2854.0,feet,OK,0.1,mm/hr,OK,1640.0,meters,OK,1967.0,meters,OK,1812.0,meters,OK
2025-01-26T19:59:32.157572,9.3,knots,OK,57.0,degrees,OK,17.6,knots,OK,15.7,°C,OK,14.1,°C,OK,1013.3,hPa,OK,5722.0,meters,OK,1021.0,feet,OK,0.2,mm/hr,OK,1868.0,meters,OK,1658.0,meters,OK,1702.0,meters,OK
2025-01-26T19:59:33.162597,11.7,knots,OK,195.0,degrees,OK,10.6,knots,OK,22.3,°C,OK,19.7,°C,OK,1015.0,hPa,OK,6785.0,meters,OK,2815.0,feet,OK,0.4,mm/hr,OK,1864.0,meters,OK,1756.0,meters,OK,1584.0,meters,OK
2025-01-26T19:59:34.166612,5.5,knots,OK,81.0,degrees,OK,10.4,knots,OK,24.8,°C,OK,18.9,°C,OK,1014.9,hPa,OK,8088.0,meters,OK,1616.0,feet,OK,0.2,mm/hr,OK,1931.0,meters,OK,1916.0,meters,OK,1679.0,meters,OK
2025-01-26T19:59:35.171734,11.5,knots,OK,204.0,degrees,OK,17.1,knots,OK,23.5,°C,OK,18.1,°C,OK,1014.2,hPa,OK,9502.0,meters,OK,2158.0,feet,OK,0.3,mm/hr,OK,1758.0,meters,OK,1832.0,meters,OK,1855.0,meters,OK
2025-01-26T19:59:36.177278,11.5,knots,OK,3.0,degrees,OK,18.1,knots,OK,20.9,°C,OK,18.9,°C,OK,1014.5,hPa,OK,6179.0,meters,OK,1468.0,feet,OK,0.0,mm/hr,OK,1734.0,meters,OK,1618.0,meters,OK,1681.0,meters,OK
2025-01-26T19:59:37.180656,6.0,knots,OK,291.0,degrees,OK,19.2,knots,OK,24.5,°C,OK,18.0,°C,OK,1014.6,hPa,OK,6393.0,meters,OK,1732.0,feet,OK,0.1,mm/hr,OK,1980.0,meters,OK,1603.0,meters,OK,1755.0,meters,OK
2025-01-26T19:59:38.184027,5.5,knots,OK,53.0,degrees,OK,20.4,knots,OK,15.2,°C,OK,12.6,°C,OK,1014.6,hPa,OK,7067.0,meters,OK,1282.0,feet,OK,0.4,mm/hr,OK,1552.0,meters,OK,1897.0,meters,OK,1690.0,meters,OK
2025-01-26T19:59:39.189069,5.3,knots,OK,228.0,degrees,OK,23.3,knots,OK,20.2,°C,OK,18.8,°C,OK,1014.4,hPa,OK,6012.0,meters,OK,2647.0,feet,OK,0.4,mm/hr,OK,1813.0,meters,OK,1561.0,meters,OK,1772.0,meters,OK
2025-01-26T19:59:40.194153,13.5,knots,OK,126.0,degrees,OK,24.5,knots,OK,23.5,°C,OK,14.5,°C,OK,1014.7,hPa,OK,6207.0,meters,OK,1971.0,feet,OK,0.5,mm/hr,OK,1838.0,meters,OK,1550.0,meters,OK,1860.0,meters,OK
2025-01-26T19:59:41.198634,14.9,knots,OK,311.0,degrees,OK,14.6,knots,OK,15.7,°C,OK,19.6,°C,OK,1014.1,hPa,OK,8250.0,meters,OK,1427.0,feet,OK,0.0,mm/hr,OK,1666.0,meters,OK,1643.0,meters,OK,1781.0,meters,OK
2025-01-26T19:59:42.203407,13.6,knots,OK,58.0,degrees,OK,13.9,knots,OK,19.2,°C,OK,16.4,°C,OK,1014.2,hPa,OK,6787.0,meters,OK,2440.0,feet,OK,0.2,mm/hr,OK,1515.0,meters,OK,1646.0,meters,OK,1989.0,meters,OK
2025-01-26T19:59:43.208134,14.3,knots,OK,158.0,degrees,OK,24.1,knots,OK,23.8,°C,OK,15.5,°C,OK,1014.3,hPa,OK,8810.0,meters,OK,2402.0,feet,OK,0.4,mm/hr,OK,1747.0,meters,OK,1938.0,meters,OK,1654.0,meters,OK
2025-01-26T19:59:44.212383,9.7,knots,OK,13.0,degrees,OK,21.1,knots,OK,21.4,°C,OK,14.6,°C,OK,1013.9,hPa,OK,8444.0,meters,OK,1995.0,feet,OK,0.4,mm/hr,OK,1692.0,meters,OK,1741.0,meters,OK,1648.0,meters,OK
2025-01-26T19:59:45.217402,8.2,knots,OK,229.0,degrees,OK,23.1,knots,OK,20.9,°C,OK,16.7,°C,OK,1014.7,hPa,OK,7885.0,meters,OK,2610.0,feet,OK,0.3,mm/hr,OK,1981.0,meters,OK,1716.0,meters,OK,1951.0,meters,OK
2025-01-26T19:59:46.223359,10.9,knots,OK,307.0,degrees,OK,18.0,knots,OK,21.4,°C,OK,11.9,°C,OK,1013.4,hPa,OK,9879.0,meters,OK,1332.0,feet,OK,0.1,mm/hr,OK,1720.0,meters,OK,1956.0,meters,OK,1545.0,meters,OK
2025-01-26T19:59:47.227859,14.4,knots,OK,65.0,degrees,OK,11.9,knots,OK,21.7,°C,OK,11.1,°C,OK,1013.4,hPa,OK,6643.0,meters,OK,2768.0,feet,OK,0.4,mm/hr,OK,1825.0,meters,OK,1925.0,meters,OK,1657.0,meters,OK
2025-01-26T19:59:48.232184,6.2,knots,OK,261.0,degrees,OK,14.5,knots,OK,24.3,°C,OK,15.8,°C,OK,1014.8,hPa,OK,5407.0,meters,OK,2955.0,feet,OK,0.0,mm/hr,OK,1624.0,meters,OK,1535.0,meters,OK,1762.0,meters,OK
2025-01-26T19:59:49.237066,8.3,knots,OK,35.0,degrees,OK,24.7,knots,OK,23.5,°C,OK,17.8,°C,OK,1014.0,hPa,OK,8059.0,meters,OK,1091.0,feet,OK,0.0,mm/hr,OK,1945.0,meters,OK,1765.0,meters,OK,1782.0,meters,OK
2025-01-26T19:59:50.241020,15.0,knots,OK,218.0,degrees,OK,20.2,knots,OK,20.6,°C,OK,18.2,°C,OK,1013.3,hPa,OK,5372.0,meters,OK,1727.0,feet,OK,0.2,mm/hr,OK,1608.0,meters,OK,1515.0,meters,OK,1880.0,meters,OK
2025-01-26T19:59:51.245235,11.1,knots,OK,245.0,degrees,OK,12.3,knots,OK,20.7,°C,OK,16.1,°C,OK,1014.2,hPa,OK,5525.0,meters,OK,1048.0,feet,OK,0.2,mm/hr,OK,1531.0,meters,OK,1557.0,meters,OK,1766.0,meters,OK
2025-01-26T19:59:52.250303,5.0,knots,OK,200.0,degrees,OK,17.4,knots,OK,15.3,°C,OK,12.9,°C,OK,1014.2,hPa,OK,7878.0,meters,OK,1950.0,feet,OK,0.4,mm/hr,OK,1742.0,meters,OK,1630.0,meters,OK,1895.0,meters,OK
2025-01-26T19:59:53.254675,11.8,knots,OK,46.0,degrees,OK,18.3,knots,OK,21.0,°C,OK,19.0,°C,OK,1014.2,hPa,OK,6914.0,meters,OK,2240.0,feet,OK,0.1,mm/hr,OK,1887.0,meters,OK,1988.0,meters,OK,1568.0,meters,OK
2025-01-26T19:59:54.258609,5.8,knots,OK,336.0,degrees,OK,19.4,knots,OK,15.9,°C,OK,12.7,°C,OK,1014.5,hPa,OK,7108.0,meters,OK,2535.0,feet,OK,0.3,mm/hr,OK,1859.0,meters,OK,1815.0,meters,OK,1940.0,meters,OK
2025-01-26T19:59:55.263452,8.3,knots,OK,215.0,degrees,OK,22.0,knots,OK,23.4,°C,OK,12.8,°C,OK,1014.6,hPa,OK,6072.0,meters,OK,1284.0,feet,OK,0.3,mm/hr,OK,1626.0,meters,OK,1838.0,meters,OK,1826.0,meters,OK
2025-01-26T19:59:56.267467,7.0,knots,OK,289.0,degrees,OK,19.5,knots,OK,21.4,°C,OK,17.1,°C,OK,1013.4,hPa,OK,8227.0,meters,OK,2019.0,feet,OK,0.3,mm/hr,OK,1612.0,meters,OK,1885.0,meters,OK,1856.0,meters,OK
2025-01-26T19:59:57.271371,12.1,knots,OK,140.0,degrees,OK,15.9,knots,OK,15.3,°C,OK,16.8,°C,OK,1014.3,hPa,OK,8850.0,meters,OK,2942.0,feet,OK,0.4,mm/hr,OK,1912.0,meters,OK,1993.0,meters,OK,1579.0,meters,OK
2025-01-26T19:59:58.276305,10.6,knots,OK,32.0,degrees,OK,11.2,knots,OK,24.2,°C,OK,18.6,°C,OK,1013.7,hPa,OK,6982.0,meters,OK,2197.0,feet,OK,0.1,mm/hr,OK,1805.0,meters,OK,1539.0,meters,OK,1513.0,meters,OK
2025-01-26T19:59:59.281918,9.2,knots,OK,297.0,degrees,OK,20.6,knots,OK,19.5,°C,OK,11.1,°C,OK,1014.5,hPa,OK,7266.0,meters,OK,2601.0,feet,OK,0.3,mm/hr,OK,1548.0,meters,OK,1638.0,meters,OK,1912.0,meters,OK
2025-01-26T20:00:00.287014,13.0,knots,OK,331.0,degrees,OK,15.1,knots,OK,19.5,°C,OK,11.1,°C,OK,1013.3,hPa,OK,7620.0,meters,OK,2049.0,feet,OK,0.5,mm/hr,OK,1556.0,meters,OK,1611.0,meters,OK,1506.0,meters,OK
2025-01-26T20:00:01.291373,12.2,knots,OK,144.0,degrees,OK,18.9,knots,OK,24.0,°C,OK,19.5,°C,OK,1014.4,hPa,OK,7062.0,meters,OK,2907.0,feet,OK,0.4,mm/hr,OK,1835.0,meters,OK,1670.0,meters,OK,1873.0,meters,OK
2025-01-26T20:00:02.294603,14.6,knots,OK,144.0,degrees,OK,12.1,knots,OK,23.6,°C,OK,17.5,°C,OK,1014.9,hPa,OK,6093.0,meters,OK,2242.0,feet,OK,0.4,mm/hr,OK,1804.0,meters,OK,1780.0,meters,OK,1937.0,meters,OK
2025-01-26T20:00:03.299375,6.9,knots,OK,307.0,degrees,OK,15.5,knots,OK,21.5,°C,OK,12.3,°C,OK,1013.8,hPa,OK,5420.0,meters,OK,1864.0,feet,OK,0.1,mm/hr,OK,1873.0,meters,OK,1798.0,meters,OK,1970.0,meters,OK
2025-01-26T20:00:04.303513,9.1,knots,OK,222.0,degrees,OK,20.6,knots,OK,18.8,°C,OK,12.8,°C,OK,1013.4,hPa,OK,8372.0,meters,OK,2555.0,feet,OK,0.3,mm/hr,OK,1876.0,meters,OK,1765.0,meters,OK,1973.0,meters,OK
2025-01-26T20:00:05.307172,8.4,knots,OK,281.0,degrees,OK,20.1,knots,OK,25.0,°C,OK,15.7,°C,OK,1014.6,hPa,OK,5015.0,meters,OK,1421.0,feet,OK,0.4,mm/hr,OK,1536.0,meters,OK,1666.0,meters,OK,1744.0,meters,OK
2025-01-26T20:00:06.311787,10.5,knots,OK,82.0,degrees,OK,18.8,knots,OK,17.3,°C,OK,16.6,°C,OK,1014.0,hPa,OK,9552.0,meters,OK,1019.0,feet,OK,0.2,mm/hr,OK,1917.0,meters,OK,1928.0,meters,OK,1639.0,meters,OK
2025-01-26T20:00:07.316298,10.0,knots,OK,342.0,degrees,OK,20.5,knots,OK,20.6,°C,OK,11.4,°C,OK,1013.8,hPa,OK,6869.0,meters,OK,2933.0,feet,OK,0.1,mm/hr,OK,1657.0,meters,OK,1960.0,meters,OK,1569.0,meters,OK
2025-01-26T20:00:08.319994,10.6,knots,OK,119.0,degrees,OK,22.8,knots,OK,17.6,°C,OK,16.1,°C,OK,1013.6,hPa,OK,5739.0,meters,OK,1940.0,feet,OK,0.1,mm/hr,OK,1976.0,meters,OK,1900.0,meters,OK,1735.0,meters,OK
2025-01-26T20:00:09.323132,9.4,knots,OK,21.0,degrees,OK,13.0,knots,OK,23.8,°C,OK,10.1,°C,OK,1013.7,hPa,OK,7698.0,meters,OK,2184.0,feet,OK,0.1,mm/hr,OK,1865.0,meters,OK,1679.0,meters,OK,1592.0,meters,OK
2025-01-26T20:00:10.327277,11.6,knots,OK,206.0,degrees,OK,13.5,knots,OK,19.0,°C,OK,15.7,°C,OK,1014.1,hPa,OK,6976.0,meters,OK,2127.0,feet,OK,0.2,mm/hr,OK,1928.0,meters,OK,1826.0,meters,OK,1905.0,meters,OK
2025-01-26T20:00:11.331476,6.0,knots,OK,356.0,degrees,OK,12.3,knots,OK,16.0,°C,OK,11.5,°C,OK,1013.9,hPa,OK,7680.0,meters,OK,1884.0,feet,OK,0.2,mm/hr,OK,1783.0,meters,OK,1842.0,meters,OK,1581.0,meters,OK
2025-01-26T20:00:12.335870,6.7,knots,OK,179.0,degrees,OK,15.4,knots,OK,22.0,°C,OK,19.9,°C,OK,1013.5,hPa,OK,8114.0,meters,OK,2610.0,feet,OK,0.5,mm/hr,OK,1570.0,meters,OK,1996.0,meters,OK,1729.0,meters,OK
2025-01-26T20:00:13.340362,11.0,knots,OK,24.0,degrees,OK,14.6,knots,OK,22.8,°C,OK,13.6,°C,OK,1013.4,hPa,OK,6910.0,meters,OK,1433.0,feet,OK,0.3,mm/hr,OK,1594.0,meters,OK,1966.0,meters,OK,1834.0,meters,OK
2025-01-26T20:00:14.345394,7.1,knots,OK,95.0,degrees,OK,23.2,knots,OK,19.4,°C,OK,13.2,°C,OK,1013.2,hPa,OK,6727.0,meters,OK,2408.0,feet,OK,0.5,mm/hr,OK,1748.0,meters,OK,1829.0,meters,OK,1887.0,meters,OK
2025-01-26T20:00:15.349379,12.5,knots,OK,140.0,degrees,OK,24.3,knots,OK,22.3,°C,OK,15.6,°C,OK,1013.3,hPa,OK,5426.0,meters,OK,2729.0,feet,OK,0.2,mm/hr,OK,1726.0,meters,OK,1561.0,meters,OK,1634.0,meters,OK
2025-01-26T20:00:16.353581,7.4,knots,OK,20.0,degrees,OK,21.7,knots,OK,24.4,°C,OK,11.2,°C,OK,1013.5,hPa,OK,5476.0,meters,OK,1358.0,feet,OK,0.1,mm/hr,OK,1746.0,meters,OK,1973.0,meters,OK,1873.0,meters,OK
2025-01-26T20:00:17.357750,14.0,knots,OK,324.0,degrees,OK,19.8,knots,OK,22.6,°C,OK,12.9,°C,OK,1013.8,hPa,OK,7129.0,meters,OK,1146.0,feet,OK,0.4,mm/hr,OK,1664.0,meters,OK,1976.0,meters,OK,1705.0,meters,OK
2025-01-26T20:00:18.362329,12.2,knots,OK,322.0,degrees,OK,13.1,knots,OK,24.4,°C,OK,15.5,°C,OK,1013.6,hPa,OK,6384.0,meters,OK,2824.0,feet,OK,0.4,mm/hr,OK,1679.0,meters,OK,1866.0,meters,OK,1774.0,meters,OK
2025-01-26T20:00:19.366870,13.7,knots,OK,200.0,degrees,OK,13.8,knots,OK,20.7,°C,OK,13.1,°C,OK,1013.0,hPa,OK,7250.0,meters,OK,1001.0,feet,OK,0.3,mm/hr,OK,1513.0,meters,OK,1928.0,meters,OK,1720.0,meters,OK
2025-01-26T20:00:20.371449,14.0,knots,OK,125.0,degrees,OK,14.0,knots,OK,24.4,°C,OK,18.6,°C,OK,1013.3,hPa,OK,5027.0,meters,OK,2349.0,feet,OK,0.4,mm/hr,OK,1580.0,meters,OK,1833.0,meters,OK,1709.0,meters,OK
2025-01-26T20:00:21.375940,11.2,knots,OK,59.0,degrees,OK,19.2,knots,OK,20.0,°C,OK,16.9,°C,OK,1013.9,hPa,OK,9936.0,meters,OK,2421.0,feet,OK,0.0,mm/hr,OK,1847.0,meters,OK,1942.0,meters,OK,1523.0,meters,OK
2025-01-26T20:00:22.379793,6.5,knots,OK,277.0,degrees,OK,16.3,knots,OK,18.8,°C,OK,11.1,°C,OK,1013.3,hPa,OK,6608.0,meters,OK,1613.0,feet,OK,0.3,mm/hr,OK,1654.0,meters,OK,1538.0,meters,OK,1677.0,meters,OK
2025-01-26T20:00:23.384568,13.0,knots,OK,328.0,degrees,OK,12.9,knots,OK,15.8,°C,OK,10.2,°C,OK,1014.2,hPa,OK,6554.0,meters,OK,1308.0,feet,OK,0.0,mm/hr,OK,1612.0,meters,OK,1740.0,meters,OK,1849.0,meters,OK
2025-01-26T20:00:24.388484,13.7,knots,OK,167.0,degrees,OK,11.1,knots,OK,15.9,°C,OK,19.7,°C,OK,1013.6,hPa,OK,8148.0,meters,OK,2107.0,feet,OK,0.2,mm/hr,OK,1586.0,meters,OK,1973.0,meters,OK,1902.0,meters,OK
2025-01-26T20:00:25.392797,11.5,knots,OK,164.0,degrees,OK,19.5,knots,OK,17.2,°C,OK,14.6,°C,OK,1014.7,hPa,OK,7187.0,meters,OK,2289.0,feet,OK,0.4,mm/hr,OK,1710.0,meters,OK,1718.0,meters,OK,1767.0,meters,OK
2025-01-26T20:00:26.396875,8.6,knots,OK,209.0,degrees,OK,24.9,knots,OK,18.3,°C,OK,13.0,°C,OK,1013.3,hPa,OK,5208.0,meters,OK,2026.0,feet,OK,0.1,mm/hr,OK,1894.0,meters,OK,1950.0,meters,OK,1967.0,meters,OK
2025-01-26T20:00:27.400812,13.3,knots,OK,111.0,degrees,OK,10.6,knots,OK,23.1,°C,OK,16.7,°C,OK,1013.7,hPa,OK,6577.0,meters,OK,1725.0,feet,OK,0.2,mm/hr,OK,1710.0,meters,OK,1755.0,meters,OK,1647.0,meters,OK
2025-01-26T20:00:28.404333,10.4,knots,OK,31.0,degrees,OK,23.4,knots,OK,15.7,°C,OK,11.6,°C,OK,1014.8,hPa,OK,7303.0,meters,OK,2265.0,feet,OK,0.4,mm/hr,OK,1953.0,meters,OK,1946.0,meters,OK,1768.0,meters,OK
2025-01-26T20:00:29.409527,7.6,knots,OK,65.0,degrees,OK,24.3,knots,OK,20.4,°C,OK,14.1,°C,OK,1013.5,hPa,OK,6815.0,meters,OK,1865.0,feet,OK,0.2,mm/hr,OK,1989.0,meters,OK,1882.0,meters,OK,1653.0,meters,OK
2025-01-26T20:00:30.414306,12.5,knots,OK,137.0,degrees,OK,21.4,knots,OK,15.2,°C,OK,16.9,°C,OK,1013.3,hPa,OK,8807.0,meters,OK,2996.0,feet,OK,0.2,mm/hr,OK,1506.0,meters,OK,1924.0,meters,OK,1896.0,meters,OK
2025-01-26T20:00:31.419106,13.2,knots,OK,296.0,degrees,OK,15.6,knots,OK,19.3,°C,OK,18.3,°C,OK,1013.1,hPa,OK,9535.0,meters,OK,2846.0,feet,OK,0.4,mm/hr,OK,1769.0,meters,OK,1741.0,meters,OK,1504.0,meters,OK
2025-01-26T20:00:32.423487,5.2,knots,OK,111.0,degrees,OK,16.2,knots,OK,20.0,°C,OK,15.5,°C,OK,1013.4,hPa,OK,9876.0,meters,OK,2699.0,feet,OK,0.1,mm/hr,OK,1611.0,meters,OK,1703.0,meters,OK,1586.0,meters,OK
2025-01-26T20:00:33.427776,6.2,knots,OK,345.0,degrees,OK,10.2,knots,OK,15.2,°C,OK,16.6,°C,OK,1013.0,hPa,OK,8634.0,meters,OK,2743.0,feet,OK,0.5,mm/hr,OK,1837.0,meters,OK,1662.0,meters,OK,1707.0,meters,OK
2025-01-26T20:00:34.431370,10.5,knots,OK,249.0,degrees,OK,12.6,knots,OK,22.9,°C,OK,16.5,°C,OK,1013.3,hPa,OK,7382.0,meters,OK,1391.0,feet,OK,0.4,mm/hr,OK,1540.0,meters,OK,1605.0,meters,OK,1768.0,meters,OK
2025-01-26T20:00:35.436046,12.7,knots,OK,4.0,degrees,OK,25.0,knots,OK,18.4,°C,OK,12.5,°C,OK,1014.9,hPa,OK,9043.0,meters,OK,1851.0,feet,OK,0.0,mm/hr,OK,1560.0,meters,OK,1832.0,meters,OK,1559.0,meters,OK
2025-01-26T20:00:36.441722,8.8,knots,OK,291.0,degrees,OK,12.4,knots,OK,21.8,°C,OK,17.9,°C,OK,1014.9,hPa,OK,7454.0,meters,OK,2701.0,feet,OK,0.2,mm/hr,OK,1632.0,meters,OK,1972.0,meters,OK,1576.0,meters,OK
2025-01-26T20:00:37.446907,9.6,knots,OK,240.0,degrees,OK,16.4,knots,OK,23.9,°C,OK,14.3,°C,OK,1013.1,hPa,OK,5349.0,meters,OK,1639.0,feet,OK,0.2,mm/hr,OK,1619.0,meters,OK,1621.0,meters,OK,1725.0,meters,OK
2025-01-26T20:00:38.452777,5.4,knots,OK,31.0,degrees,OK,15.1,knots,OK,24.1,°C,OK,15.0,°C,OK,1013.1,hPa,OK,6540.0,meters,OK,2146.0,feet,OK,0.4,mm/hr,OK,1922.0,meters,OK,1563.0,meters,OK,1815.0,meters,OK
2025-01-26T20:00:39.458139,10.1,knots,OK,7.0,degrees,OK,20.4,knots,OK,17.9,°C,OK,10.4,°C,OK,1014.6,hPa,OK,5780.0,meters,OK,1957.0,feet,OK,0.1,mm/hr,OK,1752.0,meters,OK,1504.0,meters,OK,1905.0,meters,OK
2025-01-26T20:00:40.461886,7.3,knots,OK,60.0,degrees,OK,13.2,knots,OK,21.0,°C,OK,13.8,°C,OK,1014.6,hPa,OK,6577.0,meters,OK,1550.0,feet,OK,0.0,mm/hr,OK,1688.0,meters,OK,1537.0,meters,OK,1543.0,meters,OK
2025-01-26T20:00:41.465730,7.4,knots,OK,350.0,degrees,OK,13.0,knots,OK,21.5,°C,OK,14.9,°C,OK,1014.9,hPa,OK,6074.0,meters,OK,1717.0,feet,OK,0.4,mm/hr,OK,1941.0,meters,OK,1516.0,meters,OK,1931.0,meters,OK
2025-01-26T20:00:42.471042,7.3,knots,OK,226.0,degrees,OK,18.2,knots,OK,19.2,°C,OK,17.1,°C,OK,1013.6,hPa,OK,9931.0,meters,OK,1271.0,feet,OK,0.3,mm/hr,OK,1847.0,meters,OK,1807.0,meters,OK,1820.0,meters,OK
2025-01-26T20:00:43.476619,8.6,knots,OK,349.0,degrees,OK,24.7,knots,OK,19.9,°C,OK,11.4,°C,OK,1014.2,hPa,OK,6333.0,meters,OK,1845.0,feet,OK,0.4,mm/hr,OK,1976.0,meters,OK,1782.0,meters,OK,1511.0,meters,OK
2025-01-26T20:00:44.481456,9.9,knots,OK,285.0,degrees,OK,13.7,knots,OK,16.5,°C,OK,12.7,°C,OK,1014.2,hPa,OK,5968.0,meters,OK,2109.0,feet,OK,0.2,mm/hr,OK,1927.0,meters,OK,1744.0,meters,OK,1799.0,meters,OK
2025-01-26T20:00:45.487368,10.3,knots,OK,325.0,degrees,OK,23.5,knots,OK,16.9,°C,OK,11.5,°C,OK,1014.9,hPa,OK,5724.0,meters,OK,2711.0,feet,OK,0.2,mm/hr,OK,1574.0,meters,OK,1692.0,meters,OK,1797.0,meters,OK
2025-01-26T20:00:46.491256,7.2,knots,OK,190.0,degrees,OK,22.2,knots,OK,16.5,°C,OK,17.7,°C,OK,1013.5,hPa,OK,7580.0,meters,OK,1741.0,feet,OK,0.4,mm/hr,OK,1616.0,meters,OK,1588.0,meters,OK,1514.0,meters,OK
2025-01-26T20:00:47.495233,11.3,knots,OK,330.0,degrees,OK,20.7,knots,OK,22.6,°C,OK,11.9,°C,OK,1014.8,hPa,OK,5382.0,meters,OK,2965.0,feet,OK,0.3,mm/hr,OK,1906.0,meters,OK,1900.0,meters,OK,1783.0,meters,OK
2025-01-26T20:00:48.499979,13.0,knots,OK,343.0,degrees,OK,12.2,knots,OK,23.3,°C,OK,14.3,°C,OK,1014.6,hPa,OK,5206.0,meters,OK,1972.0,feet,OK,0.4,mm/hr,OK,1966.0,meters,OK,1968.0,meters,OK,1684.0,meters,OK
2025-01-26T20:00:49.504434,12.7,knots,OK,145.0,degrees,OK,24.1,knots,OK,15.0,°C,OK,16.7,°C,OK,1013.4,hPa,OK,8906.0,meters,OK,1169.0,feet,OK,0.3,mm/hr,OK,1975.0,meters,OK,1995.0,meters,OK,1659.0,meters,OK
2025-01-26T20:00:50.508673,6.6,knots,OK,222.0,degrees,OK,15.2,knots,OK,23.0,°C,OK,16.2,°C,OK,1013.8,hPa,OK,5161.0,meters,OK,1474.0,feet,OK,0.3,mm/hr,OK,1571.0,meters,OK,1700.0,meters,OK,1758.0,meters,OK
2025-01-26T20:00:51.514225,7.3,knots,OK,286.0,degrees,OK,24.1,knots,OK,23.0,°C,OK,18.7,°C,OK,1014.8,hPa,OK,5604.0,meters,OK,2364.0,feet,OK,0.3,mm/hr,OK,1792.0,meters,OK,1775.0,meters,OK,1661.0,meters,OK
2025-01-26T20:00:52.519118,13.0,knots,OK,148.0,degrees,OK,16.4,knots,OK,23.4,°C,OK,17.9,°C,OK,1015.0,hPa,OK,9024.0,meters,OK,1809.0,feet,OK,0.1,mm/hr,OK,1715.0,meters,OK,1788.0,meters,OK,1769.0,meters,OK
2025-01-26T20:00:53.523393,12.6,knots,OK,158.0,degrees,OK,16.6,knots,OK,18.9,°C,OK,16.2,°C,OK,1014.9,hPa,OK,8008.0,meters,OK,1427.0,feet,OK,0.4,mm/hr,OK,1754.0,meters,OK,1760.0,meters,OK,1828.0,meters,OK
2025-01-26T20:00:54.528613,14.6,knots,OK,19.0,degrees,OK,13.2,knots,OK,20.3,°C,OK,16.9,°C,OK,1014.6,hPa,OK,8303.0,meters,OK,2447.0,feet,OK,0.5,mm/hr,OK,1744.0,meters,OK,1577.0,meters,OK,1680.0,meters,OK
2025-01-26T20:00:55.533809,13.4,knots,OK,225.0,degrees,OK,16.0,knots,OK,23.8,°C,OK,11.0,°C,OK,1014.6,hPa,OK,6702.0,meters,OK,1179.0,feet,OK,0.0,mm/hr,OK,1513.0,meters,OK,1914.0,meters,OK,1516.0,meters,OK
2025-01-26T20:00:56.538664,14.6,knots,OK,76.0,degrees,OK,23.7,knots,OK,22.9,°C,OK,18.6,°C,OK,1013.6,hPa,OK,8167.0,meters,OK,1745.0,feet,OK,0.1,mm/hr,OK,1958.0,meters,OK,1783.0,meters,OK,1515.0,meters,OK
2025-01-26T20:00:57.543588,13.0,knots,OK,216.0,degrees,OK,18.4,knots,OK,17.4,°C,OK,15.9,°C,OK,1013.7,hPa,OK,5117.0,meters,OK,2431.0,feet,OK,0.1,mm/hr,OK,1996.0,meters,OK,1985.0,meters,OK,1815.0,meters,OK
2025-01-26T20:00:58.548252,10.8,knots,OK,36.0,degrees,OK,14.6,knots,OK,21.6,°C,OK,15.4,°C,OK,1013.3,hPa,OK,7313.0,meters,OK,1340.0,feet,OK,0.2,mm/hr,OK,1971.0,meters,OK,1551.0,meters,OK,1602.0,meters,OK
2025-01-26T20:00:59.551301,9.3,knots,OK,193.0,degrees,OK,20.7,knots,OK,23.2,°C,OK,11.8,°C,OK,1014.2,hPa,OK,8408.0,meters,OK,1779.0,feet,OK,0.2,mm/hr,OK,1750.0,meters,OK,1783.0,meters,OK,1837.0,meters,OK
2025-01-26T20:01:00.555344,5.9,knots,OK,108.0,degrees,OK,17.0,knots,OK,24.7,°C,OK,15.8,°C,OK,1014.9,hPa,OK,5414.0,meters,OK,2258.0,feet,OK,0.1,mm/hr,OK,1965.0,meters,OK,1659.0,meters,OK,1990.0,meters,OK
2025-01-26T20:01:01.560314,13.4,knots,OK,299.0,degrees,OK,16.4,knots,OK,18.8,°C,OK,17.4,°C,OK,1013.4,hPa,OK,8816.0,meters,OK,2526.0,feet,OK,0.2,mm/hr,OK,1660.0,meters,OK,1509.0,meters,OK,1981.0,meters,OK
2025-01-26T20:01:02.565861,12.0,knots,OK,156.0,degrees,OK,16.3,knots,OK,17.2,°C,OK,11.5,°C,OK,1014.3,hPa,OK,9909.0,meters,OK,1373.0,feet,OK,0.4,mm/hr,OK,1729.0,meters,OK,1866.0,meters,OK,1546.0,meters,OK
2025-01-26T20:01:03.570762,13.6,knots,OK,129.0,degrees,OK,16.1,knots,OK,19.8,°C,OK,12.9,°C,OK,1013.0,hPa,OK,7382.0,meters,OK,1110.0,feet,OK,0.5,mm/hr,OK,1779.0,meters,OK,1829.0,meters,OK,1682.0,meters,OK
2025-01-26T20:01:04.575238,10.6,knots,OK,123.0,degrees,OK,23.3,knots,OK,17.8,°C,OK,11.2,°C,OK,1014.2,hPa,OK,5230.0,meters,OK,2259.0,feet,OK,0.3,mm/hr,OK,1570.0,meters,OK,1842.0,meters,OK,1557.0,meters,OK
2025-01-26T20:01:05.579725,12.6,knots,OK,285.0,degrees,OK,10.1,knots,OK,18.8,°C,OK,15.8,°C,OK,1013.5,hPa,OK,7598.0,meters,OK,2419.0,feet,OK,0.2,mm/hr,OK,1690.0,meters,OK,1684.0,meters,OK,1537.0,meters,OK
2025-01-26T20:01:06.584762,10.7,knots,OK,264.0,degrees,OK,16.0,knots,OK,24.5,°C,OK,16.4,°C,OK,1013.9,hPa,OK,6459.0,meters,OK,2096.0,feet,OK,0.2,mm/hr,OK,1927.0,meters,OK,1642.0,meters,OK,1925.0,meters,OK
2025-01-26T20:01:07.590461,8.5,knots,OK,256.0,degrees,OK,14.4,knots,OK,16.6,°C,OK,15.1,°C,OK,1013.4,hPa,OK,9979.0,meters,OK,2057.0,feet,OK,0.2,mm/hr,OK,1830.0,meters,OK,1998.0,meters,OK,1841.0,meters,OK
2025-01-26T20:01:08.596356,13.6,knots,OK,205.0,degrees,OK,10.7,knots,OK,21.9,°C,OK,19.9,°C,OK,1013.5,hPa,OK,5476.0,meters,OK,2264.0,feet,OK,0.1,mm/hr,OK,1722.0,meters,OK,1694.0,meters,OK,1721.0,meters,OK
2025-01-26T20:01:09.600853,8.8,knots,OK,20.0,degrees,OK,16.6,knots,OK,22.0,°C,OK,14.9,°C,OK,1013.8,hPa,OK,8267.0,meters,OK,1897.0,feet,OK,0.1,mm/hr,OK,1665.0,meters,OK,1652.0,meters,OK,1872.0,meters,OK
2025-01-26T20:01:10.605856,5.7,knots,OK,207.0,degrees,OK,13.5,knots,OK,15.9,°C,OK,14.7,°C,OK,1014.3,hPa,OK,5805.0,meters,OK,2905.0,feet,OK,0.3,mm/hr,OK,1643.0,meters,OK,1549.0,meters,OK,1989.0,meters,OK
2025-01-26T20:01:11.611451,5.2,knots,OK,269.0,degrees,OK,22.0,knots,OK,20.7,°C,OK,17.6,°C,OK,1014.2,hPa,OK,9928.0,meters,OK,1477.0,feet,OK,0.0,mm/hr,OK,1843.0,meters,OK,1705.0,meters,OK,1947.0,meters,OK
2025-01-26T20:01:12.615801,12.1,knots,OK,198.0,degrees,OK,12.2,knots,OK,20.9,°C,OK,14.4,°C,OK,1014.5,hPa,OK,8657.0,meters,OK,1225.0,feet,OK,0.0,mm/hr,OK,1504.0,meters,OK,1775.0,meters,OK,1975.0,meters,OK
2025-01-26T20:01:13.620707,7.7,knots,OK,223.0,degrees,OK,20.5,knots,OK,16.5,°C,OK,14.1,°C,OK,1014.1,hPa,OK,6136.0,meters,OK,1754.0,feet,OK,0.5,mm/hr,OK,1645.0,meters,OK,1981.0,meters,OK,1840.0,meters,OK
2025-01-26T20:01:14.626152,13.1,knots,OK,26.0,degrees,OK,15.6,knots,OK,22.8,°C,OK,16.1,°C,OK,1014.7,hPa,OK,5446.0,meters,OK,2072.0,feet,OK,0.3,mm/hr,OK,1776.0,meters,OK,1576.0,meters,OK,1649.0,meters,OK
2025-01-26T20:01:15.631402,14.4,knots,OK,58.0,degrees,OK,15.7,knots,OK,22.4,°C,OK,19.5,°C,OK,1014.1,hPa,OK,6657.0,meters,OK,1513.0,feet,OK,0.2,mm/hr,OK,1502.0,meters,OK,1585.0,meters,OK,1697.0,meters,OK
2025-01-26T20:01:16.636475,5.0,knots,OK,202.0,degrees,OK,23.1,knots,OK,18.8,°C,OK,12.7,°C,OK,1014.7,hPa,OK,5807.0,meters,OK,1966.0,feet,OK,0.1,mm/hr,OK,1595.0,meters,OK,1837.0,meters,OK,1655.0,meters,OK
2025-01-26T20:01:17.640730,5.3,knots,OK,308.0,degrees,OK,21.0,knots,OK,19.2,°C,OK,15.2,°C,OK,1014.5,hPa,OK,8618.0,meters,OK,2509.0,feet,OK,0.2,mm/hr,OK,1752.0,meters,OK,1937.0,meters,OK,1773.0,meters,OK
2025-01-26T20:01:18.644963,10.4,knots,OK,75.0,degrees,OK,16.7,knots,OK,15.8,°C,OK,10.9,°C,OK,1013.7,hPa,OK,9960.0,meters,OK,2831.0,feet,OK,0.4,mm/hr,OK,1915.0,meters,OK,1843.0,meters,OK,1958.0,meters,OK
2025-01-26T20:01:19.648777,9.6,knots,OK,50.0,degrees,OK,18.7,knots,OK,23.3,°C,OK,15.0,°C,OK,1014.7,hPa,OK,9198.0,meters,OK,2561.0,feet,OK,0.1,mm/hr,OK,1860.0,meters,OK,1643.0,meters,OK,1971.0,meters,OK
2025-01-26T20:01:20.653388,8.3,knots,OK,203.0,degrees,OK,11.5,knots,OK,15.8,°C,OK,19.1,°C,OK,1013.7,hPa,OK,9816.0,meters,OK,1348.0,feet,OK,0.0,mm/hr,OK,1948.0,meters,OK,1888.0,meters,OK,1671.0,meters,OK
2025-01-26T20:01:21.659535,5.6,knots,OK,193.0,degrees,OK,15.2,knots,OK,16.9,°C,OK,13.8,°C,OK,1014.2,hPa,OK,9280.0,meters,OK,1775.0,feet,OK,0.1,mm/hr,OK,1677.0,meters,OK,1891.0,meters,OK,1504.0,meters,OK
2025-01-26T20:01:22.664698,5.3,knots,OK,146.0,degrees,OK,10.7,knots,OK,20.8,°C,OK,10.8,°C,OK,1013.6,hPa,OK,5863.0,meters,OK,1920.0,feet,OK,0.3,mm/hr,OK,1727.0,meters,OK,1568.0,meters,OK,1827.0,meters,OK
2025-01-26T20:01:23.669931,14.3,knots,OK,212.0,degrees,OK,10.6,knots,OK,19.2,°C,OK,16.2,°C,OK,1013.1,hPa,OK,8112.0,meters,OK,2383.0,feet,OK,0.5,mm/hr,OK,1628.0,meters,OK,1747.0,meters,OK,1959.0,meters,OK
2025-01-26T20:01:24.675110,11.8,knots,OK,274.0,degrees,OK,21.3,knots,OK,23.7,°C,OK,11.0,°C,OK,1013.5,hPa,OK,6850.0,meters,OK,1500.0,feet,OK,0.2,mm/hr,OK,1840.0,meters,OK,1912.0,meters,OK,1722.0,meters,OK
2025-01-26T20:01:25.679611,10.0,knots,OK,261.0,degrees,OK,24.8,knots,OK,21.1,°C,OK,15.0,°C,OK,1013.1,hPa,OK,8005.0,meters,OK,1394.0,feet,OK,0.4,mm/hr,OK,1921.0,meters,OK,1998.0,meters,OK,1894.0,meters,OK
2025-01-26T20:01:26.684307,12.4,knots,OK,66.0,degrees,OK,23.4,knots,OK,24.3,°C,OK,19.9,°C,OK,1015.0,hPa,OK,5239.0,meters,OK,2052.0,feet,OK,0.5,mm/hr,OK,1678.0,meters,OK,1646.0,meters,OK,1506.0,meters,OK
2025-01-26T20:01:27.688798,13.9,knots,OK,105.0,degrees,OK,13.8,knots,OK,23.0,°C,OK,16.6,°C,OK,1014.6,hPa,OK,8023.0,meters,OK,1270.0,feet,OK,0.1,mm/hr,OK,1541.0,meters,OK,1949.0,meters,OK,1628.0,meters,OK
2025-01-26T20:01:28.693827,5.5,knots,OK,120.0,degrees,OK,22.3,knots,OK,18.2,°C,OK,18.1,°C,OK,1013.4,hPa,OK,7975.0,meters,OK,1299.0,feet,OK,0.3,mm/hr,OK,1945.0,meters,OK,1518.0,meters,OK,1504.0,meters,OK
2025-01-26T20:01:29.698901,5.8,knots,OK,203.0,degrees,OK,15.5,knots,OK,19.4,°C,OK,18.5,°C,OK,1013.2,hPa,OK,9727.0,meters,OK,1279.0,feet,OK,0.4,mm/hr,OK,1994.0,meters,OK,1836.0,meters,OK,1759.0,meters,OK
2025-01-26T20:01:30.703445,5.5,knots,OK,77.0,degrees,OK,22.4,knots,OK,19.1,°C,OK,18.4,°C,OK,1014.2,hPa,OK,6916.0,meters,OK,2931.0,feet,OK,0.0,mm/hr,OK,1850.0,meters,OK,1819.0,meters,OK,1945.0,meters,OK
2025-01-26T20:01:31.707814,6.6,knots,OK,69.0,degrees,OK,16.5,knots,OK,17.9,°C,OK,17.3,°C,OK,1014.5,hPa,OK,6484.0,meters,OK,2138.0,feet,OK,0.4,mm/hr,OK,1983.0,meters,OK,1798.0,meters,OK,1588.0,meters,OK
2025-01-26T20:01:32.712599,10.7,knots,OK,280.0,degrees,OK,17.5,knots,OK,23.9,°C,OK,17.4,°C,OK,1014.3,hPa,OK,5499.0,meters,OK,2727.0,feet,OK,0.3,mm/hr,OK,1539.0,meters,OK,1947.0,meters,OK,1803.0,meters,OK
2025-01-26T20:01:33.716805,14.2,knots,OK,323.0,degrees,OK,14.2,knots,OK,17.3,°C,OK,18.0,°C,OK,1014.5,hPa,OK,7721.0,meters,OK,2440.0,feet,OK,0.0,mm/hr,OK,1616.0,meters,OK,1545.0,meters,OK,1752.0,meters,OK
2025-01-26T20:01:34.721366,5.4,knots,OK,198.0,degrees,OK,14.5,knots,OK,21.2,°C,OK,14.0,°C,OK,1013.7,hPa,OK,6436.0,meters,OK,2891.0,feet,OK,0.4,mm/hr,OK,1994.0,meters,OK,1515.0,meters,OK,1590.0,meters,OK
2025-01-26T20:01:35.725445,14.1,knots,OK,11.0,degrees,OK,12.4,knots,OK,18.0,°C,OK,19.3,°C,OK,1013.4,hPa,OK,9667.0,meters,OK,2747.0,feet,OK,0.4,mm/hr,OK,1940.0,meters,OK,1632.0,meters,OK,1519.0,meters,OK
2025-01-26T20:01:36.729431,10.4,knots,OK,86.0,degrees,OK,15.3,knots,OK,19.2,°C,OK,17.2,°C,OK,1013.7,hPa,OK,7396.0,meters,OK,1147.0,feet,OK,0.3,mm/hr,OK,1510.0,meters,OK,1985.0,meters,OK,1982.0,meters,OK
2025-01-26T20:01:37.733540,9.7,knots,OK,310.0,degrees,OK,10.5,knots,OK,19.6,°C,OK,12.7,°C,OK,1013.5,hPa,OK,8059.0,meters,OK,1968.0,feet,OK,0.1,mm/hr,OK,1859.0,meters,OK,1636.0,meters,OK,1910.0,meters,OK
2025-01-26T20:01:38.738142,12.7,knots,OK,139.0,degrees,OK,11.9,knots,OK,22.7,°C,OK,16.8,°C,OK,1014.5,hPa,OK,7021.0,meters,OK,2464.0,feet,OK,0.2,mm/hr,OK,1778.0,meters,OK,1661.0,meters,OK,1571.0,meters,OK
2025-01-26T20:01:39.742745,11.4,knots,OK,206.0,degrees,OK,13.4,knots,OK,22.0,°C,OK,11.5,°C,OK,1013.5,hPa,OK,7431.0,meters,OK,1869.0,feet,OK,0.1,mm/hr,OK,1672.0,meters,OK,1940.0,meters,OK,1609.0,meters,OK
2025-01-26T20:01:40.747196,5.2,knots,OK,112.0,degrees,OK,20.4,knots,OK,18.1,°C,OK,10.8,°C,OK,1013.2,hPa,OK,5389.0,meters,OK,2546.0,feet,OK,0.4,mm/hr,OK,1882.0,meters,OK,1548.0,meters,OK,1868.0,meters,OK
2025-01-26T20:01:41.752609,12.3,knots,OK,240.0,degrees,OK,17.0,knots,OK,17.6,°C,OK,18.2,°C,OK,1014.8,hPa,OK,9872.0,meters,OK,1371.0,feet,OK,0.0,mm/hr,OK,1810.0,meters,OK,1855.0,meters,OK,1638.0,meters,OK
2025-01-26T20:01:42.757388,10.4,knots,OK,341.0,degrees,OK,21.0,knots,OK,15.3,°C,OK,15.4,°C,OK,1014.6,hPa,OK,9270.0,meters,OK,1921.0,feet,OK,0.4,mm/hr,OK,1585.0,meters,OK,1975.0,meters,OK,1569.0,meters,OK
2025-01-26T20:01:43.762244,14.6,knots,OK,85.0,degrees,OK,20.6,knots,OK,16.6,°C,OK,13.5,°C,OK,1013.9,hPa,OK,6708.0,meters,OK,1849.0,feet,OK,0.2,mm/hr,OK,1738.0,meters,OK,1557.0,meters,OK,1922.0,meters,OK
2025-01-26T20:01:44.766080,8.0,knots,OK,127.0,degrees,OK,16.2,knots,OK,19.1,°C,OK,12.1,°C,OK,1013.0,hPa,OK,6382.0,meters,OK,1046.0,feet,OK,0.4,mm/hr,OK,1873.0,meters,OK,1636.0,meters,OK,1607.0,meters,OK
2025-01-26T20:01:45.770483,5.8,knots,OK,359.0,degrees,OK,21.7,knots,OK,19.3,°C,OK,15.7,°C,OK,1014.0,hPa,OK,8847.0,meters,OK,2957.0,feet,OK,0.5,mm/hr,OK,1587.0,meters,OK,1871.0,meters,OK,1508.0,meters,OK
2025-01-26T20:01:46.774756,5.0,knots,OK,333.0,degrees,OK,13.5,knots,OK,22.8,°C,OK,17.7,°C,OK,1013.9,hPa,OK,5583.0,meters,OK,1155.0,feet,OK,0.5,mm/hr,OK,1942.0,meters,OK,1658.0,meters,OK,1583.0,meters,OK
2025-01-26T20:01:47.780037,13.5,knots,OK,353.0,degrees,OK,20.1,knots,OK,17.9,°C,OK,11.9,°C,OK,1014.5,hPa,OK,8259.0,meters,OK,1629.0,feet,OK,0.2,mm/hr,OK,1905.0,meters,OK,1698.0,meters,OK,1516.0,meters,OK
2025-01-26T20:01:48.785117,7.6,knots,OK,211.0,degrees,OK,10.3,knots,OK,23.8,°C,OK,10.7,°C,OK,1014.9,hPa,OK,5882.0,meters,OK,1460.0,feet,OK,0.2,mm/hr,OK,1792.0,meters,OK,1665.0,meters,OK,1663.0,meters,OK
2025-01-26T20:01:49.789208,10.9,knots,OK,25.0,degrees,OK,11.6,knots,OK,23.8,°C,OK,18.2,°C,OK,1013.6,hPa,OK,9556.0,meters,OK,2814.0,feet,OK,0.3,mm/hr,OK,1618.0,meters,OK,1556.0,meters,OK,1992.0,meters,OK
2025-01-26T20:01:50.792654,9.1,knots,OK,168.0,degrees,OK,20.6,knots,OK,17.0,°C,OK,10.6,°C,OK,1014.1,hPa,OK,7941.0,meters,OK,1470.0,feet,OK,0.2,mm/hr,OK,1815.0,meters,OK,1590.0,meters,OK,1984.0,meters,OK
2025-01-26T20:01:51.797524,14.9,knots,OK,25.0,degrees,OK,23.6,knots,OK,21.3,°C,OK,19.4,°C,OK,1013.2,hPa,OK,7284.0,meters,OK,1024.0,feet,OK,0.5,mm/hr,OK,1943.0,meters,OK,1717.0,meters,OK,1904.0,meters,OK
2025-01-26T20:01:52.801816,5.3,knots,OK,131.0,degrees,OK,10.3,knots,OK,23.1,°C,OK,15.3,°C,OK,1013.1,hPa,OK,9837.0,meters,OK,1746.0,feet,OK,0.2,mm/hr,OK,1573.0,meters,OK,1792.0,meters,OK,1691.0,meters,OK
2025-01-26T20:01:53.807062,14.3,knots,OK,226.0,degrees,OK,18.4,knots,OK,22.0,°C,OK,14.0,°C,OK,1014.2,hPa,OK,6450.0,meters,OK,1565.0,feet,OK,0.4,mm/hr,OK,1788.0,meters,OK,1542.0,meters,OK,1574.0,meters,OK
2025-01-26T20:01:54.811929,7.0,knots,OK,113.0,degrees,OK,24.3,knots,OK,15.6,°C,OK,11.1,°C,OK,1013.1,hPa,OK,5481.0,meters,OK,2950.0,feet,OK,0.1,mm/hr,OK,1873.0,meters,OK,1781.0,meters,OK,1507.0,meters,OK
2025-01-26T20:01:55.816590,14.7,knots,OK,343.0,degrees,OK,14.0,knots,OK,20.2,°C,OK,16.0,°C,OK,1013.5,hPa,OK,5543.0,meters,OK,2292.0,feet,OK,0.4,mm/hr,OK,1920.0,meters,OK,1620.0,meters,OK,1733.0,meters,OK
2025-01-26T20:01:56.820726,14.9,knots,OK,148.0,degrees,OK,17.5,knots,OK,15.2,°C,OK,11.5,°C,OK,1014.2,hPa,OK,8823.0,meters,OK,2912.0,feet,OK,0.2,mm/hr,OK,1908.0,meters,OK,1527.0,meters,OK,1862.0,meters,OK
2025-01-26T20:01:57.825492,11.2,knots,OK,298.0,degrees,OK,13.8,knots,OK,16.3,°C,OK,11.1,°C,OK,1014.7,hPa,OK,7661.0,meters,OK,1328.0,feet,OK,0.3,mm/hr,OK,1985.0,meters,OK,1743.0,meters,OK,1852.0,meters,OK
2025-01-26T20:01:58.830837,10.5,knots,OK,14.0,degrees,OK,17.2,knots,OK,22.7,°C,OK,12.3,°C,OK,1013.9,hPa,OK,5329.0,meters,OK,2761.0,feet,OK,0.5,mm/hr,OK,1556.0,meters,OK,1554.0,meters,OK,1945.0,meters,OK
2025-01-26T20:01:59.835767,5.9,knots,OK,15.0,degrees,OK,10.6,knots,OK,22.2,°C,OK,17.6,°C,OK,1013.5,hPa,OK,9766.0,meters,OK,2801.0,feet,OK,0.3,mm/hr,OK,1558.0,meters,OK,1723.0,meters,OK,1938.0,meters,OK
2025-01-26T20:02:00.840167,6.7,knots,OK,289.0,degrees,OK,19.4,knots,OK,19.7,°C,OK,12.2,°C,OK,1014.1,hPa,OK,9595.0,meters,OK,2275.0,feet,OK,0.3,mm/hr,OK,1784.0,meters,OK,1956.0,meters,OK,1611.0,meters,OK
2025-01-26T20:02:01.845414,10.2,knots,OK,179.0,degrees,OK,15.1,knots,OK,18.5,°C,OK,10.0,°C,OK,1013.8,hPa,OK,7717.0,meters,OK,2610.0,feet,OK,0.2,mm/hr,OK,1947.0,meters,OK,1810.0,meters,OK,1958.0,meters,OK
2025-01-26T20:02:02.849493,13.1,knots,OK,49.0,degrees,OK,16.3,knots,OK,20.0,°C,OK,17.9,°C,OK,1013.8,hPa,OK,5871.0,meters,OK,1757.0,feet,OK,0.3,mm/hr,OK,1635.0,meters,OK,1812.0,meters,OK,1945.0,meters,OK
2025-01-26T20:02:03.853368,10.3,knots,OK,273.0,degrees,OK,16.0,knots,OK,21.3,°C,OK,19.1,°C,OK,1014.9,hPa,OK,8028.0,meters,OK,1625.0,feet,OK,0.0,mm/hr,OK,1796.0,meters,OK,1863.0,meters,OK,1505.0,meters,OK
2025-01-26T20:02:04.858631,13.6,knots,OK,48.0,degrees,OK,22.1,knots,OK,20.3,°C,OK,19.3,°C,OK,1014.1,hPa,OK,6539.0,meters,OK,2250.0,feet,OK,0.4,mm/hr,OK,1945.0,meters,OK,1850.0,meters,OK,1739.0,meters,OK
2025-01-26T20:02:05.863146,9.4,knots,OK,324.0,degrees,OK,11.7,knots,OK,23.7,°C,OK,14.7,°C,OK,1014.3,hPa,OK,6496.0,meters,OK,2999.0,feet,OK,0.3,mm/hr,OK,1548.0,meters,OK,1913.0,meters,OK,1809.0,meters,OK
2025-01-26T20:02:06.867496,10.8,knots,OK,286.0,degrees,OK,19.6,knots,OK,16.5,°C,OK,16.5,°C,OK,1014.5,hPa,OK,6533.0,meters,OK,1635.0,feet,OK,0.1,mm/hr,OK,1693.0,meters,OK,1633.0,meters,OK,1559.0,meters,OK
2025-01-26T20:02:07.872705,5.4,knots,OK,178.0,degrees,OK,21.4,knots,OK,18.0,°C,OK,14.2,°C,OK,1013.1,hPa,OK,5557.0,meters,OK,2538.0,feet,OK,0.2,mm/hr,OK,1749.0,meters,OK,1903.0,meters,OK,1614.0,meters,OK
2025-01-26T20:02:08.877668,9.6,knots,OK,245.0,degrees,OK,24.5,knots,OK,19.9,°C,OK,15.2,°C,OK,1014.0,hPa,OK,8858.0,meters,OK,1807.0,feet,OK,0.4,mm/hr,OK,1827.0,meters,OK,1712.0,meters,OK,1656.0,meters,OK
2025-01-26T20:02:09.881921,12.4,knots,OK,345.0,degrees,OK,19.8,knots,OK,21.7,°C,OK,11.0,°C,OK,1014.2,hPa,OK,8684.0,meters,OK,2861.0,feet,OK,0.4,mm/hr,OK,1570.0,meters,OK,1796.0,meters,OK,1717.0,meters,OK
2025-01-26T20:02:10.886955,9.4,knots,OK,344.0,degrees,OK,20.0,knots,OK,20.7,°C,OK,11.8,°C,OK,1013.1,hPa,OK,7899.0,meters,OK,1552.0,feet,OK,0.2,mm/hr,OK,1507.0,meters,OK,1836.0,meters,OK,1677.0,meters,OK
2025-01-26T20:02:11.891841,8.2,knots,OK,287.0,degrees,OK,13.5,knots,OK,20.5,°C,OK,16.9,°C,OK,1014.4,hPa,OK,5860.0,meters,OK,1827.0,feet,OK,0.4,mm/hr,OK,1720.0,meters,OK,1994.0,meters,OK,1715.0,meters,OK
2025-01-26T20:02:12.906873,10.4,knots,OK,99.0,degrees,OK,16.6,knots,OK,20.9,°C,OK,14.2,°C,OK,1014.8,hPa,OK,9263.0,meters,OK,1175.0,feet,OK,0.5,mm/hr,OK,1678.0,meters,OK,1915.0,meters,OK,1959.0,meters,OK
2025-01-26T20:02:13.912336,13.8,knots,OK,225.0,degrees,OK,12.9,knots,OK,20.1,°C,OK,15.1,°C,OK,1013.2,hPa,OK,6426.0,meters,OK,1671.0,feet,OK,0.1,mm/hr,OK,1514.0,meters,OK,1958.0,meters,OK,1586.0,meters,OK
2025-01-26T20:02:14.917036,11.0,knots,OK,218.0,degrees,OK,11.9,knots,OK,24.4,°C,OK,14.0,°C,OK,1014.8,hPa,OK,9718.0,meters,OK,1024.0,feet,OK,0.4,mm/hr,OK,1555.0,meters,OK,1692.0,meters,OK,1981.0,meters,OK
2025-01-26T20:02:15.921434,7.1,knots,OK,5.0,degrees,OK,13.2,knots,OK,20.8,°C,OK,12.9,°C,OK,1014.0,hPa,OK,5206.0,meters,OK,2548.0,feet,OK,0.4,mm/hr,OK,1833.0,meters,OK,1765.0,meters,OK,1517.0,meters,OK
2025-01-26T20:02:16.926714,5.8,knots,OK,81.0,degrees,OK,19.0,knots,OK,17.7,°C,OK,14.0,°C,OK,1014.0,hPa,OK,8508.0,meters,OK,1512.0,feet,OK,0.2,mm/hr,OK,1629.0,meters,OK,1894.0,meters,OK,1934.0,meters,OK
2025-01-26T20:02:17.931359,7.2,knots,OK,198.0,degrees,OK,23.7,knots,OK,19.7,°C,OK,14.4,°C,OK,1014.6,hPa,OK,5197.0,meters,OK,2259.0,feet,OK,0.1,mm/hr,OK,1850.0,meters,OK,1626.0,meters,OK,1546.0,meters,OK
2025-01-26T20:02:18.936750,13.9,knots,OK,276.0,degrees,OK,11.8,knots,OK,20.6,°C,OK,16.6,°C,OK,1013.8,hPa,OK,5833.0,meters,OK,1224.0,feet,OK,0.1,mm/hr,OK,1532.0,meters,OK,1514.0,meters,OK,1845.0,meters,OK
2025-01-26T20:02:19.942811,8.7,knots,OK,287.0,degrees,OK,24.4,knots,OK,22.9,°C,OK,14.4,°C,OK,1014.1,hPa,OK,8145.0,meters,OK,1111.0,feet,OK,0.4,mm/hr,OK,1564.0,meters,OK,1567.0,meters,OK,1994.0,meters,OK
2025-01-26T20:02:20.946991,5.6,knots,OK,54.0,degrees,OK,13.0,knots,OK,18.8,°C,OK,11.5,°C,OK,1013.1,hPa,OK,5236.0,meters,OK,2496.0,feet,OK,0.4,mm/hr,OK,1669.0,meters,OK,1907.0,meters,OK,1693.0,meters,OK
2025-01-26T20:02:21.950589,11.1,knots,OK,311.0,degrees,OK,16.1,knots,OK,24.3,°C,OK,15.0,°C,OK,1013.4,hPa,OK,6632.0,meters,OK,1349.0,feet,OK,0.4,mm/hr,OK,1614.0,meters,OK,1968.0,meters,OK,1572.0,meters,OK
2025-01-26T20:02:22.954589,13.3,knots,OK,73.0,degrees,OK,23.4,knots,OK,20.9,°C,OK,14.7,°C,OK,1013.9,hPa,OK,5930.0,meters,OK,1777.0,feet,OK,0.3,mm/hr,OK,1525.0,meters,OK,1781.0,meters,OK,1871.0,meters,OK
2025-01-26T20:02:23.959046,15.0,knots,OK,23.0,degrees,OK,15.8,knots,OK,24.5,°C,OK,18.7,°C,OK,1014.9,hPa,OK,8216.0,meters,OK,2697.0,feet,OK,0.1,mm/hr,OK,1713.0,meters,OK,1888.0,meters,OK,1852.0,meters,OK
2025-01-26T20:02:24.963661,6.1,knots,OK,307.0,degrees,OK,24.5,knots,OK,22.2,°C,OK,19.5,°C,OK,1013.8,hPa,OK,8023.0,meters,OK,1626.0,feet,OK,0.0,mm/hr,OK,1609.0,meters,OK,1809.0,meters,OK,1830.0,meters,OK
2025-01-26T20:02:25.969061,8.9,knots,OK,17.0,degrees,OK,23.2,knots,OK,22.2,°C,OK,18.5,°C,OK,1013.3,hPa,OK,9841.0,meters,OK,2340.0,feet,OK,0.3,mm/hr,OK,1681.0,meters,OK,1609.0,meters,OK,1966.0,meters,OK
2025-01-26T20:02:26.974624,10.7,knots,OK,334.0,degrees,OK,20.2,knots,OK,20.5,°C,OK,15.4,°C,OK,1014.5,hPa,OK,8784.0,meters,OK,1247.0,feet,OK,0.3,mm/hr,OK,1641.0,meters,OK,1836.0,meters,OK,1734.0,meters,OK
2025-01-26T20:02:27.979096,6.9,knots,OK,110.0,degrees,OK,23.8,knots,OK,20.6,°C,OK,18.8,°C,OK,1013.6,hPa,OK,6499.0,meters,OK,2408.0,feet,OK,0.1,mm/hr,OK,1508.0,meters,OK,1618.0,meters,OK,1626.0,meters,OK
2025-01-26T20:02:28.982198,5.6,knots,OK,78.0,degrees,OK,22.5,knots,OK,15.3,°C,OK,13.8,°C,OK,1014.1,hPa,OK,9156.0,meters,OK,2088.0,feet,OK,0.0,mm/hr,OK,1877.0,meters,OK,1659.0,meters,OK,1933.0,meters,OK
2025-01-26T20:02:29.987150,8.9,knots,OK,190.0,degrees,OK,18.1,knots,OK,18.3,°C,OK,11.5,°C,OK,1013.1,hPa,OK,5130.0,meters,OK,2472.0,feet,OK,0.5,mm/hr,OK,1596.0,meters,OK,1691.0,meters,OK,1929.0,meters,OK
2025-01-26T20:02:30.990820,7.0,knots,OK,108.0,degrees,OK,18.0,knots,OK,22.1,°C,OK,19.4,°C,OK,1014.9,hPa,OK,7522.0,meters,OK,1029.0,feet,OK,0.1,mm/hr,OK,1710.0,meters,OK,1654.0,meters,OK,1509.0,meters,OK
2025-01-26T20:02:31.993279,12.1,knots,OK,5.0,degrees,OK,10.7,knots,OK,23.8,°C,OK,18.8,°C,OK,1014.0,hPa,OK,5763.0,meters,OK,1998.0,feet,OK,0.5,mm/hr,OK,1879.0,meters,OK,1605.0,meters,OK,1617.0,meters,OK
2025-01-26T20:02:32.995869,9.8,knots,OK,267.0,degrees,OK,17.3,knots,OK,22.4,°C,OK,16.4,°C,OK,1014.1,hPa,OK,7002.0,meters,OK,1591.0,feet,OK,0.4,mm/hr,OK,1506.0,meters,OK,1566.0,meters,OK,1523.0,meters,OK
2025-01-26T20:02:33.999411,12.8,knots,OK,345.0,degrees,OK,17.1,knots,OK,22.3,°C,OK,15.8,°C,OK,1013.4,hPa,OK,6928.0,meters,OK,1597.0,feet,OK,0.3,mm/hr,OK,1859.0,meters,OK,1569.0,meters,OK,1659.0,meters,OK
2025-01-26T20:02:35.002666,11.7,knots,OK,83.0,degrees,OK,19.6,knots,OK,17.0,°C,OK,18.4,°C,OK,1014.8,hPa,OK,6319.0,meters,OK,1026.0,feet,OK,0.4,mm/hr,OK,1693.0,meters,OK,1586.0,meters,OK,1708.0,meters,OK
2025-01-26T20:02:36.007049,6.0,knots,OK,238.0,degrees,OK,10.8,knots,OK,17.5,°C,OK,13.8,°C,OK,1014.5,hPa,OK,6539.0,meters,OK,2863.0,feet,OK,0.4,mm/hr,OK,1724.0,meters,OK,1952.0,meters,OK,1903.0,meters,OK
2025-01-26T20:02:37.012336,11.5,knots,OK,172.0,degrees,OK,24.2,knots,OK,20.6,°C,OK,16.2,°C,OK,1014.9,hPa,OK,9462.0,meters,OK,2648.0,feet,OK,0.3,mm/hr,OK,1872.0,meters,OK,1771.0,meters,OK,1619.0,meters,OK
2025-01-26T20:02:38.017407,6.5,knots,OK,182.0,degrees,OK,22.7,knots,OK,21.8,°C,OK,15.4,°C,OK,1013.1,hPa,OK,9258.0,meters,OK,1125.0,feet,OK,0.4,mm/hr,OK,1860.0,meters,OK,1893.0,meters,OK,1986.0,meters,OK
2025-01-26T20:02:39.022707,7.9,knots,OK,35.0,degrees,OK,24.4,knots,OK,22.7,°C,OK,12.3,°C,OK,1014.6,hPa,OK,8954.0,meters,OK,2510.0,feet,OK,0.0,mm/hr,OK,1642.0,meters,OK,1714.0,meters,OK,1953.0,meters,OK
2025-01-26T20:02:40.026918,5.9,knots,OK,352.0,degrees,OK,23.8,knots,OK,24.4,°C,OK,12.6,°C,OK,1013.9,hPa,OK,6029.0,meters,OK,2189.0,feet,OK,0.4,mm/hr,OK,1683.0,meters,OK,1537.0,meters,OK,1793.0,meters,OK
2025-01-26T20:02:41.030684,5.0,knots,OK,236.0,degrees,OK,21.6,knots,OK,23.5,°C,OK,11.9,°C,OK,1013.3,hPa,OK,8374.0,meters,OK,1944.0,feet,OK,0.2,mm/hr,OK,1561.0,meters,OK,1622.0,meters,OK,1547.0,meters,OK
2025-01-26T20:02:42.035773,10.5,knots,OK,191.0,degrees,OK,10.2,knots,OK,16.2,°C,OK,14.6,°C,OK,1014.5,hPa,OK,6108.0,meters,OK,2632.0,feet,OK,0.0,mm/hr,OK,1546.0,meters,OK,1637.0,meters,OK,1784.0,meters,OK
2025-01-26T20:02:43.040805,9.5,knots,OK,152.0,degrees,OK,23.2,knots,OK,18.6,°C,OK,19.5,°C,OK,1014.1,hPa,OK,5114.0,meters,OK,1427.0,feet,OK,0.5,mm/hr,OK,1801.0,meters,OK,1672.0,meters,OK,1899.0,meters,OK
2025-01-26T20:02:44.045923,7.5,knots,OK,298.0,degrees,OK,22.0,knots,OK,23.5,°C,OK,11.1,°C,OK,1014.7,hPa,OK,8351.0,meters,OK,2430.0,feet,OK,0.3,mm/hr,OK,1797.0,meters,OK,1608.0,meters,OK,1652.0,meters,OK
2025-01-26T20:02:45.051064,11.4,knots,OK,293.0,degrees,OK,17.9,knots,OK,22.6,°C,OK,13.1,°C,OK,1014.6,hPa,OK,8620.0,meters,OK,2025.0,feet,OK,0.5,mm/hr,OK,1652.0,meters,OK,1936.0,meters,OK,1653.0,meters,OK
2025-01-26T20:02:46.056179,5.0,knots,OK,36.0,degrees,OK,23.2,knots,OK,17.2,°C,OK,15.5,°C,OK,1014.2,hPa,OK,7502.0,meters,OK,2123.0,feet,OK,0.1,mm/hr,OK,1906.0,meters,OK,1806.0,meters,OK,1510.0,meters,OK
2025-01-26T20:02:47.061020,7.1,knots,OK,34.0,degrees,OK,12.9,knots,OK,17.6,°C,OK,15.7,°C,OK,1014.5,hPa,OK,5305.0,meters,OK,1601.0,feet,OK,0.2,mm/hr,OK,1918.0,meters,OK,1849.0,meters,OK,1838.0,meters,OK
2025-01-26T20:02:48.065508,8.7,knots,OK,265.0,degrees,OK,14.8,knots,OK,16.0,°C,OK,16.0,°C,OK,1013.1,hPa,OK,6391.0,meters,OK,1364.0,feet,OK,0.1,mm/hr,OK,1991.0,meters,OK,1802.0,meters,OK,1989.0,meters,OK
2025-01-26T20:02:49.070050,6.6,knots,OK,224.0,degrees,OK,20.2,knots,OK,24.9,°C,OK,15.8,°C,OK,1013.3,hPa,OK,7982.0,meters,OK,1314.0,feet,OK,0.1,mm/hr,OK,1814.0,meters,OK,1531.0,meters,OK,1522.0,meters,OK
2025-01-26T20:02:50.075528,12.6,knots,OK,245.0,degrees,OK,10.5,knots,OK,19.0,°C,OK,14.2,°C,OK,1014.8,hPa,OK,8082.0,meters,OK,1615.0,feet,OK,0.2,mm/hr,OK,1663.0,meters,OK,1905.0,meters,OK,1683.0,meters,OK
2025-01-26T20:02:51.080836,13.3,knots,OK,268.0,degrees,OK,11.0,knots,OK,22.9,°C,OK,16.7,°C,OK,1014.2,hPa,OK,7330.0,meters,OK,1062.0,feet,OK,0.3,mm/hr,OK,1626.0,meters,OK,1888.0,meters,OK,1937.0,meters,OK
2025-01-26T20:02:52.085796,9.8,knots,OK,357.0,degrees,OK,20.9,knots,OK,19.8,°C,OK,14.2,°C,OK,1013.2,hPa,OK,5860.0,meters,OK,2780.0,feet,OK,0.0,mm/hr,OK,1596.0,meters,OK,1532.0,meters,OK,1839.0,meters,OK
2025-01-26T20:02:53.089935,12.8,knots,OK,197.0,degrees,OK,23.0,knots,OK,17.5,°C,OK,11.3,°C,OK,1014.7,hPa,OK,5241.0,meters,OK,2484.0,feet,OK,0.2,mm/hr,OK,1815.0,meters,OK,1623.0,meters,OK,1773.0,meters,OK
2025-01-26T20:02:54.094693,13.5,knots,OK,54.0,degrees,OK,20.2,knots,OK,20.0,°C,OK,12.7,°C,OK,1014.1,hPa,OK,5933.0,meters,OK,1154.0,feet,OK,0.4,mm/hr,OK,1737.0,meters,OK,1635.0,meters,OK,1560.0,meters,OK
2025-01-26T20:02:55.099452,14.8,knots,OK,123.0,degrees,OK,17.0,knots,OK,24.1,°C,OK,14.3,°C,OK,1013.2,hPa,OK,6456.0,meters,OK,1018.0,feet,OK,0.2,mm/hr,OK,1721.0,meters,OK,1827.0,meters,OK,1627.0,meters,OK
2025-01-26T20:02:56.104094,9.2,knots,OK,146.0,degrees,OK,11.2,knots,OK,15.8,°C,OK,11.1,°C,OK,1013.8,hPa,OK,7545.0,meters,OK,1831.0,feet,OK,0.0,mm/hr,OK,1752.0,meters,OK,1843.0,meters,OK,1590.0,meters,OK
2025-01-26T20:02:57.109860,5.3,knots,OK,83.0,degrees,OK,19.5,knots,OK,18.7,°C,OK,12.6,°C,OK,1014.9,hPa,OK,7389.0,meters,OK,1806.0,feet,OK,0.4,mm/hr,OK,1924.0,meters,OK,1540.0,meters,OK,1842.0,meters,OK
2025-01-26T20:02:58.114315,8.2,knots,OK,109.0,degrees,OK,23.8,knots,OK,17.9,°C,OK,13.0,°C,OK,1014.9,hPa,OK,6143.0,meters,OK,1197.0,feet,OK,0.3,mm/hr,OK,1858.0,meters,OK,1791.0,meters,OK,1726.0,meters,OK
2025-01-26T20:02:59.119114,8.3,knots,OK,175.0,degrees,OK,16.0,knots,OK,23.5,°C,OK,17.1,°C,OK,1014.0,hPa,OK,9868.0,meters,OK,1223.0,feet,OK,0.0,mm/hr,OK,1935.0,meters,OK,1747.0,meters,OK,1632.0,meters,OK
2025-01-26T20:03:00.123779,13.2,knots,OK,113.0,degrees,OK,21.0,knots,OK,23.4,°C,OK,11.6,°C,OK,1013.0,hPa,OK,6332.0,meters,OK,1423.0,feet,OK,0.2,mm/hr,OK,1778.0,meters,OK,1997.0,meters,OK,1742.0,meters,OK
2025-01-26T20:03:01.128367,6.8,knots,OK,118.0,degrees,OK,11.5,knots,OK,17.7,°C,OK,15.2,°C,OK,1014.8,hPa,OK,8809.0,meters,OK,2402.0,feet,OK,0.2,mm/hr,OK,1819.0,meters,OK,1812.0,meters,OK,1708.0,meters,OK
2025-01-26T20:03:02.133606,5.8,knots,OK,200.0,degrees,OK,21.3,knots,OK,16.7,°C,OK,12.4,°C,OK,1013.7,hPa,OK,9203.0,meters,OK,1641.0,feet,OK,0.2,mm/hr,OK,1916.0,meters,OK,1508.0,meters,OK,1672.0,meters,OK
2025-01-26T20:03:03.138310,6.3,knots,OK,354.0,degrees,OK,10.3,knots,OK,16.6,°C,OK,12.2,°C,OK,1014.5,hPa,OK,5215.0,meters,OK,2207.0,feet,OK,0.5,mm/hr,OK,1565.0,meters,OK,1597.0,meters,OK,1631.0,meters,OK
2025-01-26T20:03:04.143066,7.5,knots,OK,71.0,degrees,OK,18.8,knots,OK,20.1,°C,OK,12.7,°C,OK,1013.7,hPa,OK,6895.0,meters,OK,1915.0,feet,OK,0.2,mm/hr,OK,1559.0,meters,OK,1984.0,meters,OK,1583.0,meters,OK
2025-01-26T20:03:05.148332,11.2,knots,OK,285.0,degrees,OK,21.4,knots,OK,19.0,°C,OK,19.0,°C,OK,1014.9,hPa,OK,5175.0,meters,OK,1682.0,feet,OK,0.1,mm/hr,OK,1685.0,meters,OK,1708.0,meters,OK,1565.0,meters,OK
2025-01-26T20:03:06.152136,8.8,knots,OK,21.0,degrees,OK,15.2,knots,OK,18.1,°C,OK,16.2,°C,OK,1013.8,hPa,OK,8865.0,meters,OK,2270.0,feet,OK,0.2,mm/hr,OK,1679.0,meters,OK,1726.0,meters,OK,1707.0,meters,OK
2025-01-26T20:03:07.163356,6.3,knots,OK,11.0,degrees,OK,20.0,knots,OK,22.6,°C,OK,13.3,°C,OK,1015.0,hPa,OK,9503.0,meters,OK,1275.0,feet,OK,0.5,mm/hr,OK,1965.0,meters,OK,1874.0,meters,OK,1798.0,meters,OK
2025-01-26T20:03:08.170100,11.2,knots,OK,55.0,degrees,OK,18.8,knots,OK,15.4,°C,OK,10.9,°C,OK,1013.7,hPa,OK,5325.0,meters,OK,1518.0,feet,OK,0.4,mm/hr,OK,1914.0,meters,OK,1939.0,meters,OK,1508.0,meters,OK
2025-01-26T20:03:09.175046,6.4,knots,OK,187.0,degrees,OK,15.5,knots,OK,19.0,°C,OK,19.0,°C,OK,1014.8,hPa,OK,9918.0,meters,OK,1237.0,feet,OK,0.2,mm/hr,OK,1859.0,meters,OK,1709.0,meters,OK,1722.0,meters,OK
2025-01-26T20:03:10.179972,6.4,knots,OK,226.0,degrees,OK,20.4,knots,OK,23.3,°C,OK,10.3,°C,OK,1013.0,hPa,OK,6341.0,meters,OK,2538.0,feet,OK,0.1,mm/hr,OK,1783.0,meters,OK,1630.0,meters,OK,1616.0,meters,OK
2025-01-26T20:03:11.185088,13.0,knots,OK,27.0,degrees,OK,16.4,knots,OK,19.4,°C,OK,18.1,°C,OK,1014.0,hPa,OK,6762.0,meters,OK,2610.0,feet,OK,0.2,mm/hr,OK,1771.0,meters,OK,1933.0,meters,OK,1912.0,meters,OK
2025-01-26T20:03:12.189570,6.0,knots,OK,11.0,degrees,OK,19.2,knots,OK,17.1,°C,OK,19.9,°C,OK,1013.7,hPa,OK,6223.0,meters,OK,1424.0,feet,OK,0.3,mm/hr,OK,1635.0,meters,OK,1856.0,meters,OK,1990.0,meters,OK
2025-01-26T20:03:13.193217,6.4,knots,OK,332.0,degrees,OK,12.3,knots,OK,23.6,°C,OK,17.8,°C,OK,1014.8,hPa,OK,9932.0,meters,OK,1230.0,feet,OK,0.3,mm/hr,OK,1784.0,meters,OK,1538.0,meters,OK,1869.0,meters,OK
2025-01-26T20:03:14.197650,12.8,knots,OK,308.0,degrees,OK,10.4,knots,OK,20.2,°C,OK,13.5,°C,OK,1014.9,hPa,OK,6526.0,meters,OK,2713.0,feet,OK,0.3,mm/hr,OK,1614.0,meters,OK,1783.0,meters,OK,1760.0,meters,OK
2025-01-26T20:03:15.203120,11.7,knots,OK,201.0,degrees,OK,19.3,knots,OK,15.1,°C,OK,14.3,°C,OK,1014.9,hPa,OK,5634.0,meters,OK,2747.0,feet,OK,0.5,mm/hr,OK,1653.0,meters,OK,1780.0,meters,OK,1620.0,meters,OK
2025-01-26T20:03:16.208461,14.5,knots,OK,84.0,degrees,OK,12.8,knots,OK,16.7,°C,OK,13.3,°C,OK,1013.2,hPa,OK,9081.0,meters,OK,1827.0,feet,OK,0.1,mm/hr,OK,1806.0,meters,OK,1721.0,meters,OK,1660.0,meters,OK
2025-01-26T20:03:17.213368,10.0,knots,OK,94.0,degrees,OK,12.4,knots,OK,24.8,°C,OK,16.5,°C,OK,1014.8,hPa,OK,5693.0,meters,OK,2174.0,feet,OK,0.0,mm/hr,OK,1665.0,meters,OK,1558.0,meters,OK,1708.0,meters,OK
2025-01-26T20:03:18.218305,7.2,knots,OK,14.0,degrees,OK,10.3,knots,OK,22.0,°C,OK,17.0,°C,OK,1013.9,hPa,OK,8739.0,meters,OK,2230.0,feet,OK,0.4,mm/hr,OK,1785.0,meters,OK,1785.0,meters,OK,1960.0,meters,OK
2025-01-26T20:03:19.222285,13.7,knots,OK,324.0,degrees,OK,21.6,knots,OK,17.6,°C,OK,19.5,°C,OK,1014.5,hPa,OK,7438.0,meters,OK,2136.0,feet,OK,0.5,mm/hr,OK,1828.0,meters,OK,1767.0,meters,OK,1606.0,meters,OK
2025-01-26T20:03:20.226838,11.7,knots,OK,129.0,degrees,OK,10.6,knots,OK,24.9,°C,OK,15.3,°C,OK,1013.7,hPa,OK,8719.0,meters,OK,2346.0,feet,OK,0.3,mm/hr,OK,1852.0,meters,OK,1576.0,meters,OK,1593.0,meters,OK
2025-01-26T20:03:21.231633,12.6,knots,OK,78.0,degrees,OK,16.0,knots,OK,17.5,°C,OK,17.4,°C,OK,1014.7,hPa,OK,7990.0,meters,OK,2911.0,feet,OK,0.2,mm/hr,OK,1812.0,meters,OK,1557.0,meters,OK,1871.0,meters,OK
2025-01-26T20:03:22.236468,5.8,knots,OK,83.0,degrees,OK,18.7,knots,OK,18.2,°C,OK,19.6,°C,OK,1013.9,hPa,OK,7241.0,meters,OK,1491.0,feet,OK,0.0,mm/hr,OK,1915.0,meters,OK,1691.0,meters,OK,1952.0,meters,OK
2025-01-26T20:03:23.241319,14.7,knots,OK,191.0,degrees,OK,17.7,knots,OK,20.7,°C,OK,15.2,°C,OK,1014.8,hPa,OK,6018.0,meters,OK,1404.0,feet,OK,0.3,mm/hr,OK,1802.0,meters,OK,1990.0,meters,OK,1962.0,meters,OK
2025-01-26T20:03:24.245362,10.3,knots,OK,171.0,degrees,OK,15.3,knots,OK,22.7,°C,OK,11.1,°C,OK,1014.5,hPa,OK,5555.0,meters,OK,2477.0,feet,OK,0.1,mm/hr,OK,1680.0,meters,OK,1915.0,meters,OK,1547.0,meters,OK
2025-01-26T20:03:25.248863,10.8,knots,OK,51.0,degrees,OK,24.0,knots,OK,18.8,°C,OK,14.6,°C,OK,1013.0,hPa,OK,6174.0,meters,OK,1739.0,feet,OK,0.1,mm/hr,OK,1748.0,meters,OK,1920.0,meters,OK,1713.0,meters,OK
2025-01-26T20:03:26.253313,10.1,knots,OK,126.0,degrees,OK,13.3,knots,OK,18.7,°C,OK,11.1,°C,OK,1013.6,hPa,OK,9991.0,meters,OK,1627.0,feet,OK,0.3,mm/hr,OK,1761.0,meters,OK,2000.0,meters,OK,1573.0,meters,OK
2025-01-26T20:03:27.257867,5.9,knots,OK,35.0,degrees,OK,20.2,knots,OK,22.5,°C,OK,18.1,°C,OK,1014.0,hPa,OK,5374.0,meters,OK,1356.0,feet,OK,0.4,mm/hr,OK,1961.0,meters,OK,1915.0,meters,OK,1687.0,meters,OK
2025-01-26T20:03:28.262364,14.0,knots,OK,273.0,degrees,OK,14.6,knots,OK,21.0,°C,OK,14.4,°C,OK,1013.6,hPa,OK,9906.0,meters,OK,1681.0,feet,OK,0.1,mm/hr,OK,1976.0,meters,OK,1705.0,meters,OK,1745.0,meters,OK
2025-01-26T20:03:29.266577,7.4,knots,OK,76.0,degrees,OK,19.6,knots,OK,21.0,°C,OK,16.7,°C,OK,1015.0,hPa,OK,6525.0,meters,OK,2632.0,feet,OK,0.1,mm/hr,OK,1772.0,meters,OK,1797.0,meters,OK,1836.0,meters,OK
2025-01-26T20:03:30.270819,5.4,knots,OK,73.0,degrees,OK,17.5,knots,OK,22.6,°C,OK,18.4,°C,OK,1013.2,hPa,OK,5460.0,meters,OK,2598.0,feet,OK,0.2,mm/hr,OK,1725.0,meters,OK,1777.0,meters,OK,1658.0,meters,OK
2025-01-26T20:03:31.274783,8.8,knots,OK,350.0,degrees,OK,21.7,knots,OK,21.8,°C,OK,12.7,°C,OK,1013.6,hPa,OK,6892.0,meters,OK,2440.0,feet,OK,0.4,mm/hr,OK,1974.0,meters,OK,1951.0,meters,OK,1799.0,meters,OK
2025-01-26T20:03:32.278594,10.2,knots,OK,326.0,degrees,OK,23.0,knots,OK,23.4,°C,OK,14.1,°C,OK,1013.7,hPa,OK,6628.0,meters,OK,2242.0,feet,OK,0.1,mm/hr,OK,1524.0,meters,OK,1723.0,meters,OK,1961.0,meters,OK
2025-01-26T20:03:33.282558,7.9,knots,OK,146.0,degrees,OK,21.4,knots,OK,21.0,°C,OK,16.6,°C,OK,1013.3,hPa,OK,6562.0,meters,OK,2569.0,feet,OK,0.3,mm/hr,OK,1549.0,meters,OK,1623.0,meters,OK,1849.0,meters,OK
2025-01-26T20:03:34.286661,5.4,knots,OK,76.0,degrees,OK,23.3,knots,OK,15.9,°C,OK,14.4,°C,OK,1014.4,hPa,OK,6146.0,meters,OK,1880.0,feet,OK,0.2,mm/hr,OK,1711.0,meters,OK,1874.0,meters,OK,1718.0,meters,OK
2025-01-26T20:03:35.291368,13.6,knots,OK,352.0,degrees,OK,15.8,knots,OK,24.4,°C,OK,17.3,°C,OK,1013.6,hPa,OK,5157.0,meters,OK,2238.0,feet,OK,0.4,mm/hr,OK,1536.0,meters,OK,1555.0,meters,OK,1797.0,meters,OK
2025-01-26T20:03:36.296354,9.8,knots,OK,101.0,degrees,OK,12.5,knots,OK,15.4,°C,OK,13.5,°C,OK,1013.2,hPa,OK,8414.0,meters,OK,1367.0,feet,OK,0.0,mm/hr,OK,1976.0,meters,OK,1510.0,meters,OK,1963.0,meters,OK
2025-01-26T20:03:37.300681,10.0,knots,OK,335.0,degrees,OK,14.4,knots,OK,22.9,°C,OK,14.7,°C,OK,1014.4,hPa,OK,6031.0,meters,OK,2571.0,feet,OK,0.3,mm/hr,OK,1850.0,meters,OK,1863.0,meters,OK,1721.0,meters,OK
2025-01-26T20:03:38.304401,10.5,knots,OK,69.0,degrees,OK,14.9,knots,OK,16.9,°C,OK,12.3,°C,OK,1014.6,hPa,OK,7168.0,meters,OK,2149.0,feet,OK,0.4,mm/hr,OK,1508.0,meters,OK,1977.0,meters,OK,1741.0,meters,OK
2025-01-26T20:03:39.308923,8.6,knots,OK,136.0,degrees,OK,17.0,knots,OK,16.4,°C,OK,10.5,°C,OK,1013.5,hPa,OK,8991.0,meters,OK,1013.0,feet,OK,0.4,mm/hr,OK,1627.0,meters,OK,1569.0,meters,OK,1569.0,meters,OK
2025-01-26T20:03:40.313515,7.3,knots,OK,267.0,degrees,OK,20.5,knots,OK,22.7,°C,OK,15.9,°C,OK,1014.0,hPa,OK,6017.0,meters,OK,2062.0,feet,OK,0.3,mm/hr,OK,1622.0,meters,OK,1768.0,meters,OK,1748.0,meters,OK
2025-01-26T20:03:41.318613,7.4,knots,OK,198.0,degrees,OK,10.3,knots,OK,19.7,°C,OK,13.9,°C,OK,1014.0,hPa,OK,5148.0,meters,OK,1949.0,feet,OK,0.2,mm/hr,OK,1969.0,meters,OK,1973.0,meters,OK,1940.0,meters,OK
2025-01-26T20:03:42.323320,7.9,knots,OK,123.0,degrees,OK,16.1,knots,OK,15.1,°C,OK,10.3,°C,OK,1014.4,hPa,OK,5238.0,meters,OK,1609.0,feet,OK,0.0,mm/hr,OK,1880.0,meters,OK,1972.0,meters,OK,1824.0,meters,OK
2025-01-26T20:03:43.327322,14.1,knots,OK,186.0,degrees,OK,14.3,knots,OK,23.1,°C,OK,14.9,°C,OK,1014.0,hPa,OK,5595.0,meters,OK,2700.0,feet,OK,0.4,mm/hr,OK,1716.0,meters,OK,1792.0,meters,OK,1977.0,meters,OK
2025-01-26T20:03:44.330692,14.6,knots,OK,105.0,degrees,OK,13.7,knots,OK,22.8,°C,OK,13.3,°C,OK,1014.4,hPa,OK,5847.0,meters,OK,1342.0,feet,OK,0.2,mm/hr,OK,1809.0,meters,OK,1660.0,meters,OK,1585.0,meters,OK
2025-01-26T20:03:45.334501,10.0,knots,OK,161.0,degrees,OK,16.8,knots,OK,19.5,°C,OK,14.2,°C,OK,1014.9,hPa,OK,9715.0,meters,OK,2496.0,feet,OK,0.2,mm/hr,OK,1565.0,meters,OK,1766.0,meters,OK,1651.0,meters,OK
2025-01-26T20:03:46.339134,9.1,knots,OK,139.0,degrees,OK,16.4,knots,OK,20.8,°C,OK,12.8,°C,OK,1013.1,hPa,OK,5502.0,meters,OK,1091.0,feet,OK,0.2,mm/hr,OK,1532.0,meters,OK,1554.0,meters,OK,1673.0,meters,OK
2025-01-26T20:03:47.343916,7.3,knots,OK,244.0,degrees,OK,19.7,knots,OK,18.5,°C,OK,19.2,°C,OK,1013.3,hPa,OK,7745.0,meters,OK,1375.0,feet,OK,0.2,mm/hr,OK,1757.0,meters,OK,1581.0,meters,OK,1503.0,meters,OK
2025-01-26T20:03:48.348402,13.3,knots,OK,167.0,degrees,OK,17.4,knots,OK,22.7,°C,OK,10.2,°C,OK,1013.1,hPa,OK,6258.0,meters,OK,2993.0,feet,OK,0.5,mm/hr,OK,1547.0,meters,OK,1828.0,meters,OK,1886.0,meters,OK
2025-01-26T20:03:49.352918,13.8,knots,OK,296.0,degrees,OK,11.1,knots,OK,20.4,°C,OK,14.7,°C,OK,1014.0,hPa,OK,8997.0,meters,OK,1461.0,feet,OK,0.1,mm/hr,OK,1853.0,meters,OK,1815.0,meters,OK,1664.0,meters,OK
2025-01-26T20:03:50.357054,11.4,knots,OK,279.0,degrees,OK,24.3,knots,OK,19.9,°C,OK,17.0,°C,OK,1014.0,hPa,OK,5375.0,meters,OK,1926.0,feet,OK,0.4,mm/hr,OK,1571.0,meters,OK,1929.0,meters,OK,1793.0,meters,OK
2025-01-26T20:03:51.361675,13.8,knots,OK,303.0,degrees,OK,19.0,knots,OK,22.2,°C,OK,14.2,°C,OK,1013.8,hPa,OK,5379.0,meters,OK,1795.0,feet,OK,0.3,mm/hr,OK,1805.0,meters,OK,1877.0,meters,OK,1958.0,meters,OK
2025-01-26T20:03:52.366359,7.5,knots,OK,146.0,degrees,OK,17.6,knots,OK,15.2,°C,OK,19.1,°C,OK,1014.2,hPa,OK,7050.0,meters,OK,2958.0,feet,OK,0.1,mm/hr,OK,1989.0,meters,OK,1707.0,meters,OK,1697.0,meters,OK
2025-01-26T20:03:53.371762,12.9,knots,OK,96.0,degrees,OK,22.6,knots,OK,22.1,°C,OK,17.7,°C,OK,1013.5,hPa,OK,5852.0,meters,OK,2770.0,feet,OK,0.2,mm/hr,OK,1615.0,meters,OK,1858.0,meters,OK,1502.0,meters,OK
2025-01-26T20:03:54.376480,9.0,knots,OK,189.0,degrees,OK,16.0,knots,OK,17.1,°C,OK,12.8,°C,OK,1014.2,hPa,OK,6970.0,meters,OK,1068.0,feet,OK,0.2,mm/hr,OK,1867.0,meters,OK,1604.0,meters,OK,1709.0,meters,OK
2025-01-26T20:03:55.381334,8.2,knots,OK,5.0,degrees,OK,14.4,knots,OK,21.9,°C,OK,17.7,°C,OK,1014.1,hPa,OK,8612.0,meters,OK,2903.0,feet,OK,0.4,mm/hr,OK,1671.0,meters,OK,1738.0,meters,OK,1920.0,meters,OK
2025-01-26T20:03:56.385484,5.6,knots,OK,352.0,degrees,OK,10.4,knots,OK,17.2,°C,OK,12.6,°C,OK,1013.7,hPa,OK,6990.0,meters,OK,1979.0,feet,OK,0.1,mm/hr,OK,1661.0,meters,OK,1796.0,meters,OK,1870.0,meters,OK
2025-01-26T20:03:57.389130,5.4,knots,OK,351.0,degrees,OK,10.4,knots,OK,19.1,°C,OK,11.5,°C,OK,1013.2,hPa,OK,9746.0,meters,OK,2509.0,feet,OK,0.3,mm/hr,OK,1802.0,meters,OK,1758.0,meters,OK,1681.0,meters,OK
2025-01-26T20:03:58.394012,6.7,knots,OK,263.0,degrees,OK,20.3,knots,OK,21.0,°C,OK,10.5,°C,OK,1013.4,hPa,OK,8555.0,meters,OK,1942.0,feet,OK,0.0,mm/hr,OK,1812.0,meters,OK,1675.0,meters,OK,1827.0,meters,OK
2025-01-26T20:03:59.398662,10.0,knots,OK,4.0,degrees,OK,11.7,knots,OK,17.9,°C,OK,11.7,°C,OK,1014.5,hPa,OK,7065.0,meters,OK,1917.0,feet,OK,0.2,mm/hr,OK,1826.0,meters,OK,1789.0,meters,OK,1645.0,meters,OK
2025-01-26T20:04:00.404129,10.9,knots,OK,100.0,degrees,OK,20.2,knots,OK,20.9,°C,OK,14.7,°C,OK,1014.5,hPa,OK,8083.0,meters,OK,1236.0,feet,OK,0.2,mm/hr,OK,1602.0,meters,OK,1883.0,meters,OK,1781.0,meters,OK
2025-01-26T20:04:01.409553,13.0,knots,OK,274.0,degrees,OK,16.9,knots,OK,15.2,°C,OK,14.9,°C,OK,1013.1,hPa,OK,7060.0,meters,OK,2548.0,feet,OK,0.0,mm/hr,OK,1537.0,meters,OK,1976.0,meters,OK,1916.0,meters,OK
2025-01-26T20:04:02.413815,9.2,knots,OK,259.0,degrees,OK,20.8,knots,OK,20.7,°C,OK,11.2,°C,OK,1014.6,hPa,OK,7693.0,meters,OK,1764.0,feet,OK,0.0,mm/hr,OK,1761.0,meters,OK,1781.0,meters,OK,1532.0,meters,OK
2025-01-26T20:04:03.417978,7.2,knots,OK,76.0,degrees,OK,13.4,knots,OK,23.4,°C,OK,10.8,°C,OK,1013.5,hPa,OK,6182.0,meters,OK,2439.0,feet,OK,0.4,mm/hr,OK,1711.0,meters,OK,1587.0,meters,OK,1697.0,meters,OK
2025-01-26T20:04:04.421196,10.8,knots,OK,86.0,degrees,OK,23.3,knots,OK,17.2,°C,OK,19.4,°C,OK,1014.0,hPa,OK,8980.0,meters,OK,1673.0,feet,OK,0.2,mm/hr,OK,1907.0,meters,OK,1625.0,meters,OK,1728.0,meters,OK
2025-01-26T20:04:05.426073,10.7,knots,OK,250.0,degrees,OK,15.5,knots,OK,24.5,°C,OK,16.0,°C,OK,1013.2,hPa,OK,9202.0,meters,OK,1792.0,feet,OK,0.2,mm/hr,OK,1628.0,meters,OK,1838.0,meters,OK,1559.0,meters,OK
2025-01-26T20:04:06.430732,12.2,knots,OK,126.0,degrees,OK,19.4,knots,OK,24.5,°C,OK,18.0,°C,OK,1014.4,hPa,OK,5498.0,meters,OK,1249.0,feet,OK,0.3,mm/hr,OK,1565.0,meters,OK,1834.0,meters,OK,1978.0,meters,OK
2025-01-26T20:04:07.435541,8.8,knots,OK,78.0,degrees,OK,13.5,knots,OK,21.3,°C,OK,11.8,°C,OK,1014.5,hPa,OK,5583.0,meters,OK,2333.0,feet,OK,0.1,mm/hr,OK,1955.0,meters,OK,1542.0,meters,OK,1676.0,meters,OK
2025-01-26T20:04:08.439461,10.1,knots,OK,341.0,degrees,OK,18.6,knots,OK,21.5,°C,OK,17.2,°C,OK,1014.3,hPa,OK,7306.0,meters,OK,2588.0,feet,OK,0.4,mm/hr,OK,1738.0,meters,OK,1689.0,meters,OK,1989.0,meters,OK
2025-01-26T20:04:09.443590,10.0,knots,OK,196.0,degrees,OK,10.6,knots,OK,15.8,°C,OK,11.8,°C,OK,1013.4,hPa,OK,9864.0,meters,OK,1506.0,feet,OK,0.1,mm/hr,OK,1716.0,meters,OK,1637.0,meters,OK,1839.0,meters,OK
2025-01-26T20:04:10.447600,10.9,knots,OK,338.0,degrees,OK,12.4,knots,OK,21.0,°C,OK,19.8,°C,OK,1013.1,hPa,OK,8131.0,meters,OK,1912.0,feet,OK,0.2,mm/hr,OK,1650.0,meters,OK,1868.0,meters,OK,1552.0,meters,OK
2025-01-26T20:04:11.451388,12.1,knots,OK,316.0,degrees,OK,11.6,knots,OK,23.3,°C,OK,19.8,°C,OK,1014.5,hPa,OK,5146.0,meters,OK,2374.0,feet,OK,0.1,mm/hr,OK,1691.0,meters,OK,1692.0,meters,OK,1951.0,meters,OK
2025-01-26T20:04:12.455228,14.5,knots,OK,333.0,degrees,OK,20.0,knots,OK,21.8,°C,OK,17.8,°C,OK,1014.7,hPa,OK,8579.0,meters,OK,1925.0,feet,OK,0.4,mm/hr,OK,1880.0,meters,OK,1901.0,meters,OK,1780.0,meters,OK
2025-01-26T20:04:13.460168,9.1,knots,OK,44.0,degrees,OK,20.7,knots,OK,21.0,°C,OK,16.4,°C,OK,1014.5,hPa,OK,6927.0,meters,OK,1778.0,feet,OK,0.4,mm/hr,OK,1966.0,meters,OK,1539.0,meters,OK,1863.0,meters,OK
2025-01-26T20:04:14.466724,11.9,knots,OK,34.0,degrees,OK,21.8,knots,OK,15.6,°C,OK,16.1,°C,OK,1014.1,hPa,OK,5932.0,meters,OK,2237.0,feet,OK,0.2,mm/hr,OK,1690.0,meters,OK,1981.0,meters,OK,1620.0,meters,OK
2025-01-26T20:04:15.471184,13.0,knots,OK,76.0,degrees,OK,24.1,knots,OK,23.7,°C,OK,16.5,°C,OK,1013.2,hPa,OK,8284.0,meters,OK,2083.0,feet,OK,0.4,mm/hr,OK,1843.0,meters,OK,1982.0,meters,OK,1835.0,meters,OK
2025-01-26T20:04:16.475610,12.4,knots,OK,132.0,degrees,OK,11.8,knots,OK,19.0,°C,OK,14.9,°C,OK,1014.2,hPa,OK,6257.0,meters,OK,1279.0,feet,OK,0.3,mm/hr,OK,1635.0,meters,OK,1813.0,meters,OK,1653.0,meters,OK
2025-01-26T20:04:17.480815,5.3,knots,OK,145.0,degrees,OK,13.8,knots,OK,22.6,°C,OK,18.9,°C,OK,1014.0,hPa,OK,8009.0,meters,OK,1233.0,feet,OK,0.1,mm/hr,OK,1831.0,meters,OK,1551.0,meters,OK,1739.0,meters,OK
2025-01-26T20:04:18.484994,5.0,knots,OK,57.0,degrees,OK,14.7,knots,OK,20.5,°C,OK,16.5,°C,OK,1014.2,hPa,OK,9734.0,meters,OK,1512.0,feet,OK,0.1,mm/hr,OK,1528.0,meters,OK,1760.0,meters,OK,1688.0,meters,OK
2025-01-26T20:04:19.488897,7.6,knots,OK,7.0,degrees,OK,10.6,knots,OK,18.2,°C,OK,19.5,°C,OK,1013.9,hPa,OK,7905.0,meters,OK,2697.0,feet,OK,0.2,mm/hr,OK,1666.0,meters,OK,1783.0,meters,OK,1777.0,meters,OK
2025-01-26T20:04:20.493681,6.2,knots,OK,271.0,degrees,OK,11.3,knots,OK,18.0,°C,OK,18.3,°C,OK,1013.2,hPa,OK,7631.0,meters,OK,1944.0,feet,OK,0.2,mm/hr,OK,1514.0,meters,OK,1593.0,meters,OK,1748.0,meters,OK
2025-01-26T20:04:21.498506,7.5,knots,OK,78.0,degrees,OK,16.7,knots,OK,24.0,°C,OK,19.2,°C,OK,1013.0,hPa,OK,7711.0,meters,OK,1996.0,feet,OK,0.0,mm/hr,OK,1948.0,meters,OK,1532.0,meters,OK,1624.0,meters,OK
2025-01-26T20:04:22.501910,12.9,knots,OK,222.0,degrees,OK,16.3,knots,OK,18.3,°C,OK,15.6,°C,OK,1013.2,hPa,OK,8831.0,meters,OK,1422.0,feet,OK,0.2,mm/hr,OK,1818.0,meters,OK,1652.0,meters,OK,1933.0,meters,OK
2025-01-26T20:04:23.505771,7.0,knots,OK,340.0,degrees,OK,22.4,knots,OK,19.9,°C,OK,13.3,°C,OK,1013.5,hPa,OK,5152.0,meters,OK,2614.0,feet,OK,0.3,mm/hr,OK,1846.0,meters,OK,1555.0,meters,OK,1853.0,meters,OK
2025-01-26T20:04:24.510639,14.6,knots,OK,295.0,degrees,OK,13.7,knots,OK,21.1,°C,OK,17.2,°C,OK,1013.3,hPa,OK,5419.0,meters,OK,1053.0,feet,OK,0.0,mm/hr,OK,1717.0,meters,OK,1528.0,meters,OK,1749.0,meters,OK
2025-01-26T20:04:25.515058,5.7,knots,OK,2.0,degrees,OK,21.2,knots,OK,23.2,°C,OK,10.4,°C,OK,1013.7,hPa,OK,5408.0,meters,OK,2203.0,feet,OK,0.5,mm/hr,OK,1826.0,meters,OK,1788.0,meters,OK,1845.0,meters,OK
2025-01-26T20:04:26.520530,8.4,knots,OK,259.0,degrees,OK,21.2,knots,OK,22.3,°C,OK,14.1,°C,OK,1013.0,hPa,OK,5585.0,meters,OK,1776.0,feet,OK,0.1,mm/hr,OK,1754.0,meters,OK,1840.0,meters,OK,1616.0,meters,OK
2025-01-26T20:04:27.525632,14.3,knots,OK,128.0,degrees,OK,14.9,knots,OK,24.4,°C,OK,18.6,°C,OK,1014.0,hPa,OK,7708.0,meters,OK,1057.0,feet,OK,0.1,mm/hr,OK,1865.0,meters,OK,1586.0,meters,OK,1600.0,meters,OK
2025-01-26T20:04:28.529862,11.9,knots,OK,49.0,degrees,OK,11.7,knots,OK,17.5,°C,OK,19.5,°C,OK,1013.2,hPa,OK,5435.0,meters,OK,1570.0,feet,OK,0.4,mm/hr,OK,1550.0,meters,OK,1662.0,meters,OK,1798.0,meters,OK
2025-01-26T20:04:29.533640,10.2,knots,OK,21.0,degrees,OK,15.1,knots,OK,16.3,°C,OK,16.3,°C,OK,1014.1,hPa,OK,9453.0,meters,OK,1199.0,feet,OK,0.3,mm/hr,OK,1694.0,meters,OK,1873.0,meters,OK,1832.0,meters,OK
2025-01-26T20:04:30.538278,10.2,knots,OK,191.0,degrees,OK,17.3,knots,OK,22.6,°C,OK,14.0,°C,OK,1014.5,hPa,OK,6904.0,meters,OK,2844.0,feet,OK,0.2,mm/hr,OK,1733.0,meters,OK,1991.0,meters,OK,1953.0,meters,OK
2025-01-26T20:04:31.543432,5.0,knots,OK,33.0,degrees,OK,18.6,knots,OK,21.1,°C,OK,10.8,°C,OK,1013.9,hPa,OK,9780.0,meters,OK,1572.0,feet,OK,0.4,mm/hr,OK,1764.0,meters,OK,1909.0,meters,OK,1640.0,meters,OK
2025-01-26T20:04:32.548061,8.4,knots,OK,306.0,degrees,OK,11.8,knots,OK,18.4,°C,OK,11.6,°C,OK,1014.2,hPa,OK,5488.0,meters,OK,2333.0,feet,OK,0.2,mm/hr,OK,1598.0,meters,OK,1757.0,meters,OK,1513.0,meters,OK
2025-01-26T20:04:33.552456,12.6,knots,OK,42.0,degrees,OK,23.7,knots,OK,15.9,°C,OK,17.6,°C,OK,1013.2,hPa,OK,5010.0,meters,OK,1326.0,feet,OK,0.5,mm/hr,OK,1539.0,meters,OK,1820.0,meters,OK,1843.0,meters,OK
2025-01-26T20:04:34.556321,5.4,knots,OK,320.0,degrees,OK,19.5,knots,OK,16.3,°C,OK,11.3,°C,OK,1013.9,hPa,OK,9980.0,meters,OK,2394.0,feet,OK,0.2,mm/hr,OK,1944.0,meters,OK,1920.0,meters,OK,1724.0,meters,OK
2025-01-26T20:04:35.560545,6.2,knots,OK,238.0,degrees,OK,13.1,knots,OK,21.2,°C,OK,11.3,°C,OK,1013.5,hPa,OK,5983.0,meters,OK,1888.0,feet,OK,0.4,mm/hr,OK,1685.0,meters,OK,1727.0,meters,OK,1732.0,meters,OK
2025-01-26T20:04:36.565457,10.5,knots,OK,179.0,degrees,OK,15.8,knots,OK,17.1,°C,OK,13.3,°C,OK,1013.1,hPa,OK,6491.0,meters,OK,2329.0,feet,OK,0.3,mm/hr,OK,1677.0,meters,OK,1799.0,meters,OK,1561.0,meters,OK
2025-01-26T20:04:37.570031,11.7,knots,OK,24.0,degrees,OK,12.7,knots,OK,24.4,°C,OK,14.4,°C,OK,1014.3,hPa,OK,6758.0,meters,OK,1474.0,feet,OK,0.3,mm/hr,OK,1727.0,meters,OK,1799.0,meters,OK,1886.0,meters,OK
2025-01-26T20:04:38.574791,12.1,knots,OK,40.0,degrees,OK,17.3,knots,OK,19.6,°C,OK,13.0,°C,OK,1014.7,hPa,OK,7794.0,meters,OK,2092.0,feet,OK,0.0,mm/hr,OK,1569.0,meters,OK,1788.0,meters,OK,1700.0,meters,OK
2025-01-26T20:04:39.579605,13.9,knots,OK,238.0,degrees,OK,23.8,knots,OK,16.5,°C,OK,15.0,°C,OK,1013.9,hPa,OK,8448.0,meters,OK,1522.0,feet,OK,0.1,mm/hr,OK,1623.0,meters,OK,1768.0,meters,OK,1539.0,meters,OK
2025-01-26T20:04:40.583076,14.0,knots,OK,259.0,degrees,OK,12.2,knots,OK,24.6,°C,OK,17.7,°C,OK,1013.9,hPa,OK,7710.0,meters,OK,2343.0,feet,OK,0.3,mm/hr,OK,1918.0,meters,OK,1803.0,meters,OK,1620.0,meters,OK
2025-01-26T20:04:41.587982,12.2,knots,OK,273.0,degrees,OK,20.9,knots,OK,21.1,°C,OK,14.1,°C,OK,1014.5,hPa,OK,5072.0,meters,OK,1971.0,feet,OK,0.5,mm/hr,OK,1916.0,meters,OK,1702.0,meters,OK,1844.0,meters,OK
2025-01-26T20:04:42.592034,10.6,knots,OK,202.0,degrees,OK,22.2,knots,OK,24.4,°C,OK,15.4,°C,OK,1014.9,hPa,OK,5391.0,meters,OK,2939.0,feet,OK,0.1,mm/hr,OK,1724.0,meters,OK,1583.0,meters,OK,1945.0,meters,OK
2025-01-26T20:04:43.596707,12.1,knots,OK,314.0,degrees,OK,24.3,knots,OK,22.6,°C,OK,12.5,°C,OK,1013.4,hPa,OK,8464.0,meters,OK,2286.0,feet,OK,0.5,mm/hr,OK,1907.0,meters,OK,1644.0,meters,OK,1652.0,meters,OK
2025-01-26T20:04:44.601334,10.2,knots,OK,234.0,degrees,OK,20.6,knots,OK,15.9,°C,OK,12.2,°C,OK,1014.4,hPa,OK,5810.0,meters,OK,2825.0,feet,OK,0.5,mm/hr,OK,1898.0,meters,OK,1770.0,meters,OK,1666.0,meters,OK
2025-01-26T20:04:45.606071,6.9,knots,OK,171.0,degrees,OK,16.1,knots,OK,15.5,°C,OK,14.0,°C,OK,1013.3,hPa,OK,7931.0,meters,OK,1762.0,feet,OK,0.1,mm/hr,OK,1912.0,meters,OK,1711.0,meters,OK,1881.0,meters,OK
2025-01-26T20:04:46.610720,12.2,knots,OK,38.0,degrees,OK,16.4,knots,OK,16.4,°C,OK,15.4,°C,OK,1013.9,hPa,OK,5438.0,meters,OK,2696.0,feet,OK,0.4,mm/hr,OK,1760.0,meters,OK,1769.0,meters,OK,1978.0,meters,OK
2025-01-26T20:04:47.615928,5.5,knots,OK,191.0,degrees,OK,16.2,knots,OK,22.6,°C,OK,10.2,°C,OK,1013.7,hPa,OK,9091.0,meters,OK,2305.0,feet,OK,0.4,mm/hr,OK,1888.0,meters,OK,1660.0,meters,OK,1758.0,meters,OK
2025-01-26T20:04:48.619893,10.1,knots,OK,81.0,degrees,OK,15.7,knots,OK,15.5,°C,OK,18.8,°C,OK,1014.7,hPa,OK,9357.0,meters,OK,2823.0,feet,OK,0.5,mm/hr,OK,1907.0,meters,OK,1911.0,meters,OK,1775.0,meters,OK
2025-01-26T20:04:49.624587,14.4,knots,OK,22.0,degrees,OK,16.9,knots,OK,22.7,°C,OK,18.5,°C,OK,1013.8,hPa,OK,8343.0,meters,OK,1118.0,feet,OK,0.1,mm/hr,OK,1858.0,meters,OK,1686.0,meters,OK,1683.0,meters,OK
2025-01-26T20:04:50.629843,7.3,knots,OK,294.0,degrees,OK,18.5,knots,OK,17.2,°C,OK,11.9,°C,OK,1014.9,hPa,OK,5869.0,meters,OK,1696.0,feet,OK,0.2,mm/hr,OK,1503.0,meters,OK,1900.0,meters,OK,1560.0,meters,OK
2025-01-26T20:04:51.635301,5.9,knots,OK,71.0,degrees,OK,24.8,knots,OK,24.2,°C,OK,11.7,°C,OK,1013.6,hPa,OK,8807.0,meters,OK,2425.0,feet,OK,0.4,mm/hr,OK,1981.0,meters,OK,1990.0,meters,OK,1569.0,meters,OK
2025-01-26T20:04:52.640433,13.9,knots,OK,340.0,degrees,OK,19.4,knots,OK,16.9,°C,OK,10.3,°C,OK,1013.4,hPa,OK,8404.0,meters,OK,2259.0,feet,OK,0.3,mm/hr,OK,1651.0,meters,OK,1582.0,meters,OK,1568.0,meters,OK
2025-01-26T20:04:53.644731,6.1,knots,OK,320.0,degrees,OK,18.1,knots,OK,23.5,°C,OK,18.5,°C,OK,1013.2,hPa,OK,8496.0,meters,OK,2045.0,feet,OK,0.1,mm/hr,OK,1902.0,meters,OK,1658.0,meters,OK,1813.0,meters,OK
2025-01-26T20:04:54.649408,11.6,knots,OK,216.0,degrees,OK,15.3,knots,OK,18.3,°C,OK,14.5,°C,OK,1014.4,hPa,OK,7870.0,meters,OK,1525.0,feet,OK,0.2,mm/hr,OK,1848.0,meters,OK,1908.0,meters,OK,1527.0,meters,OK
2025-01-26T20:04:55.654141,6.6,knots,OK,230.0,degrees,OK,11.2,knots,OK,24.1,°C,OK,10.1,°C,OK,1014.6,hPa,OK,9324.0,meters,OK,2912.0,feet,OK,0.2,mm/hr,OK,1542.0,meters,OK,1979.0,meters,OK,1873.0,meters,OK
2025-01-26T20:04:56.658945,5.2,knots,OK,348.0,degrees,OK,14.3,knots,OK,19.9,°C,OK,18.1,°C,OK,1014.1,hPa,OK,6048.0,meters,OK,2712.0,feet,OK,0.2,mm/hr,OK,1914.0,meters,OK,1949.0,meters,OK,1846.0,meters,OK
2025-01-26T20:04:57.664026,12.9,knots,OK,327.0,degrees,OK,10.6,knots,OK,19.3,°C,OK,11.7,°C,OK,1014.3,hPa,OK,9360.0,meters,OK,2887.0,feet,OK,0.0,mm/hr,OK,1888.0,meters,OK,1685.0,meters,OK,1863.0,meters,OK
2025-01-26T20:04:58.668908,11.7,knots,OK,107.0,degrees,OK,20.3,knots,OK,22.6,°C,OK,11.4,°C,OK,1014.7,hPa,OK,6160.0,meters,OK,1991.0,feet,OK,0.0,mm/hr,OK,1786.0,meters,OK,1626.0,meters,OK,1750.0,meters,OK
2025-01-26T20:04:59.672815,6.7,knots,OK,217.0,degrees,OK,16.6,knots,OK,24.5,°C,OK,11.0,°C,OK,1014.7,hPa,OK,7515.0,meters,OK,1256.0,feet,OK,0.1,mm/hr,OK,1708.0,meters,OK,1502.0,meters,OK,1742.0,meters,OK
2025-01-26T20:05:00.677284,8.2,knots,OK,60.0,degrees,OK,16.6,knots,OK,22.4,°C,OK,16.2,°C,OK,1014.8,hPa,OK,5890.0,meters,OK,2174.0,feet,OK,0.3,mm/hr,OK,1923.0,meters,OK,1706.0,meters,OK,1962.0,meters,OK
2025-01-26T20:05:01.681889,7.8,knots,OK,228.0,degrees,OK,20.5,knots,OK,20.4,°C,OK,15.6,°C,OK,1014.5,hPa,OK,7910.0,meters,OK,1154.0,feet,OK,0.0,mm/hr,OK,1750.0,meters,OK,1745.0,meters,OK,1884.0,meters,OK
2025-01-26T20:05:02.686681,7.4,knots,OK,261.0,degrees,OK,12.8,knots,OK,18.6,°C,OK,10.3,°C,OK,1013.3,hPa,OK,6204.0,meters,OK,2874.0,feet,OK,0.3,mm/hr,OK,1772.0,meters,OK,1511.0,meters,OK,1721.0,meters,OK
2025-01-26T20:05:03.691985,11.3,knots,OK,298.0,degrees,OK,20.7,knots,OK,24.8,°C,OK,16.4,°C,OK,1013.1,hPa,OK,8091.0,meters,OK,1075.0,feet,OK,0.4,mm/hr,OK,1585.0,meters,OK,1937.0,meters,OK,1615.0,meters,OK
2025-01-26T20:05:04.697149,8.3,knots,OK,319.0,degrees,OK,24.6,knots,OK,21.5,°C,OK,11.7,°C,OK,1013.1,hPa,OK,5815.0,meters,OK,1262.0,feet,OK,0.4,mm/hr,OK,1611.0,meters,OK,1967.0,meters,OK,1666.0,meters,OK
2025-01-26T20:05:05.701806,5.6,knots,OK,303.0,degrees,OK,21.2,knots,OK,22.1,°C,OK,17.3,°C,OK,1014.8,hPa,OK,5018.0,meters,OK,2682.0,feet,OK,0.4,mm/hr,OK,1958.0,meters,OK,1637.0,meters,OK,1523.0,meters,OK
2025-01-26T20:05:06.705691,10.3,knots,OK,102.0,degrees,OK,18.7,knots,OK,23.2,°C,OK,19.6,°C,OK,1014.9,hPa,OK,6313.0,meters,OK,1274.0,feet,OK,0.2,mm/hr,OK,1859.0,meters,OK,1691.0,meters,OK,1726.0,meters,OK
2025-01-26T20:05:07.710121,11.6,knots,OK,275.0,degrees,OK,24.3,knots,OK,18.0,°C,OK,17.5,°C,OK,1014.3,hPa,OK,8198.0,meters,OK,2545.0,feet,OK,0.4,mm/hr,OK,1806.0,meters,OK,1946.0,meters,OK,1949.0,meters,OK
2025-01-26T20:05:08.715193,10.5,knots,OK,275.0,degrees,OK,22.1,knots,OK,16.9,°C,OK,17.0,°C,OK,1013.6,hPa,OK,6070.0,meters,OK,2536.0,feet,OK,0.5,mm/hr,OK,1713.0,meters,OK,1913.0,meters,OK,1605.0,meters,OK
2025-01-26T20:05:09.719594,12.2,knots,OK,102.0,degrees,OK,19.0,knots,OK,24.5,°C,OK,11.0,°C,OK,1013.7,hPa,OK,6782.0,meters,OK,2600.0,feet,OK,0.3,mm/hr,OK,1564.0,meters,OK,1936.0,meters,OK,1617.0,meters,OK
2025-01-26T20:05:10.724498,10.6,knots,OK,159.0,degrees,OK,16.2,knots,OK,21.9,°C,OK,12.9,°C,OK,1014.2,hPa,OK,5819.0,meters,OK,2674.0,feet,OK,0.1,mm/hr,OK,1863.0,meters,OK,1658.0,meters,OK,1957.0,meters,OK
2025-01-26T20:05:11.730010,7.8,knots,OK,145.0,degrees,OK,11.0,knots,OK,19.3,°C,OK,13.0,°C,OK,1014.6,hPa,OK,6231.0,meters,OK,1364.0,feet,OK,0.5,mm/hr,OK,1878.0,meters,OK,1985.0,meters,OK,1515.0,meters,OK
2025-01-26T20:05:12.734796,5.1,knots,OK,45.0,degrees,OK,21.7,knots,OK,15.5,°C,OK,15.4,°C,OK,1013.5,hPa,OK,6661.0,meters,OK,1738.0,feet,OK,0.4,mm/hr,OK,1867.0,meters,OK,1571.0,meters,OK,1937.0,meters,OK
2025-01-26T20:05:13.738669,9.4,knots,OK,222.0,degrees,OK,20.6,knots,OK,17.7,°C,OK,18.3,°C,OK,1013.2,hPa,OK,8022.0,meters,OK,1704.0,feet,OK,0.1,mm/hr,OK,1711.0,meters,OK,1766.0,meters,OK,1651.0,meters,OK
2025-01-26T20:05:14.743813,5.2,knots,OK,261.0,degrees,OK,11.3,knots,OK,22.8,°C,OK,19.4,°C,OK,1014.3,hPa,OK,6619.0,meters,OK,2131.0,feet,OK,0.0,mm/hr,OK,1981.0,meters,OK,1908.0,meters,OK,1738.0,meters,OK
2025-01-26T20:05:15.748302,12.3,knots,OK,104.0,degrees,OK,17.3,knots,OK,19.9,°C,OK,14.1,°C,OK,1014.2,hPa,OK,9142.0,meters,OK,1675.0,feet,OK,0.2,mm/hr,OK,1718.0,meters,OK,1690.0,meters,OK,1633.0,meters,OK
2025-01-26T20:05:16.753007,15.0,knots,OK,142.0,degrees,OK,21.0,knots,OK,21.4,°C,OK,13.2,°C,OK,1014.5,hPa,OK,6133.0,meters,OK,1606.0,feet,OK,0.3,mm/hr,OK,1674.0,meters,OK,1677.0,meters,OK,1638.0,meters,OK
2025-01-26T20:05:17.757641,9.9,knots,OK,314.0,degrees,OK,10.9,knots,OK,19.9,°C,OK,13.3,°C,OK,1014.9,hPa,OK,7067.0,meters,OK,1812.0,feet,OK,0.2,mm/hr,OK,1896.0,meters,OK,1677.0,meters,OK,1974.0,meters,OK
2025-01-26T20:05:18.762774,10.9,knots,OK,177.0,degrees,OK,17.0,knots,OK,22.6,°C,OK,16.8,°C,OK,1014.5,hPa,OK,7962.0,meters,OK,2568.0,feet,OK,0.1,mm/hr,OK,1873.0,meters,OK,1581.0,meters,OK,1580.0,meters,OK
2025-01-26T20:05:19.767650,7.2,knots,OK,271.0,degrees,OK,21.6,knots,OK,16.1,°C,OK,14.4,°C,OK,1013.9,hPa,OK,5819.0,meters,OK,2244.0,feet,OK,0.2,mm/hr,OK,1870.0,meters,OK,1996.0,meters,OK,1578.0,meters,OK
2025-01-26T20:05:20.772303,10.2,knots,OK,88.0,degrees,OK,12.6,knots,OK,18.0,°C,OK,16.0,°C,OK,1014.0,hPa,OK,8260.0,meters,OK,2392.0,feet,OK,0.2,mm/hr,OK,1925.0,meters,OK,1692.0,meters,OK,1546.0,meters,OK
2025-01-26T20:05:21.778409,13.8,knots,OK,277.0,degrees,OK,17.6,knots,OK,21.5,°C,OK,14.6,°C,OK,1014.2,hPa,OK,6048.0,meters,OK,1393.0,feet,OK,0.2,mm/hr,OK,1782.0,meters,OK,1859.0,meters,OK,1595.0,meters,OK
2025-01-26T20:05:22.784141,14.5,knots,OK,62.0,degrees,OK,23.3,knots,OK,20.8,°C,OK,18.0,°C,OK,1014.8,hPa,OK,6244.0,meters,OK,2867.0,feet,OK,0.4,mm/hr,OK,1675.0,meters,OK,1895.0,meters,OK,1540.0,meters,OK
2025-01-26T20:05:23.788950,14.6,knots,OK,201.0,degrees,OK,15.7,knots,OK,18.0,°C,OK,18.0,°C,OK,1014.0,hPa,OK,8222.0,meters,OK,1543.0,feet,OK,0.4,mm/hr,OK,1885.0,meters,OK,1638.0,meters,OK,1605.0,meters,OK
2025-01-26T20:05:24.793911,10.6,knots,OK,277.0,degrees,OK,20.2,knots,OK,21.2,°C,OK,13.6,°C,OK,1013.7,hPa,OK,5735.0,meters,OK,1230.0,feet,OK,0.1,mm/hr,OK,1801.0,meters,OK,1797.0,meters,OK,1843.0,meters,OK
2025-01-26T20:05:25.798076,13.9,knots,OK,173.0,degrees,OK,11.7,knots,OK,24.9,°C,OK,19.5,°C,OK,1015.0,hPa,OK,8805.0,meters,OK,2999.0,feet,OK,0.2,mm/hr,OK,1961.0,meters,OK,1677.0,meters,OK,1787.0,meters,OK
2025-01-26T20:05:26.802162,9.3,knots,OK,184.0,degrees,OK,16.5,knots,OK,18.0,°C,OK,18.7,°C,OK,1013.9,hPa,OK,7026.0,meters,OK,1792.0,feet,OK,0.2,mm/hr,OK,1994.0,meters,OK,1716.0,meters,OK,1850.0,meters,OK
2025-01-26T20:05:27.807021,5.5,knots,OK,273.0,degrees,OK,13.6,knots,OK,17.8,°C,OK,17.9,°C,OK,1013.9,hPa,OK,9443.0,meters,OK,2828.0,feet,OK,0.3,mm/hr,OK,1601.0,meters,OK,1955.0,meters,OK,1687.0,meters,OK
2025-01-26T20:05:28.811404,11.8,knots,OK,225.0,degrees,OK,22.7,knots,OK,24.6,°C,OK,11.3,°C,OK,1013.9,hPa,OK,7761.0,meters,OK,2445.0,feet,OK,0.3,mm/hr,OK,1989.0,meters,OK,1932.0,meters,OK,1751.0,meters,OK
2025-01-26T20:05:29.816682,7.7,knots,OK,350.0,degrees,OK,23.0,knots,OK,17.7,°C,OK,19.5,°C,OK,1014.6,hPa,OK,8518.0,meters,OK,2614.0,feet,OK,0.1,mm/hr,OK,1839.0,meters,OK,1523.0,meters,OK,1588.0,meters,OK
2025-01-26T20:05:30.822082,11.9,knots,OK,254.0,degrees,OK,10.6,knots,OK,24.1,°C,OK,19.9,°C,OK,1014.9,hPa,OK,7827.0,meters,OK,1341.0,feet,OK,0.1,mm/hr,OK,1916.0,meters,OK,1611.0,meters,OK,1519.0,meters,OK
2025-01-26T20:05:31.825659,5.1,knots,OK,305.0,degrees,OK,19.3,knots,OK,23.3,°C,OK,13.7,°C,OK,1013.4,hPa,OK,9675.0,meters,OK,1821.0,feet,OK,0.1,mm/hr,OK,1862.0,meters,OK,1633.0,meters,OK,1728.0,meters,OK
2025-01-26T20:05:32.829156,5.1,knots,OK,103.0,degrees,OK,22.5,knots,OK,16.6,°C,OK,20.0,°C,OK,1013.3,hPa,OK,5756.0,meters,OK,1904.0,feet,OK,0.1,mm/hr,OK,1929.0,meters,OK,1638.0,meters,OK,1936.0,meters,OK
2025-01-26T20:05:33.833295,8.9,knots,OK,250.0,degrees,OK,20.3,knots,OK,24.8,°C,OK,19.7,°C,OK,1014.0,hPa,OK,6153.0,meters,OK,2728.0,feet,OK,0.2,mm/hr,OK,1564.0,meters,OK,1710.0,meters,OK,1805.0,meters,OK
2025-01-26T20:05:34.837906,14.2,knots,OK,289.0,degrees,OK,21.4,knots,OK,19.4,°C,OK,12.0,°C,OK,1013.6,hPa,OK,7285.0,meters,OK,1315.0,feet,OK,0.0,mm/hr,OK,1762.0,meters,OK,1771.0,meters,OK,1638.0,meters,OK
2025-01-26T20:05:35.841862,6.0,knots,OK,343.0,degrees,OK,14.5,knots,OK,19.7,°C,OK,19.9,°C,OK,1014.2,hPa,OK,7757.0,meters,OK,1892.0,feet,OK,0.4,mm/hr,OK,1674.0,meters,OK,1796.0,meters,OK,1623.0,meters,OK
2025-01-26T20:05:36.846191,13.4,knots,OK,200.0,degrees,OK,24.1,knots,OK,19.2,°C,OK,16.6,°C,OK,1014.1,hPa,OK,9692.0,meters,OK,2980.0,feet,OK,0.3,mm/hr,OK,1932.0,meters,OK,1886.0,meters,OK,1817.0,meters,OK
2025-01-26T20:05:37.851059,12.3,knots,OK,255.0,degrees,OK,23.6,knots,OK,24.9,°C,OK,16.9,°C,OK,1014.1,hPa,OK,7965.0,meters,OK,2344.0,feet,OK,0.5,mm/hr,OK,1673.0,meters,OK,1814.0,meters,OK,1750.0,meters,OK
2025-01-26T20:05:38.854581,10.7,knots,OK,261.0,degrees,OK,13.0,knots,OK,19.7,°C,OK,16.2,°C,OK,1013.5,hPa,OK,9459.0,meters,OK,2885.0,feet,OK,0.3,mm/hr,OK,1575.0,meters,OK,1525.0,meters,OK,1967.0,meters,OK
2025-01-26T20:05:39.858863,8.8,knots,OK,271.0,degrees,OK,10.6,knots,OK,18.0,°C,OK,12.3,°C,OK,1014.3,hPa,OK,5299.0,meters,OK,2354.0,feet,OK,0.2,mm/hr,OK,1705.0,meters,OK,1994.0,meters,OK,1578.0,meters,OK
2025-01-26T20:05:40.864239,6.3,knots,OK,301.0,degrees,OK,17.7,knots,OK,18.8,°C,OK,17.8,°C,OK,1014.2,hPa,OK,8380.0,meters,OK,1748.0,feet,OK,0.4,mm/hr,OK,1870.0,meters,OK,1580.0,meters,OK,1759.0,meters,OK
2025-01-26T20:05:41.869834,10.0,knots,OK,127.0,degrees,OK,12.0,knots,OK,22.7,°C,OK,10.5,°C,OK,1013.8,hPa,OK,6408.0,meters,OK,1231.0,feet,OK,0.1,mm/hr,OK,1561.0,meters,OK,1531.0,meters,OK,1787.0,meters,OK
2025-01-26T20:05:42.874450,14.2,knots,OK,251.0,degrees,OK,18.6,knots,OK,18.7,°C,OK,14.1,°C,OK,1014.9,hPa,OK,5317.0,meters,OK,2569.0,feet,OK,0.2,mm/hr,OK,1704.0,meters,OK,1945.0,meters,OK,1851.0,meters,OK
2025-01-26T20:05:43.879338,8.1,knots,OK,8.0,degrees,OK,22.5,knots,OK,19.6,°C,OK,16.5,°C,OK,1014.3,hPa,OK,8760.0,meters,OK,2033.0,feet,OK,0.2,mm/hr,OK,1939.0,meters,OK,1952.0,meters,OK,1928.0,meters,OK
2025-01-26T20:05:44.883339,11.6,knots,OK,311.0,degrees,OK,12.2,knots,OK,19.4,°C,OK,15.0,°C,OK,1014.7,hPa,OK,5206.0,meters,OK,2799.0,feet,OK,0.3,mm/hr,OK,2000.0,meters,OK,1816.0,meters,OK,1879.0,meters,OK
2025-01-26T20:05:45.887506,12.7,knots,OK,181.0,degrees,OK,23.8,knots,OK,19.8,°C,OK,14.6,°C,OK,1013.2,hPa,OK,9292.0,meters,OK,1568.0,feet,OK,0.0,mm/hr,OK,1736.0,meters,OK,1878.0,meters,OK,1955.0,meters,OK
2025-01-26T20:05:46.891718,14.6,knots,OK,68.0,degrees,OK,17.9,knots,OK,23.3,°C,OK,10.4,°C,OK,1014.1,hPa,OK,8858.0,meters,OK,2373.0,feet,OK,0.4,mm/hr,OK,1590.0,meters,OK,1842.0,meters,OK,1751.0,meters,OK
2025-01-26T20:05:47.896425,11.5,knots,OK,171.0,degrees,OK,25.0,knots,OK,24.2,°C,OK,17.0,°C,OK,1013.0,hPa,OK,7504.0,meters,OK,1231.0,feet,OK,0.2,mm/hr,OK,1686.0,meters,OK,1866.0,meters,OK,1610.0,meters,OK
2025-01-26T20:05:48.901772,5.8,knots,OK,286.0,degrees,OK,11.1,knots,OK,21.2,°C,OK,10.9,°C,OK,1014.7,hPa,OK,6327.0,meters,OK,1392.0,feet,OK,0.1,mm/hr,OK,1959.0,meters,OK,1932.0,meters,OK,1577.0,meters,OK
2025-01-26T20:05:49.906794,6.8,knots,OK,307.0,degrees,OK,11.8,knots,OK,21.9,°C,OK,16.8,°C,OK,1013.4,hPa,OK,5743.0,meters,OK,2010.0,feet,OK,0.5,mm/hr,OK,1527.0,meters,OK,1985.0,meters,OK,1792.0,meters,OK
2025-01-26T20:05:50.911678,10.9,knots,OK,36.0,degrees,OK,19.2,knots,OK,16.6,°C,OK,18.4,°C,OK,1014.0,hPa,OK,6440.0,meters,OK,1535.0,feet,OK,0.3,mm/hr,OK,1676.0,meters,OK,1740.0,meters,OK,1635.0,meters,OK
2025-01-26T20:05:51.915805,5.4,knots,OK,293.0,degrees,OK,16.1,knots,OK,20.8,°C,OK,18.0,°C,OK,1013.8,hPa,OK,5274.0,meters,OK,1683.0,feet,OK,0.3,mm/hr,OK,1816.0,meters,OK,1947.0,meters,OK,1923.0,meters,OK
2025-01-26T20:05:52.920525,8.5,knots,OK,192.0,degrees,OK,13.8,knots,OK,15.6,°C,OK,15.6,°C,OK,1013.4,hPa,OK,8926.0,meters,OK,1181.0,feet,OK,0.4,mm/hr,OK,1712.0,meters,OK,1981.0,meters,OK,1785.0,meters,OK
2025-01-26T20:05:53.925642,9.6,knots,OK,315.0,degrees,OK,16.9,knots,OK,19.4,°C,OK,19.4,°C,OK,1014.0,hPa,OK,9096.0,meters,OK,1687.0,feet,OK,0.4,mm/hr,OK,1739.0,meters,OK,1574.0,meters,OK,1603.0,meters,OK
2025-01-26T20:05:54.930862,13.5,knots,OK,124.0,degrees,OK,10.8,knots,OK,23.3,°C,OK,12.3,°C,OK,1015.0,hPa,OK,8721.0,meters,OK,2733.0,feet,OK,0.4,mm/hr,OK,1614.0,meters,OK,1572.0,meters,OK,1654.0,meters,OK
2025-01-26T20:05:55.935992,7.2,knots,OK,196.0,degrees,OK,21.6,knots,OK,24.5,°C,OK,15.1,°C,OK,1014.7,hPa,OK,8994.0,meters,OK,2954.0,feet,OK,0.4,mm/hr,OK,1524.0,meters,OK,1507.0,meters,OK,1502.0,meters,OK
2025-01-26T20:05:56.940253,12.2,knots,OK,5.0,degrees,OK,23.7,knots,OK,19.2,°C,OK,14.8,°C,OK,1014.8,hPa,OK,6173.0,meters,OK,2440.0,feet,OK,0.4,mm/hr,OK,1678.0,meters,OK,1895.0,meters,OK,1898.0,meters,OK
2025-01-26T20:05:57.945321,14.5,knots,OK,20.0,degrees,OK,10.0,knots,OK,15.4,°C,OK,10.1,°C,OK,1013.4,hPa,OK,6392.0,meters,OK,2474.0,feet,OK,0.1,mm/hr,OK,1681.0,meters,OK,1837.0,meters,OK,1804.0,meters,OK
2025-01-26T20:05:58.951408,14.8,knots,OK,295.0,degrees,OK,11.3,knots,OK,22.2,°C,OK,12.6,°C,OK,1013.1,hPa,OK,6945.0,meters,OK,2253.0,feet,OK,0.3,mm/hr,OK,1680.0,meters,OK,1528.0,meters,OK,1625.0,meters,OK
2025-01-26T20:05:59.957227,11.1,knots,OK,274.0,degrees,OK,13.3,knots,OK,15.5,°C,OK,18.5,°C,OK,1013.6,hPa,OK,6174.0,meters,OK,1823.0,feet,OK,0.4,mm/hr,OK,1913.0,meters,OK,1837.0,meters,OK,1990.0,meters,OK
2025-01-26T20:06:00.962588,5.8,knots,OK,254.0,degrees,OK,10.9,knots,OK,20.9,°C,OK,14.4,°C,OK,1013.1,hPa,OK,8117.0,meters,OK,2803.0,feet,OK,0.0,mm/hr,OK,1535.0,meters,OK,1821.0,meters,OK,1552.0,meters,OK
2025-01-26T20:06:01.967926,14.3,knots,OK,356.0,degrees,OK,20.6,knots,OK,19.8,°C,OK,16.8,°C,OK,1014.2,hPa,OK,6766.0,meters,OK,2050.0,feet,OK,0.2,mm/hr,OK,1675.0,meters,OK,1924.0,meters,OK,1754.0,meters,OK
2025-01-26T20:06:02.973334,8.2,knots,OK,31.0,degrees,OK,22.8,knots,OK,17.7,°C,OK,15.7,°C,OK,1014.8,hPa,OK,9768.0,meters,OK,2296.0,feet,OK,0.1,mm/hr,OK,1785.0,meters,OK,1703.0,meters,OK,1597.0,meters,OK
2025-01-26T20:06:03.977725,14.3,knots,OK,54.0,degrees,OK,10.9,knots,OK,17.6,°C,OK,10.3,°C,OK,1013.9,hPa,OK,9727.0,meters,OK,2925.0,feet,OK,0.4,mm/hr,OK,1755.0,meters,OK,1770.0,meters,OK,1709.0,meters,OK
2025-01-26T20:06:04.983098,6.9,knots,OK,261.0,degrees,OK,10.8,knots,OK,22.8,°C,OK,15.8,°C,OK,1014.4,hPa,OK,7586.0,meters,OK,1686.0,feet,OK,0.2,mm/hr,OK,1915.0,meters,OK,1658.0,meters,OK,1909.0,meters,OK
2025-01-26T20:06:05.987904,12.5,knots,OK,7.0,degrees,OK,17.4,knots,OK,23.4,°C,OK,16.5,°C,OK,1014.1,hPa,OK,8988.0,meters,OK,2210.0,feet,OK,0.3,mm/hr,OK,1702.0,meters,OK,1664.0,meters,OK,1541.0,meters,OK
2025-01-26T20:06:06.993444,14.9,knots,OK,177.0,degrees,OK,14.9,knots,OK,20.6,°C,OK,11.0,°C,OK,1014.9,hPa,OK,9083.0,meters,OK,1522.0,feet,OK,0.0,mm/hr,OK,1896.0,meters,OK,1833.0,meters,OK,1732.0,meters,OK
2025-01-26T20:06:07.998334,14.5,knots,OK,25.0,degrees,OK,15.2,knots,OK,24.0,°C,OK,18.2,°C,OK,1014.1,hPa,OK,6139.0,meters,OK,1680.0,feet,OK,0.3,mm/hr,OK,1623.0,meters,OK,1523.0,meters,OK,1750.0,meters,OK
2025-01-26T20:06:09.002711,13.2,knots,OK,12.0,degrees,OK,17.7,knots,OK,22.7,°C,OK,18.2,°C,OK,1014.5,hPa,OK,7028.0,meters,OK,2526.0,feet,OK,0.2,mm/hr,OK,1684.0,meters,OK,1715.0,meters,OK,1969.0,meters,OK
2025-01-26T20:06:10.007151,14.9,knots,OK,115.0,degrees,OK,15.2,knots,OK,18.4,°C,OK,16.8,°C,OK,1014.5,hPa,OK,7484.0,meters,OK,2082.0,feet,OK,0.4,mm/hr,OK,1553.0,meters,OK,1868.0,meters,OK,1684.0,meters,OK
2025-01-26T20:06:11.010785,10.5,knots,OK,254.0,degrees,OK,21.7,knots,OK,23.4,°C,OK,16.2,°C,OK,1013.3,hPa,OK,9723.0,meters,OK,1072.0,feet,OK,0.2,mm/hr,OK,1847.0,meters,OK,1678.0,meters,OK,1931.0,meters,OK
2025-01-26T20:06:12.014683,9.3,knots,OK,60.0,degrees,OK,10.2,knots,OK,20.5,°C,OK,18.3,°C,OK,1013.2,hPa,OK,7751.0,meters,OK,1341.0,feet,OK,0.1,mm/hr,OK,1847.0,meters,OK,1853.0,meters,OK,1740.0,meters,OK
2025-01-26T20:06:13.019431,8.1,knots,OK,155.0,degrees,OK,19.1,knots,OK,21.5,°C,OK,17.0,°C,OK,1013.7,hPa,OK,9202.0,meters,OK,2664.0,feet,OK,0.0,mm/hr,OK,1705.0,meters,OK,1913.0,meters,OK,1909.0,meters,OK
2025-01-26T20:06:14.024300,7.0,knots,OK,216.0,degrees,OK,16.1,knots,OK,15.8,°C,OK,18.4,°C,OK,1013.8,hPa,OK,6751.0,meters,OK,1849.0,feet,OK,0.5,mm/hr,OK,1699.0,meters,OK,1717.0,meters,OK,1618.0,meters,OK
2025-01-26T20:06:15.028659,10.9,knots,OK,93.0,degrees,OK,18.9,knots,OK,20.3,°C,OK,12.9,°C,OK,1013.5,hPa,OK,8339.0,meters,OK,2716.0,feet,OK,0.2,mm/hr,OK,1920.0,meters,OK,1705.0,meters,OK,1853.0,meters,OK
2025-01-26T20:06:16.034375,12.5,knots,OK,215.0,degrees,OK,12.9,knots,OK,22.0,°C,OK,15.3,°C,OK,1013.9,hPa,OK,7594.0,meters,OK,1592.0,feet,OK,0.4,mm/hr,OK,1954.0,meters,OK,1762.0,meters,OK,1884.0,meters,OK
2025-01-26T20:06:17.038339,10.6,knots,OK,97.0,degrees,OK,21.0,knots,OK,21.0,°C,OK,12.5,°C,OK,1013.6,hPa,OK,5396.0,meters,OK,2388.0,feet,OK,0.3,mm/hr,OK,1883.0,meters,OK,1842.0,meters,OK,1654.0,meters,OK
2025-01-26T20:06:18.042663,11.0,knots,OK,294.0,degrees,OK,15.3,knots,OK,18.0,°C,OK,14.8,°C,OK,1014.4,hPa,OK,7317.0,meters,OK,1850.0,feet,OK,0.2,mm/hr,OK,1889.0,meters,OK,1543.0,meters,OK,1507.0,meters,OK
2025-01-26T20:06:19.046971,9.3,knots,OK,148.0,degrees,OK,17.8,knots,OK,19.5,°C,OK,17.9,°C,OK,1014.9,hPa,OK,7012.0,meters,OK,2905.0,feet,OK,0.4,mm/hr,OK,1854.0,meters,OK,1605.0,meters,OK,1944.0,meters,OK
2025-01-26T20:06:20.051309,10.3,knots,OK,248.0,degrees,OK,11.9,knots,OK,17.3,°C,OK,19.4,°C,OK,1014.1,hPa,OK,5825.0,meters,OK,1982.0,feet,OK,0.4,mm/hr,OK,1650.0,meters,OK,1912.0,meters,OK,1586.0,meters,OK
2025-01-26T20:06:21.056279,13.8,knots,OK,301.0,degrees,OK,17.3,knots,OK,18.8,°C,OK,11.7,°C,OK,1014.9,hPa,OK,8334.0,meters,OK,1034.0,feet,OK,0.0,mm/hr,OK,1863.0,meters,OK,1875.0,meters,OK,1775.0,meters,OK
2025-01-26T20:06:22.061244,8.9,knots,OK,312.0,degrees,OK,19.8,knots,OK,19.8,°C,OK,13.6,°C,OK,1014.1,hPa,OK,7949.0,meters,OK,1685.0,feet,OK,0.4,mm/hr,OK,1605.0,meters,OK,1550.0,meters,OK,1851.0,meters,OK
2025-01-26T20:06:23.065016,13.7,knots,OK,0.0,degrees,OK,23.7,knots,OK,20.8,°C,OK,15.8,°C,OK,1014.4,hPa,OK,7587.0,meters,OK,1516.0,feet,OK,0.2,mm/hr,OK,1763.0,meters,OK,1829.0,meters,OK,1797.0,meters,OK
2025-01-26T20:06:24.069314,10.6,knots,OK,21.0,degrees,OK,17.4,knots,OK,23.5,°C,OK,14.2,°C,OK,1014.1,hPa,OK,8277.0,meters,OK,1734.0,feet,OK,0.0,mm/hr,OK,1546.0,meters,OK,1886.0,meters,OK,1701.0,meters,OK
2025-01-26T20:06:25.073730,7.5,knots,OK,89.0,degrees,OK,19.3,knots,OK,24.8,°C,OK,11.7,°C,OK,1013.7,hPa,OK,7143.0,meters,OK,1285.0,feet,OK,0.3,mm/hr,OK,1971.0,meters,OK,1951.0,meters,OK,1988.0,meters,OK
2025-01-26T20:06:26.077810,8.5,knots,OK,15.0,degrees,OK,11.2,knots,OK,22.6,°C,OK,17.2,°C,OK,1014.8,hPa,OK,7820.0,meters,OK,1926.0,feet,OK,0.2,mm/hr,OK,1593.0,meters,OK,1550.0,meters,OK,1766.0,meters,OK
2025-01-26T20:06:27.082923,7.9,knots,OK,88.0,degrees,OK,15.7,knots,OK,18.8,°C,OK,18.6,°C,OK,1013.6,hPa,OK,7316.0,meters,OK,1220.0,feet,OK,0.5,mm/hr,OK,1734.0,meters,OK,1798.0,meters,OK,1796.0,meters,OK
2025-01-26T20:06:28.087862,6.2,knots,OK,9.0,degrees,OK,15.3,knots,OK,24.3,°C,OK,12.3,°C,OK,1013.8,hPa,OK,6048.0,meters,OK,1036.0,feet,OK,0.3,mm/hr,OK,1606.0,meters,OK,1803.0,meters,OK,1815.0,meters,OK
2025-01-26T20:06:29.091981,13.4,knots,OK,285.0,degrees,OK,19.4,knots,OK,15.2,°C,OK,11.4,°C,OK,1013.1,hPa,OK,5316.0,meters,OK,1678.0,feet,OK,0.5,mm/hr,OK,1609.0,meters,OK,1815.0,meters,OK,1874.0,meters,OK
2025-01-26T20:06:30.096403,6.4,knots,OK,163.0,degrees,OK,17.5,knots,OK,23.1,°C,OK,14.5,°C,OK,1014.2,hPa,OK,7250.0,meters,OK,2613.0,feet,OK,0.4,mm/hr,OK,1677.0,meters,OK,1722.0,meters,OK,1952.0,meters,OK
2025-01-26T20:06:31.101132,10.5,knots,OK,97.0,degrees,OK,11.0,knots,OK,22.7,°C,OK,15.1,°C,OK,1014.4,hPa,OK,5001.0,meters,OK,2738.0,feet,OK,0.0,mm/hr,OK,1592.0,meters,OK,1957.0,meters,OK,1961.0,meters,OK
2025-01-26T20:06:32.106034,12.7,knots,OK,214.0,degrees,OK,15.1,knots,OK,16.1,°C,OK,16.3,°C,OK,1014.0,hPa,OK,9933.0,meters,OK,2016.0,feet,OK,0.4,mm/hr,OK,1582.0,meters,OK,1703.0,meters,OK,1921.0,meters,OK
2025-01-26T20:06:33.110234,7.9,knots,OK,90.0,degrees,OK,12.3,knots,OK,23.2,°C,OK,15.1,°C,OK,1014.5,hPa,OK,7546.0,meters,OK,2900.0,feet,OK,0.3,mm/hr,OK,1721.0,meters,OK,1848.0,meters,OK,1595.0,meters,OK
2025-01-26T20:06:34.114959,7.6,knots,OK,326.0,degrees,OK,18.8,knots,OK,17.3,°C,OK,16.8,°C,OK,1013.5,hPa,OK,8678.0,meters,OK,1329.0,feet,OK,0.2,mm/hr,OK,1620.0,meters,OK,1779.0,meters,OK,1686.0,meters,OK
2025-01-26T20:06:35.120062,13.3,knots,OK,319.0,degrees,OK,12.1,knots,OK,21.2,°C,OK,17.5,°C,OK,1014.5,hPa,OK,5038.0,meters,OK,2196.0,feet,OK,0.0,mm/hr,OK,1862.0,meters,OK,1825.0,meters,OK,1747.0,meters,OK
2025-01-26T20:06:36.124771,10.6,knots,OK,318.0,degrees,OK,22.8,knots,OK,21.4,°C,OK,12.5,°C,OK,1014.6,hPa,OK,9710.0,meters,OK,2964.0,feet,OK,0.1,mm/hr,OK,1895.0,meters,OK,1999.0,meters,OK,1799.0,meters,OK
2025-01-26T20:06:37.129598,7.3,knots,OK,73.0,degrees,OK,11.5,knots,OK,18.0,°C,OK,13.7,°C,OK,1014.0,hPa,OK,8206.0,meters,OK,1412.0,feet,OK,0.5,mm/hr,OK,1884.0,meters,OK,1568.0,meters,OK,1901.0,meters,OK
2025-01-26T20:06:38.134249,12.5,knots,OK,227.0,degrees,OK,13.6,knots,OK,22.7,°C,OK,19.7,°C,OK,1013.8,hPa,OK,7000.0,meters,OK,1817.0,feet,OK,0.1,mm/hr,OK,1993.0,meters,OK,1911.0,meters,OK,1772.0,meters,OK
2025-01-26T20:06:39.151115,11.2,knots,OK,6.0,degrees,OK,21.5,knots,OK,18.9,°C,OK,11.4,°C,OK,1013.3,hPa,OK,6067.0,meters,OK,1747.0,feet,OK,0.2,mm/hr,OK,1507.0,meters,OK,1516.0,meters,OK,1573.0,meters,OK
2025-01-26T20:06:40.156108,5.9,knots,OK,243.0,degrees,OK,20.6,knots,OK,23.0,°C,OK,12.4,°C,OK,1013.8,hPa,OK,7282.0,meters,OK,2251.0,feet,OK,0.2,mm/hr,OK,1523.0,meters,OK,1877.0,meters,OK,1607.0,meters,OK
2025-01-26T20:06:41.160345,10.7,knots,OK,259.0,degrees,OK,23.7,knots,OK,16.9,°C,OK,19.5,°C,OK,1013.3,hPa,OK,7778.0,meters,OK,2989.0,feet,OK,0.3,mm/hr,OK,1861.0,meters,OK,1719.0,meters,OK,1567.0,meters,OK
2025-01-26T20:06:42.163427,5.6,knots,OK,31.0,degrees,OK,22.8,knots,OK,18.4,°C,OK,11.0,°C,OK,1013.7,hPa,OK,8106.0,meters,OK,2942.0,feet,OK,0.2,mm/hr,OK,1810.0,meters,OK,1756.0,meters,OK,1643.0,meters,OK
2025-01-26T20:06:43.167937,8.9,knots,OK,255.0,degrees,OK,15.9,knots,OK,24.1,°C,OK,16.0,°C,OK,1013.3,hPa,OK,9020.0,meters,OK,1526.0,feet,OK,0.4,mm/hr,OK,1686.0,meters,OK,1788.0,meters,OK,1971.0,meters,OK
2025-01-26T20:06:44.172853,8.4,knots,OK,238.0,degrees,OK,21.4,knots,OK,20.4,°C,OK,15.9,°C,OK,1013.5,hPa,OK,9560.0,meters,OK,2348.0,feet,OK,0.5,mm/hr,OK,1592.0,meters,OK,1919.0,meters,OK,1909.0,meters,OK
2025-01-26T20:06:45.177213,8.4,knots,OK,322.0,degrees,OK,10.1,knots,OK,20.5,°C,OK,16.2,°C,OK,1013.0,hPa,OK,7772.0,meters,OK,2137.0,feet,OK,0.4,mm/hr,OK,1532.0,meters,OK,1659.0,meters,OK,1603.0,meters,OK
2025-01-26T20:06:46.182341,10.8,knots,OK,179.0,degrees,OK,14.7,knots,OK,20.3,°C,OK,11.3,°C,OK,1014.6,hPa,OK,6343.0,meters,OK,1222.0,feet,OK,0.3,mm/hr,OK,1578.0,meters,OK,1995.0,meters,OK,1814.0,meters,OK
2025-01-26T20:06:47.186963,8.1,knots,OK,180.0,degrees,OK,11.5,knots,OK,18.6,°C,OK,15.5,°C,OK,1013.0,hPa,OK,7175.0,meters,OK,2375.0,feet,OK,0.4,mm/hr,OK,1934.0,meters,OK,1809.0,meters,OK,1689.0,meters,OK
2025-01-26T20:06:48.191649,9.6,knots,OK,215.0,degrees,OK,11.7,knots,OK,18.1,°C,OK,18.1,°C,OK,1013.9,hPa,OK,7630.0,meters,OK,1906.0,feet,OK,0.4,mm/hr,OK,1659.0,meters,OK,1925.0,meters,OK,1799.0,meters,OK
2025-01-26T20:06:49.196111,8.0,knots,OK,145.0,degrees,OK,20.4,knots,OK,18.3,°C,OK,13.5,°C,OK,1014.7,hPa,OK,8058.0,meters,OK,2476.0,feet,OK,0.1,mm/hr,OK,1676.0,meters,OK,1783.0,meters,OK,1858.0,meters,OK
2025-01-26T20:06:50.200618,13.1,knots,OK,207.0,degrees,OK,23.8,knots,OK,18.3,°C,OK,14.0,°C,OK,1014.2,hPa,OK,7883.0,meters,OK,2898.0,feet,OK,0.2,mm/hr,OK,1626.0,meters,OK,1715.0,meters,OK,1690.0,meters,OK
2025-01-26T20:06:51.206152,10.0,knots,OK,64.0,degrees,OK,19.1,knots,OK,17.6,°C,OK,15.2,°C,OK,1014.4,hPa,OK,9766.0,meters,OK,1780.0,feet,OK,0.4,mm/hr,OK,1978.0,meters,OK,1600.0,meters,OK,1966.0,meters,OK
2025-01-26T20:06:52.211534,12.1,knots,OK,336.0,degrees,OK,21.1,knots,OK,16.6,°C,OK,15.5,°C,OK,1014.5,hPa,OK,6989.0,meters,OK,2384.0,feet,OK,0.3,mm/hr,OK,1579.0,meters,OK,1962.0,meters,OK,1918.0,meters,OK
2025-01-26T20:06:53.216275,8.9,knots,OK,4.0,degrees,OK,15.7,knots,OK,24.9,°C,OK,11.8,°C,OK,1014.5,hPa,OK,8623.0,meters,OK,2200.0,feet,OK,0.3,mm/hr,OK,1769.0,meters,OK,1742.0,meters,OK,1625.0,meters,OK
2025-01-26T20:06:54.220609,10.4,knots,OK,5.0,degrees,OK,18.9,knots,OK,24.1,°C,OK,15.0,°C,OK,1013.2,hPa,OK,5494.0,meters,OK,1658.0,feet,OK,0.2,mm/hr,OK,1741.0,meters,OK,1701.0,meters,OK,1873.0,meters,OK
2025-01-26T20:06:55.224408,5.5,knots,OK,120.0,degrees,OK,14.3,knots,OK,20.9,°C,OK,15.7,°C,OK,1013.7,hPa,OK,8641.0,meters,OK,1690.0,feet,OK,0.5,mm/hr,OK,1565.0,meters,OK,1617.0,meters,OK,1507.0,meters,OK
2025-01-26T20:06:56.229071,9.8,knots,OK,41.0,degrees,OK,19.0,knots,OK,16.1,°C,OK,15.9,°C,OK,1013.5,hPa,OK,7467.0,meters,OK,2883.0,feet,OK,0.1,mm/hr,OK,1815.0,meters,OK,1522.0,meters,OK,1879.0,meters,OK
2025-01-26T20:06:57.232841,13.3,knots,OK,338.0,degrees,OK,23.9,knots,OK,21.9,°C,OK,19.5,°C,OK,1014.8,hPa,OK,7888.0,meters,OK,1075.0,feet,OK,0.2,mm/hr,OK,1705.0,meters,OK,1912.0,meters,OK,1877.0,meters,OK
2025-01-26T20:06:58.237350,10.4,knots,OK,190.0,degrees,OK,12.9,knots,OK,21.9,°C,OK,14.8,°C,OK,1013.0,hPa,OK,9416.0,meters,OK,1749.0,feet,OK,0.1,mm/hr,OK,1569.0,meters,OK,1597.0,meters,OK,1801.0,meters,OK
2025-01-26T20:06:59.242213,11.2,knots,OK,334.0,degrees,OK,12.1,knots,OK,15.8,°C,OK,14.1,°C,OK,1015.0,hPa,OK,9590.0,meters,OK,1623.0,feet,OK,0.4,mm/hr,OK,1800.0,meters,OK,1731.0,meters,OK,1990.0,meters,OK
2025-01-26T20:07:00.246743,13.1,knots,OK,94.0,degrees,OK,14.0,knots,OK,20.0,°C,OK,17.2,°C,OK,1014.4,hPa,OK,5338.0,meters,OK,1868.0,feet,OK,0.4,mm/hr,OK,1588.0,meters,OK,1928.0,meters,OK,1615.0,meters,OK
2025-01-26T20:07:01.250866,6.2,knots,OK,338.0,degrees,OK,12.9,knots,OK,19.1,°C,OK,10.3,°C,OK,1013.3,hPa,OK,8772.0,meters,OK,1960.0,feet,OK,0.0,mm/hr,OK,1577.0,meters,OK,1838.0,meters,OK,1503.0,meters,OK
2025-01-26T20:07:02.255340,9.8,knots,OK,24.0,degrees,OK,24.9,knots,OK,22.9,°C,OK,11.3,°C,OK,1014.5,hPa,OK,7743.0,meters,OK,2267.0,feet,OK,0.2,mm/hr,OK,1647.0,meters,OK,1854.0,meters,OK,1532.0,meters,OK
2025-01-26T20:07:03.260926,15.0,knots,OK,301.0,degrees,OK,17.7,knots,OK,15.6,°C,OK,17.0,°C,OK,1014.0,hPa,OK,9798.0,meters,OK,2073.0,feet,OK,0.2,mm/hr,OK,1813.0,meters,OK,1996.0,meters,OK,1827.0,meters,OK
2025-01-26T20:07:04.264834,5.2,knots,OK,254.0,degrees,OK,24.0,knots,OK,20.3,°C,OK,14.5,°C,OK,1014.6,hPa,OK,6046.0,meters,OK,2774.0,feet,OK,0.1,mm/hr,OK,1688.0,meters,OK,1962.0,meters,OK,1543.0,meters,OK
2025-01-26T20:07:05.269849,11.6,knots,OK,61.0,degrees,OK,16.3,knots,OK,15.8,°C,OK,17.1,°C,OK,1013.9,hPa,OK,5144.0,meters,OK,1796.0,feet,OK,0.4,mm/hr,OK,1966.0,meters,OK,1643.0,meters,OK,1853.0,meters,OK
2025-01-26T20:07:06.274751,9.8,knots,OK,238.0,degrees,OK,17.4,knots,OK,22.3,°C,OK,17.1,°C,OK,1013.1,hPa,OK,9053.0,meters,OK,1169.0,feet,OK,0.3,mm/hr,OK,1734.0,meters,OK,1567.0,meters,OK,1898.0,meters,OK
2025-01-26T20:07:07.279035,10.4,knots,OK,147.0,degrees,OK,13.1,knots,OK,22.4,°C,OK,12.6,°C,OK,1014.2,hPa,OK,8441.0,meters,OK,1377.0,feet,OK,0.4,mm/hr,OK,1642.0,meters,OK,1704.0,meters,OK,1776.0,meters,OK
2025-01-26T20:07:08.283275,8.6,knots,OK,318.0,degrees,OK,21.3,knots,OK,19.4,°C,OK,11.9,°C,OK,1013.6,hPa,OK,9432.0,meters,OK,1998.0,feet,OK,0.3,mm/hr,OK,1808.0,meters,OK,1637.0,meters,OK,1913.0,meters,OK
2025-01-26T20:07:09.287767,9.5,knots,OK,285.0,degrees,OK,10.3,knots,OK,15.2,°C,OK,14.4,°C,OK,1014.1,hPa,OK,8751.0,meters,OK,2265.0,feet,OK,0.0,mm/hr,OK,1785.0,meters,OK,1836.0,meters,OK,1509.0,meters,OK
2025-01-26T20:07:10.291680,6.1,knots,OK,294.0,degrees,OK,15.3,knots,OK,19.2,°C,OK,16.9,°C,OK,1013.2,hPa,OK,6432.0,meters,OK,2975.0,feet,OK,0.4,mm/hr,OK,1533.0,meters,OK,1787.0,meters,OK,1560.0,meters,OK
2025-01-26T20:07:11.295879,6.4,knots,OK,26.0,degrees,OK,11.5,knots,OK,23.0,°C,OK,14.3,°C,OK,1014.9,hPa,OK,7633.0,meters,OK,1891.0,feet,OK,0.2,mm/hr,OK,1543.0,meters,OK,1994.0,meters,OK,1952.0,meters,OK
2025-01-26T20:07:12.300543,12.2,knots,OK,172.0,degrees,OK,19.9,knots,OK,16.1,°C,OK,18.8,°C,OK,1013.1,hPa,OK,8904.0,meters,OK,2203.0,feet,OK,0.4,mm/hr,OK,1964.0,meters,OK,1589.0,meters,OK,1566.0,meters,OK
2025-01-26T20:07:13.304886,12.7,knots,OK,204.0,degrees,OK,22.7,knots,OK,19.4,°C,OK,13.9,°C,OK,1014.9,hPa,OK,6150.0,meters,OK,1736.0,feet,OK,0.2,mm/hr,OK,1894.0,meters,OK,1720.0,meters,OK,1678.0,meters,OK
2025-01-26T20:07:14.309038,7.8,knots,OK,118.0,degrees,OK,18.9,knots,OK,22.7,°C,OK,18.9,°C,OK,1013.7,hPa,OK,5901.0,meters,OK,2424.0,feet,OK,0.4,mm/hr,OK,1913.0,meters,OK,1871.0,meters,OK,1845.0,meters,OK
2025-01-26T20:07:15.313378,7.7,knots,OK,228.0,degrees,OK,16.4,knots,OK,23.3,°C,OK,16.6,°C,OK,1014.3,hPa,OK,6971.0,meters,OK,2900.0,feet,OK,0.4,mm/hr,OK,1928.0,meters,OK,1583.0,meters,OK,1510.0,meters,OK
2025-01-26T20:07:16.318782,5.8,knots,OK,227.0,degrees,OK,10.6,knots,OK,16.8,°C,OK,14.7,°C,OK,1013.2,hPa,OK,6863.0,meters,OK,2894.0,feet,OK,0.3,mm/hr,OK,1951.0,meters,OK,1905.0,meters,OK,1642.0,meters,OK
2025-01-26T20:07:17.323954,9.5,knots,OK,189.0,degrees,OK,11.6,knots,OK,22.0,°C,OK,17.3,°C,OK,1013.3,hPa,OK,6339.0,meters,OK,2180.0,feet,OK,0.3,mm/hr,OK,1993.0,meters,OK,1969.0,meters,OK,1889.0,meters,OK
2025-01-26T20:07:18.328742,11.3,knots,OK,72.0,degrees,OK,13.6,knots,OK,20.7,°C,OK,12.9,°C,OK,1013.5,hPa,OK,7187.0,meters,OK,1043.0,feet,OK,0.3,mm/hr,OK,1638.0,meters,OK,1825.0,meters,OK,1890.0,meters,OK
2025-01-26T20:07:19.332687,11.0,knots,OK,64.0,degrees,OK,19.3,knots,OK,19.0,°C,OK,10.7,°C,OK,1014.7,hPa,OK,9624.0,meters,OK,2469.0,feet,OK,0.1,mm/hr,OK,1675.0,meters,OK,1899.0,meters,OK,1817.0,meters,OK
2025-01-26T20:07:20.336144,12.0,knots,OK,33.0,degrees,OK,22.0,knots,OK,23.5,°C,OK,16.3,°C,OK,1014.0,hPa,OK,6171.0,meters,OK,1234.0,feet,OK,0.4,mm/hr,OK,1503.0,meters,OK,1704.0,meters,OK,1835.0,meters,OK
2025-01-26T20:07:21.340146,9.6,knots,OK,86.0,degrees,OK,18.7,knots,OK,19.0,°C,OK,19.2,°C,OK,1014.7,hPa,OK,9147.0,meters,OK,1330.0,feet,OK,0.3,mm/hr,OK,1845.0,meters,OK,1522.0,meters,OK,1722.0,meters,OK
2025-01-26T20:07:22.345364,9.7,knots,OK,8.0,degrees,OK,17.3,knots,OK,16.6,°C,OK,11.5,°C,OK,1014.4,hPa,OK,7621.0,meters,OK,2401.0,feet,OK,0.1,mm/hr,OK,1554.0,meters,OK,1779.0,meters,OK,1962.0,meters,OK
2025-01-26T20:07:23.351560,9.7,knots,OK,209.0,degrees,OK,20.1,knots,OK,18.8,°C,OK,13.9,°C,OK,1014.1,hPa,OK,8817.0,meters,OK,1967.0,feet,OK,0.5,mm/hr,OK,1935.0,meters,OK,1915.0,meters,OK,1716.0,meters,OK
2025-01-26T20:07:24.356860,8.7,knots,OK,323.0,degrees,OK,19.1,knots,OK,21.7,°C,OK,18.7,°C,OK,1014.5,hPa,OK,8320.0,meters,OK,2306.0,feet,OK,0.4,mm/hr,OK,1515.0,meters,OK,1816.0,meters,OK,1604.0,meters,OK
2025-01-26T20:07:25.360989,12.2,knots,OK,24.0,degrees,OK,17.1,knots,OK,22.9,°C,OK,18.6,°C,OK,1014.1,hPa,OK,8738.0,meters,OK,2238.0,feet,OK,0.1,mm/hr,OK,1650.0,meters,OK,1564.0,meters,OK,1890.0,meters,OK
2025-01-26T20:07:26.365112,8.7,knots,OK,311.0,degrees,OK,24.9,knots,OK,17.9,°C,OK,15.0,°C,OK,1014.7,hPa,OK,7568.0,meters,OK,2332.0,feet,OK,0.1,mm/hr,OK,1956.0,meters,OK,1807.0,meters,OK,1503.0,meters,OK
2025-01-26T20:07:27.369386,14.5,knots,OK,117.0,degrees,OK,16.5,knots,OK,19.9,°C,OK,13.2,°C,OK,1014.6,hPa,OK,9708.0,meters,OK,1530.0,feet,OK,0.5,mm/hr,OK,1981.0,meters,OK,1676.0,meters,OK,1578.0,meters,OK
2025-01-26T20:07:28.373554,15.0,knots,OK,196.0,degrees,OK,13.8,knots,OK,21.0,°C,OK,16.0,°C,OK,1014.3,hPa,OK,7091.0,meters,OK,1792.0,feet,OK,0.3,mm/hr,OK,1938.0,meters,OK,1638.0,meters,OK,1631.0,meters,OK
2025-01-26T20:07:29.378531,11.5,knots,OK,120.0,degrees,OK,13.0,knots,OK,24.4,°C,OK,13.7,°C,OK,1014.4,hPa,OK,9955.0,meters,OK,2063.0,feet,OK,0.2,mm/hr,OK,1594.0,meters,OK,1863.0,meters,OK,1857.0,meters,OK
2025-01-26T20:07:30.383021,8.4,knots,OK,85.0,degrees,OK,13.9,knots,OK,20.8,°C,OK,19.9,°C,OK,1013.8,hPa,OK,9337.0,meters,OK,1324.0,feet,OK,0.1,mm/hr,OK,1669.0,meters,OK,1579.0,meters,OK,1656.0,meters,OK
2025-01-26T20:07:31.387824,7.6,knots,OK,237.0,degrees,OK,11.8,knots,OK,20.9,°C,OK,17.2,°C,OK,1013.7,hPa,OK,7736.0,meters,OK,1963.0,feet,OK,0.2,mm/hr,OK,1555.0,meters,OK,1795.0,meters,OK,1578.0,meters,OK
2025-01-26T20:07:32.392023,6.6,knots,OK,20.0,degrees,OK,10.8,knots,OK,15.5,°C,OK,10.8,°C,OK,1013.4,hPa,OK,5414.0,meters,OK,2779.0,feet,OK,0.4,mm/hr,OK,1547.0,meters,OK,1616.0,meters,OK,1610.0,meters,OK
2025-01-26T20:07:33.396202,11.5,knots,OK,335.0,degrees,OK,19.9,knots,OK,16.0,°C,OK,13.3,°C,OK,1014.6,hPa,OK,8302.0,meters,OK,1538.0,feet,OK,0.2,mm/hr,OK,1593.0,meters,OK,1745.0,meters,OK,1758.0,meters,OK
2025-01-26T20:07:34.400402,5.3,knots,OK,247.0,degrees,OK,17.4,knots,OK,20.4,°C,OK,12.2,°C,OK,1013.8,hPa,OK,6290.0,meters,OK,2242.0,feet,OK,0.3,mm/hr,OK,1915.0,meters,OK,1573.0,meters,OK,1587.0,meters,OK
2025-01-26T20:07:35.404235,13.2,knots,OK,136.0,degrees,OK,19.4,knots,OK,23.4,°C,OK,11.4,°C,OK,1014.9,hPa,OK,8030.0,meters,OK,1876.0,feet,OK,0.0,mm/hr,OK,1945.0,meters,OK,1835.0,meters,OK,1638.0,meters,OK
2025-01-26T20:07:36.408488,10.0,knots,OK,304.0,degrees,OK,15.7,knots,OK,16.6,°C,OK,18.8,°C,OK,1015.0,hPa,OK,9055.0,meters,OK,2134.0,feet,OK,0.1,mm/hr,OK,1751.0,meters,OK,1580.0,meters,OK,1818.0,meters,OK
2025-01-26T20:07:37.412834,6.8,knots,OK,235.0,degrees,OK,21.1,knots,OK,15.7,°C,OK,19.1,°C,OK,1013.2,hPa,OK,7535.0,meters,OK,1570.0,feet,OK,0.0,mm/hr,OK,1752.0,meters,OK,1731.0,meters,OK,1838.0,meters,OK
2025-01-26T20:07:38.417322,8.6,knots,OK,48.0,degrees,OK,19.2,knots,OK,24.8,°C,OK,15.3,°C,OK,1014.8,hPa,OK,6277.0,meters,OK,2776.0,feet,OK,0.2,mm/hr,OK,1656.0,meters,OK,1909.0,meters,OK,1817.0,meters,OK
2025-01-26T20:07:39.421036,10.7,knots,OK,179.0,degrees,OK,14.1,knots,OK,21.6,°C,OK,19.5,°C,OK,1013.8,hPa,OK,5702.0,meters,OK,1771.0,feet,OK,0.1,mm/hr,OK,1870.0,meters,OK,1727.0,meters,OK,1529.0,meters,OK
2025-01-26T20:07:40.463441,6.3,knots,OK,216.0,degrees,OK,23.9,knots,OK,18.8,°C,OK,12.7,°C,OK,1014.8,hPa,OK,8790.0,meters,OK,2473.0,feet,OK,0.3,mm/hr,OK,1792.0,meters,OK,1887.0,meters,OK,1625.0,meters,OK
2025-01-26T20:07:41.469039,14.4,knots,OK,307.0,degrees,OK,16.0,knots,OK,21.0,°C,OK,17.7,°C,OK,1014.7,hPa,OK,6815.0,meters,OK,1150.0,feet,OK,0.2,mm/hr,OK,1919.0,meters,OK,1715.0,meters,OK,1950.0,meters,OK
2025-01-26T20:07:42.472899,12.6,knots,OK,352.0,degrees,OK,14.9,knots,OK,24.0,°C,OK,15.2,°C,OK,1013.5,hPa,OK,6430.0,meters,OK,1128.0,feet,OK,0.2,mm/hr,OK,1538.0,meters,OK,1847.0,meters,OK,1663.0,meters,OK
2025-01-26T20:07:43.477565,12.4,knots,OK,166.0,degrees,OK,20.8,knots,OK,16.0,°C,OK,19.4,°C,OK,1013.4,hPa,OK,6593.0,meters,OK,1156.0,feet,OK,0.3,mm/hr,OK,1632.0,meters,OK,1620.0,meters,OK,1710.0,meters,OK
2025-01-26T20:07:44.481851,9.1,knots,OK,219.0,degrees,OK,18.7,knots,OK,18.0,°C,OK,16.7,°C,OK,1013.8,hPa,OK,7187.0,meters,OK,2221.0,feet,OK,0.0,mm/hr,OK,1852.0,meters,OK,1704.0,meters,OK,1881.0,meters,OK
2025-01-26T20:07:45.485260,11.0,knots,OK,56.0,degrees,OK,18.7,knots,OK,21.3,°C,OK,11.7,°C,OK,1013.9,hPa,OK,9433.0,meters,OK,1346.0,feet,OK,0.2,mm/hr,OK,1620.0,meters,OK,1984.0,meters,OK,1932.0,meters,OK
2025-01-26T20:07:46.489322,12.1,knots,OK,231.0,degrees,OK,15.8,knots,OK,16.6,°C,OK,10.8,°C,OK,1014.7,hPa,OK,6518.0,meters,OK,1551.0,feet,OK,0.2,mm/hr,OK,1661.0,meters,OK,1694.0,meters,OK,1954.0,meters,OK
2025-01-26T20:07:47.493766,14.1,knots,OK,202.0,degrees,OK,14.2,knots,OK,15.7,°C,OK,12.5,°C,OK,1015.0,hPa,OK,8855.0,meters,OK,2700.0,feet,OK,0.3,mm/hr,OK,1897.0,meters,OK,1946.0,meters,OK,1855.0,meters,OK
2025-01-26T20:07:48.498541,11.3,knots,OK,109.0,degrees,OK,15.2,knots,OK,24.8,°C,OK,12.8,°C,OK,1013.1,hPa,OK,6542.0,meters,OK,2772.0,feet,OK,0.0,mm/hr,OK,1948.0,meters,OK,1837.0,meters,OK,1511.0,meters,OK
2025-01-26T20:07:49.502388,11.0,knots,OK,247.0,degrees,OK,23.5,knots,OK,23.1,°C,OK,14.7,°C,OK,1014.0,hPa,OK,7514.0,meters,OK,1997.0,feet,OK,0.3,mm/hr,OK,1816.0,meters,OK,1860.0,meters,OK,1672.0,meters,OK
2025-01-26T20:07:50.506289,5.0,knots,OK,72.0,degrees,OK,17.8,knots,OK,15.2,°C,OK,18.6,°C,OK,1013.4,hPa,OK,6698.0,meters,OK,1656.0,feet,OK,0.5,mm/hr,OK,1531.0,meters,OK,1510.0,meters,OK,1637.0,meters,OK
2025-01-26T20:07:51.510588,8.2,knots,OK,253.0,degrees,OK,20.5,knots,OK,18.8,°C,OK,14.4,°C,OK,1014.7,hPa,OK,5959.0,meters,OK,2884.0,feet,OK,0.5,mm/hr,OK,1718.0,meters,OK,1743.0,meters,OK,1880.0,meters,OK
2025-01-26T20:07:52.514524,12.2,knots,OK,50.0,degrees,OK,10.5,knots,OK,19.4,°C,OK,12.0,°C,OK,1014.7,hPa,OK,6223.0,meters,OK,1728.0,feet,OK,0.0,mm/hr,OK,1997.0,meters,OK,1717.0,meters,OK,1633.0,meters,OK
2025-01-26T20:07:53.518741,7.3,knots,OK,277.0,degrees,OK,24.4,knots,OK,24.4,°C,OK,19.4,°C,OK,1013.1,hPa,OK,5302.0,meters,OK,2168.0,feet,OK,0.2,mm/hr,OK,1970.0,meters,OK,1763.0,meters,OK,1968.0,meters,OK
2025-01-26T20:07:54.522713,7.3,knots,OK,279.0,degrees,OK,22.8,knots,OK,18.8,°C,OK,18.4,°C,OK,1013.2,hPa,OK,5880.0,meters,OK,1806.0,feet,OK,0.5,mm/hr,OK,1841.0,meters,OK,1892.0,meters,OK,1826.0,meters,OK
2025-01-26T20:07:55.527511,5.3,knots,OK,338.0,degrees,OK,13.1,knots,OK,18.8,°C,OK,13.1,°C,OK,1013.7,hPa,OK,7927.0,meters,OK,1262.0,feet,OK,0.1,mm/hr,OK,1843.0,meters,OK,1625.0,meters,OK,1530.0,meters,OK
2025-01-26T20:07:56.531724,6.9,knots,OK,149.0,degrees,OK,24.0,knots,OK,23.7,°C,OK,19.4,°C,OK,1014.1,hPa,OK,7678.0,meters,OK,1777.0,feet,OK,0.1,mm/hr,OK,1679.0,meters,OK,1636.0,meters,OK,1543.0,meters,OK
2025-01-26T20:07:57.536972,10.2,knots,OK,91.0,degrees,OK,12.4,knots,OK,23.0,°C,OK,19.5,°C,OK,1014.2,hPa,OK,9929.0,meters,OK,2415.0,feet,OK,0.0,mm/hr,OK,1968.0,meters,OK,1788.0,meters,OK,1981.0,meters,OK
2025-01-26T20:07:58.541465,6.9,knots,OK,147.0,degrees,OK,24.5,knots,OK,15.4,°C,OK,10.3,°C,OK,1014.1,hPa,OK,9040.0,meters,OK,2158.0,feet,OK,0.0,mm/hr,OK,1742.0,meters,OK,1796.0,meters,OK,1967.0,meters,OK
2025-01-26T20:07:59.545185,6.8,knots,OK,110.0,degrees,OK,22.5,knots,OK,24.7,°C,OK,16.9,°C,OK,1013.0,hPa,OK,9099.0,meters,OK,2872.0,feet,OK,0.0,mm/hr,OK,1834.0,meters,OK,1697.0,meters,OK,1609.0,meters,OK
2025-01-26T20:08:00.549442,11.2,knots,OK,176.0,degrees,OK,13.1,knots,OK,18.7,°C,OK,17.9,°C,OK,1013.5,hPa,OK,8135.0,meters,OK,2169.0,feet,OK,0.3,mm/hr,OK,1764.0,meters,OK,1628.0,meters,OK,1515.0,meters,OK
2025-01-26T20:08:01.553545,13.4,knots,OK,166.0,degrees,OK,11.1,knots,OK,15.5,°C,OK,10.7,°C,OK,1013.8,hPa,OK,8567.0,meters,OK,1422.0,feet,OK,0.5,mm/hr,OK,1978.0,meters,OK,1665.0,meters,OK,1878.0,meters,OK
2025-01-26T20:08:02.558153,13.9,knots,OK,323.0,degrees,OK,18.0,knots,OK,22.3,°C,OK,14.1,°C,OK,1013.7,hPa,OK,9953.0,meters,OK,2748.0,feet,OK,0.3,mm/hr,OK,1612.0,meters,OK,1890.0,meters,OK,1649.0,meters,OK
2025-01-26T20:08:03.562348,8.4,knots,OK,263.0,degrees,OK,19.6,knots,OK,18.7,°C,OK,10.6,°C,OK,1013.9,hPa,OK,9737.0,meters,OK,2734.0,feet,OK,0.4,mm/hr,OK,1832.0,meters,OK,1621.0,meters,OK,1701.0,meters,OK
2025-01-26T20:08:04.566707,5.2,knots,OK,277.0,degrees,OK,22.8,knots,OK,22.2,°C,OK,16.4,°C,OK,1014.9,hPa,OK,6651.0,meters,OK,1822.0,feet,OK,0.2,mm/hr,OK,1671.0,meters,OK,1955.0,meters,OK,1763.0,meters,OK
2025-01-26T20:08:05.570901,11.5,knots,OK,356.0,degrees,OK,22.1,knots,OK,19.3,°C,OK,16.5,°C,OK,1013.6,hPa,OK,7299.0,meters,OK,1906.0,feet,OK,0.2,mm/hr,OK,1812.0,meters,OK,1753.0,meters,OK,1583.0,meters,OK
2025-01-26T20:08:06.575775,9.8,knots,OK,237.0,degrees,OK,12.6,knots,OK,18.2,°C,OK,13.0,°C,OK,1013.2,hPa,OK,9425.0,meters,OK,2501.0,feet,OK,0.2,mm/hr,OK,1595.0,meters,OK,1825.0,meters,OK,1694.0,meters,OK
2025-01-26T20:08:07.580729,5.7,knots,OK,346.0,degrees,OK,13.5,knots,OK,18.0,°C,OK,10.1,°C,OK,1014.9,hPa,OK,6135.0,meters,OK,2618.0,feet,OK,0.2,mm/hr,OK,1743.0,meters,OK,1727.0,meters,OK,1718.0,meters,OK
2025-01-26T20:08:08.585506,10.8,knots,OK,128.0,degrees,OK,24.9,knots,OK,19.3,°C,OK,10.2,°C,OK,1013.7,hPa,OK,6787.0,meters,OK,1650.0,feet,OK,0.1,mm/hr,OK,1728.0,meters,OK,1972.0,meters,OK,1565.0,meters,OK
2025-01-26T20:08:09.589382,6.2,knots,OK,283.0,degrees,OK,20.1,knots,OK,18.6,°C,OK,13.9,°C,OK,1014.8,hPa,OK,6482.0,meters,OK,2682.0,feet,OK,0.3,mm/hr,OK,1725.0,meters,OK,1915.0,meters,OK,1782.0,meters,OK
2025-01-26T20:08:10.592617,12.0,knots,OK,329.0,degrees,OK,14.7,knots,OK,21.1,°C,OK,19.4,°C,OK,1013.1,hPa,OK,6368.0,meters,OK,2178.0,feet,OK,0.3,mm/hr,OK,1505.0,meters,OK,1620.0,meters,OK,1661.0,meters,OK
2025-01-26T20:08:11.596315,7.2,knots,OK,32.0,degrees,OK,15.0,knots,OK,16.8,°C,OK,16.1,°C,OK,1013.0,hPa,OK,8787.0,meters,OK,2699.0,feet,OK,0.4,mm/hr,OK,1643.0,meters,OK,1959.0,meters,OK,1693.0,meters,OK
2025-01-26T20:08:12.601205,11.7,knots,OK,296.0,degrees,OK,18.7,knots,OK,18.7,°C,OK,19.7,°C,OK,1014.0,hPa,OK,5739.0,meters,OK,2265.0,feet,OK,0.3,mm/hr,OK,1990.0,meters,OK,1770.0,meters,OK,1507.0,meters,OK
2025-01-26T20:08:13.605534,7.6,knots,OK,276.0,degrees,OK,20.8,knots,OK,21.5,°C,OK,14.0,°C,OK,1013.5,hPa,OK,5750.0,meters,OK,1496.0,feet,OK,0.3,mm/hr,OK,1562.0,meters,OK,1561.0,meters,OK,1725.0,meters,OK
2025-01-26T20:08:14.610615,14.3,knots,OK,218.0,degrees,OK,19.4,knots,OK,18.0,°C,OK,18.4,°C,OK,1013.5,hPa,OK,7181.0,meters,OK,2252.0,feet,OK,0.5,mm/hr,OK,1945.0,meters,OK,1609.0,meters,OK,1814.0,meters,OK
2025-01-26T20:08:15.615554,10.8,knots,OK,316.0,degrees,OK,14.6,knots,OK,22.0,°C,OK,18.5,°C,OK,1014.5,hPa,OK,9051.0,meters,OK,2172.0,feet,OK,0.1,mm/hr,OK,1786.0,meters,OK,1580.0,meters,OK,1816.0,meters,OK
2025-01-26T20:08:16.619147,11.0,knots,OK,287.0,degrees,OK,17.4,knots,OK,23.9,°C,OK,10.6,°C,OK,1014.2,hPa,OK,9837.0,meters,OK,1280.0,feet,OK,0.0,mm/hr,OK,1558.0,meters,OK,1651.0,meters,OK,1694.0,meters,OK
2025-01-26T20:08:17.622423,7.2,knots,OK,244.0,degrees,OK,10.6,knots,OK,17.1,°C,OK,11.9,°C,OK,1014.1,hPa,OK,5687.0,meters,OK,2282.0,feet,OK,0.2,mm/hr,OK,1849.0,meters,OK,1874.0,meters,OK,1821.0,meters,OK
2025-01-26T20:08:18.627050,14.7,knots,OK,340.0,degrees,OK,11.9,knots,OK,24.9,°C,OK,10.2,°C,OK,1013.5,hPa,OK,8099.0,meters,OK,2018.0,feet,OK,0.5,mm/hr,OK,1621.0,meters,OK,1640.0,meters,OK,1560.0,meters,OK
2025-01-26T20:08:19.630899,5.2,knots,OK,247.0,degrees,OK,20.2,knots,OK,19.3,°C,OK,15.3,°C,OK,1013.9,hPa,OK,8969.0,meters,OK,2211.0,feet,OK,0.0,mm/hr,OK,1526.0,meters,OK,1892.0,meters,OK,1943.0,meters,OK
2025-01-26T20:08:20.635191,6.7,knots,OK,280.0,degrees,OK,17.5,knots,OK,23.8,°C,OK,12.1,°C,OK,1014.8,hPa,OK,9873.0,meters,OK,1785.0,feet,OK,0.4,mm/hr,OK,1622.0,meters,OK,1817.0,meters,OK,1783.0,meters,OK
2025-01-26T20:08:21.639018,13.6,knots,OK,106.0,degrees,OK,22.8,knots,OK,23.0,°C,OK,18.0,°C,OK,1013.1,hPa,OK,5320.0,meters,OK,1224.0,feet,OK,0.2,mm/hr,OK,1627.0,meters,OK,1750.0,meters,OK,1924.0,meters,OK
2025-01-26T20:08:22.642583,8.2,knots,OK,6.0,degrees,OK,18.8,knots,OK,21.2,°C,OK,17.1,°C,OK,1013.9,hPa,OK,5265.0,meters,OK,1665.0,feet,OK,0.5,mm/hr,OK,1963.0,meters,OK,1851.0,meters,OK,1581.0,meters,OK
2025-01-26T20:08:23.646783,7.7,knots,OK,130.0,degrees,OK,15.6,knots,OK,22.7,°C,OK,11.4,°C,OK,1013.2,hPa,OK,7617.0,meters,OK,2736.0,feet,OK,0.3,mm/hr,OK,1956.0,meters,OK,1688.0,meters,OK,1651.0,meters,OK
2025-01-26T20:08:24.651358,11.3,knots,OK,174.0,degrees,OK,13.0,knots,OK,19.6,°C,OK,14.0,°C,OK,1013.7,hPa,OK,7968.0,meters,OK,1400.0,feet,OK,0.4,mm/hr,OK,1824.0,meters,OK,1885.0,meters,OK,1675.0,meters,OK
2025-01-26T20:08:25.655524,10.7,knots,OK,306.0,degrees,OK,14.1,knots,OK,23.7,°C,OK,11.3,°C,OK,1013.2,hPa,OK,8526.0,meters,OK,1314.0,feet,OK,0.2,mm/hr,OK,1511.0,meters,OK,1521.0,meters,OK,1663.0,meters,OK
2025-01-26T20:08:26.659704,10.6,knots,OK,337.0,degrees,OK,14.3,knots,OK,21.9,°C,OK,10.8,°C,OK,1014.4,hPa,OK,8992.0,meters,OK,2614.0,feet,OK,0.0,mm/hr,OK,1980.0,meters,OK,1787.0,meters,OK,1684.0,meters,OK
2025-01-26T20:08:27.662875,5.9,knots,OK,340.0,degrees,OK,23.3,knots,OK,21.9,°C,OK,17.8,°C,OK,1014.4,hPa,OK,9228.0,meters,OK,1450.0,feet,OK,0.2,mm/hr,OK,1846.0,meters,OK,1547.0,meters,OK,1614.0,meters,OK
2025-01-26T20:08:28.666798,12.8,knots,OK,345.0,degrees,OK,21.2,knots,OK,18.4,°C,OK,14.6,°C,OK,1014.9,hPa,OK,8631.0,meters,OK,2239.0,feet,OK,0.0,mm/hr,OK,1613.0,meters,OK,1593.0,meters,OK,1574.0,meters,OK
2025-01-26T20:08:29.670491,10.2,knots,OK,235.0,degrees,OK,19.5,knots,OK,20.9,°C,OK,12.9,°C,OK,1013.6,hPa,OK,9321.0,meters,OK,2149.0,feet,OK,0.1,mm/hr,OK,1945.0,meters,OK,1752.0,meters,OK,1976.0,meters,OK
2025-01-26T20:08:30.674789,8.3,knots,OK,238.0,degrees,OK,20.1,knots,OK,23.3,°C,OK,16.0,°C,OK,1014.7,hPa,OK,6126.0,meters,OK,1770.0,feet,OK,0.4,mm/hr,OK,1892.0,meters,OK,1625.0,meters,OK,1969.0,meters,OK
2025-01-26T20:08:31.679412,5.6,knots,OK,28.0,degrees,OK,24.9,knots,OK,21.4,°C,OK,18.4,°C,OK,1014.8,hPa,OK,5517.0,meters,OK,2755.0,feet,OK,0.3,mm/hr,OK,1562.0,meters,OK,1669.0,meters,OK,1894.0,meters,OK
2025-01-26T20:08:32.683962,8.2,knots,OK,249.0,degrees,OK,10.8,knots,OK,16.1,°C,OK,18.9,°C,OK,1013.4,hPa,OK,5363.0,meters,OK,1641.0,feet,OK,0.2,mm/hr,OK,1552.0,meters,OK,1641.0,meters,OK,1955.0,meters,OK
2025-01-26T20:08:33.688498,13.8,knots,OK,353.0,degrees,OK,22.0,knots,OK,21.2,°C,OK,18.5,°C,OK,1013.2,hPa,OK,5705.0,meters,OK,1208.0,feet,OK,0.5,mm/hr,OK,1503.0,meters,OK,1814.0,meters,OK,1835.0,meters,OK
2025-01-26T20:08:34.692949,12.2,knots,OK,270.0,degrees,OK,10.1,knots,OK,23.3,°C,OK,16.9,°C,OK,1013.7,hPa,OK,8029.0,meters,OK,2685.0,feet,OK,0.3,mm/hr,OK,1683.0,meters,OK,1742.0,meters,OK,1703.0,meters,OK
2025-01-26T20:08:35.697451,6.4,knots,OK,279.0,degrees,OK,11.2,knots,OK,21.7,°C,OK,19.0,°C,OK,1013.7,hPa,OK,8831.0,meters,OK,1922.0,feet,OK,0.2,mm/hr,OK,1657.0,meters,OK,1516.0,meters,OK,1689.0,meters,OK
2025-01-26T20:08:36.701723,5.9,knots,OK,106.0,degrees,OK,14.6,knots,OK,19.0,°C,OK,18.0,°C,OK,1014.4,hPa,OK,5106.0,meters,OK,2687.0,feet,OK,0.1,mm/hr,OK,1936.0,meters,OK,1990.0,meters,OK,1997.0,meters,OK
2025-01-26T20:08:37.706800,9.8,knots,OK,21.0,degrees,OK,19.2,knots,OK,20.4,°C,OK,10.6,°C,OK,1014.5,hPa,OK,6279.0,meters,OK,1113.0,feet,OK,0.2,mm/hr,OK,1517.0,meters,OK,1982.0,meters,OK,1636.0,meters,OK
2025-01-26T20:08:38.712466,14.3,knots,OK,155.0,degrees,OK,10.9,knots,OK,20.0,°C,OK,16.3,°C,OK,1013.6,hPa,OK,7181.0,meters,OK,1450.0,feet,OK,0.4,mm/hr,OK,1925.0,meters,OK,1588.0,meters,OK,1911.0,meters,OK
2025-01-26T20:08:39.716877,12.9,knots,OK,305.0,degrees,OK,22.9,knots,OK,17.6,°C,OK,19.1,°C,OK,1014.0,hPa,OK,6980.0,meters,OK,2491.0,feet,OK,0.4,mm/hr,OK,1585.0,meters,OK,1782.0,meters,OK,1761.0,meters,OK
2025-01-26T20:08:40.720534,11.6,knots,OK,239.0,degrees,OK,10.2,knots,OK,23.6,°C,OK,14.6,°C,OK,1013.7,hPa,OK,8597.0,meters,OK,2359.0,feet,OK,0.2,mm/hr,OK,1660.0,meters,OK,1780.0,meters,OK,1708.0,meters,OK
2025-01-26T20:08:41.724142,14.4,knots,OK,180.0,degrees,OK,17.9,knots,OK,17.3,°C,OK,14.1,°C,OK,1014.0,hPa,OK,6002.0,meters,OK,1714.0,feet,OK,0.5,mm/hr,OK,1513.0,meters,OK,1532.0,meters,OK,1567.0,meters,OK
2025-01-26T20:08:42.727506,9.1,knots,OK,162.0,degrees,OK,24.3,knots,OK,24.0,°C,OK,18.8,°C,OK,1013.1,hPa,OK,7544.0,meters,OK,2819.0,feet,OK,0.3,mm/hr,OK,1980.0,meters,OK,1534.0,meters,OK,1847.0,meters,OK
2025-01-26T20:08:43.731763,10.3,knots,OK,49.0,degrees,OK,18.4,knots,OK,15.1,°C,OK,14.3,°C,OK,1013.0,hPa,OK,7386.0,meters,OK,1328.0,feet,OK,0.3,mm/hr,OK,1590.0,meters,OK,1997.0,meters,OK,1882.0,meters,OK
2025-01-26T20:08:44.735858,6.3,knots,OK,65.0,degrees,OK,24.1,knots,OK,18.5,°C,OK,12.0,°C,OK,1014.9,hPa,OK,5210.0,meters,OK,2331.0,feet,OK,0.2,mm/hr,OK,1666.0,meters,OK,1850.0,meters,OK,1677.0,meters,OK
2025-01-26T20:08:45.739174,8.7,knots,OK,155.0,degrees,OK,15.3,knots,OK,16.6,°C,OK,16.3,°C,OK,1014.0,hPa,OK,8161.0,meters,OK,2101.0,feet,OK,0.2,mm/hr,OK,1822.0,meters,OK,1637.0,meters,OK,1749.0,meters,OK
2025-01-26T20:08:46.743149,6.2,knots,OK,270.0,degrees,OK,13.2,knots,OK,23.0,°C,OK,17.0,°C,OK,1014.2,hPa,OK,9963.0,meters,OK,2087.0,feet,OK,0.3,mm/hr,OK,1556.0,meters,OK,1932.0,meters,OK,1751.0,meters,OK
2025-01-26T20:08:47.746387,6.7,knots,OK,135.0,degrees,OK,19.0,knots,OK,18.1,°C,OK,14.1,°C,OK,1014.4,hPa,OK,9932.0,meters,OK,2101.0,feet,OK,0.2,mm/hr,OK,1896.0,meters,OK,1770.0,meters,OK,1713.0,meters,OK
2025-01-26T20:08:48.750019,11.7,knots,OK,281.0,degrees,OK,12.5,knots,OK,23.5,°C,OK,16.5,°C,OK,1014.6,hPa,OK,7087.0,meters,OK,1341.0,feet,OK,0.1,mm/hr,OK,1697.0,meters,OK,1713.0,meters,OK,1913.0,meters,OK
2025-01-26T20:08:49.753329,14.1,knots,OK,324.0,degrees,OK,18.8,knots,OK,22.8,°C,OK,11.3,°C,OK,1013.2,hPa,OK,5069.0,meters,OK,1206.0,feet,OK,0.4,mm/hr,OK,1832.0,meters,OK,1963.0,meters,OK,1532.0,meters,OK
2025-01-26T20:08:50.757577,5.6,knots,OK,97.0,degrees,OK,10.2,knots,OK,15.2,°C,OK,11.2,°C,OK,1013.4,hPa,OK,5836.0,meters,OK,2559.0,feet,OK,0.1,mm/hr,OK,1856.0,meters,OK,1530.0,meters,OK,1684.0,meters,OK
2025-01-26T20:08:51.761488,13.6,knots,OK,50.0,degrees,OK,13.7,knots,OK,19.2,°C,OK,13.0,°C,OK,1013.9,hPa,OK,5110.0,meters,OK,2013.0,feet,OK,0.4,mm/hr,OK,1919.0,meters,OK,1764.0,meters,OK,1710.0,meters,OK
2025-01-26T20:08:52.765192,8.3,knots,OK,263.0,degrees,OK,23.1,knots,OK,19.6,°C,OK,10.8,°C,OK,1013.3,hPa,OK,9705.0,meters,OK,1409.0,feet,OK,0.3,mm/hr,OK,1604.0,meters,OK,1617.0,meters,OK,1992.0,meters,OK
2025-01-26T20:08:53.769930,14.1,knots,OK,20.0,degrees,OK,17.2,knots,OK,20.8,°C,OK,17.8,°C,OK,1014.5,hPa,OK,7626.0,meters,OK,1024.0,feet,OK,0.4,mm/hr,OK,1907.0,meters,OK,1838.0,meters,OK,1914.0,meters,OK
2025-01-26T20:08:54.773665,12.9,knots,OK,56.0,degrees,OK,13.4,knots,OK,18.7,°C,OK,16.0,°C,OK,1014.9,hPa,OK,5326.0,meters,OK,2328.0,feet,OK,0.4,mm/hr,OK,1532.0,meters,OK,1916.0,meters,OK,1646.0,meters,OK
2025-01-26T20:08:55.777935,14.1,knots,OK,160.0,degrees,OK,18.5,knots,OK,15.3,°C,OK,10.0,°C,OK,1013.3,hPa,OK,5057.0,meters,OK,2413.0,feet,OK,0.1,mm/hr,OK,1612.0,meters,OK,1888.0,meters,OK,1505.0,meters,OK
2025-01-26T20:08:56.782062,12.2,knots,OK,127.0,degrees,OK,13.5,knots,OK,23.5,°C,OK,14.2,°C,OK,1013.9,hPa,OK,7284.0,meters,OK,1227.0,feet,OK,0.4,mm/hr,OK,1894.0,meters,OK,1770.0,meters,OK,1901.0,meters,OK
2025-01-26T20:08:57.785929,12.8,knots,OK,206.0,degrees,OK,12.3,knots,OK,21.4,°C,OK,14.3,°C,OK,1014.3,hPa,OK,7912.0,meters,OK,2231.0,feet,OK,0.5,mm/hr,OK,1839.0,meters,OK,1526.0,meters,OK,1594.0,meters,OK
2025-01-26T20:08:58.790373,6.7,knots,OK,75.0,degrees,OK,19.5,knots,OK,21.7,°C,OK,15.9,°C,OK,1014.9,hPa,OK,8903.0,meters,OK,1215.0,feet,OK,0.4,mm/hr,OK,1791.0,meters,OK,1971.0,meters,OK,1707.0,meters,OK
2025-01-26T20:08:59.795093,11.0,knots,OK,157.0,degrees,OK,24.3,knots,OK,23.4,°C,OK,14.3,°C,OK,1014.2,hPa,OK,6677.0,meters,OK,1254.0,feet,OK,0.2,mm/hr,OK,1887.0,meters,OK,1653.0,meters,OK,1662.0,meters,OK
2025-01-26T20:09:00.799180,8.1,knots,OK,166.0,degrees,OK,12.4,knots,OK,19.3,°C,OK,12.4,°C,OK,1013.5,hPa,OK,5953.0,meters,OK,2575.0,feet,OK,0.1,mm/hr,OK,1638.0,meters,OK,1849.0,meters,OK,1804.0,meters,OK
2025-01-26T20:09:01.803630,7.3,knots,OK,298.0,degrees,OK,14.4,knots,OK,24.8,°C,OK,16.2,°C,OK,1014.9,hPa,OK,5545.0,meters,OK,1903.0,feet,OK,0.1,mm/hr,OK,1702.0,meters,OK,1630.0,meters,OK,1656.0,meters,OK
2025-01-26T20:09:02.808816,6.1,knots,OK,270.0,degrees,OK,14.1,knots,OK,15.1,°C,OK,19.9,°C,OK,1014.0,hPa,OK,7048.0,meters,OK,2034.0,feet,OK,0.3,mm/hr,OK,1861.0,meters,OK,1581.0,meters,OK,1649.0,meters,OK
2025-01-26T20:09:03.813852,9.4,knots,OK,161.0,degrees,OK,10.4,knots,OK,15.1,°C,OK,15.3,°C,OK,1013.2,hPa,OK,6204.0,meters,OK,2531.0,feet,OK,0.2,mm/hr,OK,1937.0,meters,OK,1869.0,meters,OK,1513.0,meters,OK
2025-01-26T20:09:04.818093,6.5,knots,OK,297.0,degrees,OK,10.0,knots,OK,24.5,°C,OK,10.3,°C,OK,1015.0,hPa,OK,8430.0,meters,OK,2796.0,feet,OK,0.2,mm/hr,OK,1598.0,meters,OK,1534.0,meters,OK,1831.0,meters,OK
2025-01-26T20:09:05.822480,13.6,knots,OK,41.0,degrees,OK,18.6,knots,OK,18.7,°C,OK,16.8,°C,OK,1014.2,hPa,OK,6558.0,meters,OK,2242.0,feet,OK,0.4,mm/hr,OK,1785.0,meters,OK,1772.0,meters,OK,1506.0,meters,OK
2025-01-26T20:09:06.826948,5.8,knots,OK,302.0,degrees,OK,13.3,knots,OK,19.6,°C,OK,12.9,°C,OK,1013.5,hPa,OK,8186.0,meters,OK,1347.0,feet,OK,0.2,mm/hr,OK,1638.0,meters,OK,1648.0,meters,OK,1900.0,meters,OK
2025-01-26T20:09:07.830356,8.5,knots,OK,196.0,degrees,OK,17.9,knots,OK,21.6,°C,OK,12.2,°C,OK,1014.5,hPa,OK,9095.0,meters,OK,1702.0,feet,OK,0.2,mm/hr,OK,1915.0,meters,OK,1812.0,meters,OK,1683.0,meters,OK
2025-01-26T20:09:08.834663,5.2,knots,OK,308.0,degrees,OK,23.8,knots,OK,24.9,°C,OK,12.4,°C,OK,1015.0,hPa,OK,8695.0,meters,OK,1611.0,feet,OK,0.5,mm/hr,OK,1872.0,meters,OK,1564.0,meters,OK,1606.0,meters,OK
2025-01-26T20:09:09.838603,6.1,knots,OK,164.0,degrees,OK,21.0,knots,OK,20.6,°C,OK,19.3,°C,OK,1014.2,hPa,OK,7296.0,meters,OK,1213.0,feet,OK,0.4,mm/hr,OK,1581.0,meters,OK,1708.0,meters,OK,1523.0,meters,OK
2025-01-26T20:09:10.842932,8.6,knots,OK,190.0,degrees,OK,10.5,knots,OK,19.3,°C,OK,11.1,°C,OK,1013.3,hPa,OK,8757.0,meters,OK,1024.0,feet,OK,0.1,mm/hr,OK,1882.0,meters,OK,1529.0,meters,OK,1536.0,meters,OK
2025-01-26T20:09:11.847455,6.9,knots,OK,221.0,degrees,OK,19.6,knots,OK,17.5,°C,OK,13.7,°C,OK,1013.2,hPa,OK,6722.0,meters,OK,1086.0,feet,OK,0.0,mm/hr,OK,1563.0,meters,OK,1639.0,meters,OK,1621.0,meters,OK
2025-01-26T20:09:12.852086,12.5,knots,OK,212.0,degrees,OK,14.6,knots,OK,21.0,°C,OK,16.8,°C,OK,1013.9,hPa,OK,6960.0,meters,OK,1601.0,feet,OK,0.2,mm/hr,OK,1732.0,meters,OK,1831.0,meters,OK,1927.0,meters,OK
2025-01-26T20:09:13.855263,6.4,knots,OK,124.0,degrees,OK,19.6,knots,OK,21.3,°C,OK,11.1,°C,OK,1015.0,hPa,OK,8597.0,meters,OK,1552.0,feet,OK,0.0,mm/hr,OK,1963.0,meters,OK,1693.0,meters,OK,1541.0,meters,OK
2025-01-26T20:09:14.859900,7.2,knots,OK,138.0,degrees,OK,20.8,knots,OK,19.6,°C,OK,11.1,°C,OK,1014.5,hPa,OK,7810.0,meters,OK,2242.0,feet,OK,0.1,mm/hr,OK,1642.0,meters,OK,1961.0,meters,OK,1603.0,meters,OK
2025-01-26T20:09:15.864678,13.9,knots,OK,351.0,degrees,OK,23.6,knots,OK,23.8,°C,OK,19.7,°C,OK,1013.6,hPa,OK,9084.0,meters,OK,1674.0,feet,OK,0.4,mm/hr,OK,1951.0,meters,OK,1511.0,meters,OK,1934.0,meters,OK
2025-01-26T20:09:16.869190,7.1,knots,OK,215.0,degrees,OK,11.3,knots,OK,19.8,°C,OK,19.9,°C,OK,1013.5,hPa,OK,5667.0,meters,OK,2206.0,feet,OK,0.2,mm/hr,OK,1827.0,meters,OK,1711.0,meters,OK,1986.0,meters,OK
2025-01-26T20:09:17.872890,11.6,knots,OK,7.0,degrees,OK,19.2,knots,OK,24.3,°C,OK,14.2,°C,OK,1014.6,hPa,OK,8554.0,meters,OK,2125.0,feet,OK,0.2,mm/hr,OK,1788.0,meters,OK,1778.0,meters,OK,1897.0,meters,OK
2025-01-26T20:09:18.876936,5.5,knots,OK,245.0,degrees,OK,23.2,knots,OK,17.7,°C,OK,12.5,°C,OK,1014.9,hPa,OK,8063.0,meters,OK,1977.0,feet,OK,0.2,mm/hr,OK,1574.0,meters,OK,1907.0,meters,OK,1731.0,meters,OK
2025-01-26T20:09:19.880937,7.4,knots,OK,189.0,degrees,OK,11.7,knots,OK,16.3,°C,OK,12.2,°C,OK,1013.6,hPa,OK,5036.0,meters,OK,1918.0,feet,OK,0.0,mm/hr,OK,1885.0,meters,OK,1554.0,meters,OK,1548.0,meters,OK
2025-01-26T20:09:20.885068,10.1,knots,OK,169.0,degrees,OK,19.7,knots,OK,24.5,°C,OK,14.7,°C,OK,1014.1,hPa,OK,7835.0,meters,OK,1796.0,feet,OK,0.2,mm/hr,OK,1989.0,meters,OK,1814.0,meters,OK,1604.0,meters,OK
2025-01-26T20:09:21.889476,8.6,knots,OK,299.0,degrees,OK,22.5,knots,OK,24.7,°C,OK,13.5,°C,OK,1013.3,hPa,OK,7130.0,meters,OK,2494.0,feet,OK,0.3,mm/hr,OK,1963.0,meters,OK,1544.0,meters,OK,1778.0,meters,OK
2025-01-26T20:09:22.893471,12.6,knots,OK,151.0,degrees,OK,15.2,knots,OK,15.4,°C,OK,15.3,°C,OK,1014.8,hPa,OK,7449.0,meters,OK,1602.0,feet,OK,0.4,mm/hr,OK,1712.0,meters,OK,1870.0,meters,OK,1970.0,meters,OK
2025-01-26T20:09:23.897739,9.2,knots,OK,250.0,degrees,OK,16.8,knots,OK,19.2,°C,OK,17.3,°C,OK,1014.4,hPa,OK,5739.0,meters,OK,1982.0,feet,OK,0.0,mm/hr,OK,1650.0,meters,OK,1603.0,meters,OK,1648.0,meters,OK
2025-01-26T20:09:24.901656,9.6,knots,OK,305.0,degrees,OK,17.9,knots,OK,24.3,°C,OK,14.4,°C,OK,1013.3,hPa,OK,9731.0,meters,OK,1937.0,feet,OK,0.0,mm/hr,OK,1589.0,meters,OK,1979.0,meters,OK,1506.0,meters,OK
2025-01-26T20:09:25.905507,12.8,knots,OK,202.0,degrees,OK,13.9,knots,OK,19.7,°C,OK,14.1,°C,OK,1014.9,hPa,OK,8352.0,meters,OK,2243.0,feet,OK,0.4,mm/hr,OK,1517.0,meters,OK,1737.0,meters,OK,1908.0,meters,OK
2025-01-26T20:09:26.909009,5.8,knots,OK,254.0,degrees,OK,18.3,knots,OK,23.2,°C,OK,17.5,°C,OK,1014.7,hPa,OK,6394.0,meters,OK,2733.0,feet,OK,0.4,mm/hr,OK,1882.0,meters,OK,1779.0,meters,OK,1949.0,meters,OK
2025-01-26T20:09:27.913848,7.8,knots,OK,223.0,degrees,OK,21.8,knots,OK,18.7,°C,OK,19.4,°C,OK,1013.9,hPa,OK,9612.0,meters,OK,1915.0,feet,OK,0.2,mm/hr,OK,1683.0,meters,OK,1851.0,meters,OK,1622.0,meters,OK
2025-01-26T20:09:28.918173,10.9,knots,OK,80.0,degrees,OK,12.2,knots,OK,21.7,°C,OK,14.9,°C,OK,1014.2,hPa,OK,5861.0,meters,OK,1472.0,feet,OK,0.4,mm/hr,OK,1976.0,meters,OK,1898.0,meters,OK,1736.0,meters,OK
2025-01-26T20:09:29.922642,7.1,knots,OK,42.0,degrees,OK,14.4,knots,OK,21.8,°C,OK,16.5,°C,OK,1013.3,hPa,OK,5545.0,meters,OK,2564.0,feet,OK,0.0,mm/hr,OK,1637.0,meters,OK,1905.0,meters,OK,1547.0,meters,OK
2025-01-26T20:09:30.926461,11.3,knots,OK,251.0,degrees,OK,21.2,knots,OK,18.4,°C,OK,15.5,°C,OK,1014.5,hPa,OK,7445.0,meters,OK,2600.0,feet,OK,0.1,mm/hr,OK,1941.0,meters,OK,1915.0,meters,OK,1735.0,meters,OK
2025-01-26T20:09:31.930883,14.1,knots,OK,48.0,degrees,OK,11.0,knots,OK,20.0,°C,OK,10.8,°C,OK,1014.9,hPa,OK,8028.0,meters,OK,1430.0,feet,OK,0.2,mm/hr,OK,1558.0,meters,OK,1945.0,meters,OK,1902.0,meters,OK
2025-01-26T20:09:32.934869,11.5,knots,OK,9.0,degrees,OK,22.7,knots,OK,21.8,°C,OK,14.6,°C,OK,1013.8,hPa,OK,8162.0,meters,OK,1837.0,feet,OK,0.1,mm/hr,OK,1804.0,meters,OK,1758.0,meters,OK,1803.0,meters,OK
2025-01-26T20:09:33.939130,8.5,knots,OK,16.0,degrees,OK,13.7,knots,OK,17.1,°C,OK,10.3,°C,OK,1014.2,hPa,OK,5932.0,meters,OK,1724.0,feet,OK,0.1,mm/hr,OK,1891.0,meters,OK,1541.0,meters,OK,1749.0,meters,OK
2025-01-26T20:09:34.943537,10.7,knots,OK,216.0,degrees,OK,22.2,knots,OK,17.0,°C,OK,17.5,°C,OK,1013.6,hPa,OK,9859.0,meters,OK,1413.0,feet,OK,0.2,mm/hr,OK,1853.0,meters,OK,1753.0,meters,OK,1751.0,meters,OK
2025-01-26T20:09:35.947807,11.0,knots,OK,246.0,degrees,OK,24.3,knots,OK,21.1,°C,OK,10.1,°C,OK,1014.6,hPa,OK,6759.0,meters,OK,2565.0,feet,OK,0.3,mm/hr,OK,1799.0,meters,OK,1555.0,meters,OK,1704.0,meters,OK
2025-01-26T20:09:36.952440,8.0,knots,OK,313.0,degrees,OK,16.1,knots,OK,18.9,°C,OK,14.7,°C,OK,1014.6,hPa,OK,5213.0,meters,OK,2342.0,feet,OK,0.3,mm/hr,OK,1895.0,meters,OK,1674.0,meters,OK,1987.0,meters,OK
2025-01-26T20:09:37.956902,13.4,knots,OK,39.0,degrees,OK,23.0,knots,OK,23.4,°C,OK,18.7,°C,OK,1013.0,hPa,OK,6509.0,meters,OK,1261.0,feet,OK,0.3,mm/hr,OK,1898.0,meters,OK,1975.0,meters,OK,1846.0,meters,OK
2025-01-26T20:09:38.961276,10.9,knots,OK,261.0,degrees,OK,20.3,knots,OK,24.1,°C,OK,11.2,°C,OK,1013.5,hPa,OK,8434.0,meters,OK,2203.0,feet,OK,0.3,mm/hr,OK,1861.0,meters,OK,1985.0,meters,OK,1726.0,meters,OK
2025-01-26T20:09:39.966112,5.1,knots,OK,202.0,degrees,OK,18.7,knots,OK,15.8,°C,OK,13.4,°C,OK,1013.6,hPa,OK,6886.0,meters,OK,2667.0,feet,OK,0.4,mm/hr,OK,1568.0,meters,OK,1901.0,meters,OK,1975.0,meters,OK
2025-01-26T20:09:40.970718,8.2,knots,OK,256.0,degrees,OK,14.4,knots,OK,21.9,°C,OK,18.8,°C,OK,1013.1,hPa,OK,8702.0,meters,OK,1302.0,feet,OK,0.0,mm/hr,OK,1802.0,meters,OK,1887.0,meters,OK,1842.0,meters,OK
2025-01-26T20:09:41.974754,9.7,knots,OK,132.0,degrees,OK,24.5,knots,OK,23.9,°C,OK,11.9,°C,OK,1014.4,hPa,OK,7674.0,meters,OK,2273.0,feet,OK,0.2,mm/hr,OK,1863.0,meters,OK,1859.0,meters,OK,1550.0,meters,OK
2025-01-26T20:09:42.978540,9.9,knots,OK,157.0,degrees,OK,22.7,knots,OK,18.1,°C,OK,17.9,°C,OK,1014.1,hPa,OK,7600.0,meters,OK,2119.0,feet,OK,0.0,mm/hr,OK,1647.0,meters,OK,1711.0,meters,OK,1777.0,meters,OK
2025-01-26T20:09:43.982800,7.4,knots,OK,16.0,degrees,OK,11.4,knots,OK,21.2,°C,OK,18.2,°C,OK,1013.4,hPa,OK,8768.0,meters,OK,2375.0,feet,OK,0.4,mm/hr,OK,1647.0,meters,OK,1664.0,meters,OK,1986.0,meters,OK
2025-01-26T20:09:44.986304,8.1,knots,OK,151.0,degrees,OK,15.4,knots,OK,20.6,°C,OK,11.3,°C,OK,1014.5,hPa,OK,8927.0,meters,OK,1291.0,feet,OK,0.4,mm/hr,OK,1756.0,meters,OK,1837.0,meters,OK,1713.0,meters,OK
2025-01-26T20:09:45.991356,5.5,knots,OK,76.0,degrees,OK,12.3,knots,OK,22.6,°C,OK,16.6,°C,OK,1014.7,hPa,OK,8030.0,meters,OK,2534.0,feet,OK,0.1,mm/hr,OK,1982.0,meters,OK,1506.0,meters,OK,1643.0,meters,OK
2025-01-26T20:09:46.996184,5.4,knots,OK,126.0,degrees,OK,12.2,knots,OK,23.6,°C,OK,11.1,°C,OK,1013.1,hPa,OK,6204.0,meters,OK,2638.0,feet,OK,0.5,mm/hr,OK,1641.0,meters,OK,1538.0,meters,OK,1632.0,meters,OK
2025-01-26T20:09:48.001231,12.5,knots,OK,0.0,degrees,OK,15.3,knots,OK,21.2,°C,OK,17.6,°C,OK,1014.1,hPa,OK,6018.0,meters,OK,1229.0,feet,OK,0.5,mm/hr,OK,1781.0,meters,OK,1733.0,meters,OK,1533.0,meters,OK
2025-01-26T20:09:49.005670,13.5,knots,OK,18.0,degrees,OK,23.8,knots,OK,24.9,°C,OK,12.8,°C,OK,1014.9,hPa,OK,7702.0,meters,OK,1144.0,feet,OK,0.2,mm/hr,OK,1860.0,meters,OK,1641.0,meters,OK,1893.0,meters,OK
2025-01-26T20:09:50.009260,7.1,knots,OK,258.0,degrees,OK,22.1,knots,OK,22.3,°C,OK,13.2,°C,OK,1014.2,hPa,OK,6604.0,meters,OK,2409.0,feet,OK,0.4,mm/hr,OK,1682.0,meters,OK,1520.0,meters,OK,1642.0,meters,OK
2025-01-26T20:09:51.013523,12.7,knots,OK,100.0,degrees,OK,18.3,knots,OK,23.5,°C,OK,15.2,°C,OK,1014.2,hPa,OK,6637.0,meters,OK,2548.0,feet,OK,0.0,mm/hr,OK,1789.0,meters,OK,1643.0,meters,OK,1812.0,meters,OK
2025-01-26T20:09:52.018134,7.6,knots,OK,352.0,degrees,OK,16.1,knots,OK,23.8,°C,OK,10.7,°C,OK,1015.0,hPa,OK,9091.0,meters,OK,2076.0,feet,OK,0.3,mm/hr,OK,1983.0,meters,OK,1526.0,meters,OK,1533.0,meters,OK
2025-01-26T20:09:53.022891,13.5,knots,OK,36.0,degrees,OK,17.4,knots,OK,20.8,°C,OK,11.0,°C,OK,1014.0,hPa,OK,7380.0,meters,OK,1431.0,feet,OK,0.0,mm/hr,OK,1768.0,meters,OK,1938.0,meters,OK,1742.0,meters,OK
2025-01-26T20:09:54.027675,10.3,knots,OK,262.0,degrees,OK,10.8,knots,OK,21.9,°C,OK,18.2,°C,OK,1014.7,hPa,OK,9976.0,meters,OK,1195.0,feet,OK,0.4,mm/hr,OK,1772.0,meters,OK,1528.0,meters,OK,1715.0,meters,OK
2025-01-26T20:09:55.032009,12.5,knots,OK,216.0,degrees,OK,16.5,knots,OK,19.8,°C,OK,19.9,°C,OK,1013.8,hPa,OK,7916.0,meters,OK,1069.0,feet,OK,0.2,mm/hr,OK,1889.0,meters,OK,1762.0,meters,OK,1927.0,meters,OK
2025-01-26T20:09:56.036683,5.1,knots,OK,19.0,degrees,OK,22.8,knots,OK,21.5,°C,OK,17.8,°C,OK,1014.9,hPa,OK,7188.0,meters,OK,2559.0,feet,OK,0.1,mm/hr,OK,1909.0,meters,OK,1881.0,meters,OK,1981.0,meters,OK
2025-01-26T20:09:57.040097,13.2,knots,OK,165.0,degrees,OK,10.5,knots,OK,19.5,°C,OK,18.3,°C,OK,1014.1,hPa,OK,5534.0,meters,OK,2862.0,feet,OK,0.0,mm/hr,OK,1804.0,meters,OK,1936.0,meters,OK,1937.0,meters,OK
2025-01-26T20:09:58.044545,12.3,knots,OK,63.0,degrees,OK,11.0,knots,OK,20.8,°C,OK,15.6,°C,OK,1014.2,hPa,OK,7411.0,meters,OK,1455.0,feet,OK,0.2,mm/hr,OK,1969.0,meters,OK,1705.0,meters,OK,1533.0,meters,OK
2025-01-26T20:09:59.049097,7.4,knots,OK,196.0,degrees,OK,17.4,knots,OK,22.6,°C,OK,12.8,°C,OK,1014.0,hPa,OK,9571.0,meters,OK,2630.0,feet,OK,0.3,mm/hr,OK,1683.0,meters,OK,1860.0,meters,OK,1728.0,meters,OK
2025-01-26T20:10:00.053583,5.2,knots,OK,89.0,degrees,OK,15.5,knots,OK,15.3,°C,OK,18.3,°C,OK,1014.2,hPa,OK,7955.0,meters,OK,1621.0,feet,OK,0.2,mm/hr,OK,1796.0,meters,OK,1794.0,meters,OK,1680.0,meters,OK
2025-01-26T20:10:01.058713,10.3,knots,OK,45.0,degrees,OK,20.7,knots,OK,20.5,°C,OK,12.6,°C,OK,1013.2,hPa,OK,7874.0,meters,OK,2908.0,feet,OK,0.3,mm/hr,OK,1830.0,meters,OK,1648.0,meters,OK,1643.0,meters,OK
2025-01-26T20:10:02.063052,13.6,knots,OK,234.0,degrees,OK,14.3,knots,OK,18.7,°C,OK,15.9,°C,OK,1013.6,hPa,OK,9558.0,meters,OK,1099.0,feet,OK,0.3,mm/hr,OK,1507.0,meters,OK,1829.0,meters,OK,1753.0,meters,OK
2025-01-26T20:10:03.067697,9.7,knots,OK,275.0,degrees,OK,14.8,knots,OK,18.1,°C,OK,16.4,°C,OK,1013.0,hPa,OK,8514.0,meters,OK,2030.0,feet,OK,0.2,mm/hr,OK,1759.0,meters,OK,1836.0,meters,OK,1904.0,meters,OK
2025-01-26T20:10:04.071974,8.4,knots,OK,104.0,degrees,OK,20.2,knots,OK,18.3,°C,OK,10.4,°C,OK,1013.9,hPa,OK,5240.0,meters,OK,1483.0,feet,OK,0.4,mm/hr,OK,1755.0,meters,OK,1953.0,meters,OK,1508.0,meters,OK
2025-01-26T20:10:05.076888,6.2,knots,OK,190.0,degrees,OK,14.2,knots,OK,20.5,°C,OK,11.7,°C,OK,1014.9,hPa,OK,9372.0,meters,OK,2121.0,feet,OK,0.3,mm/hr,OK,1685.0,meters,OK,1892.0,meters,OK,1642.0,meters,OK
2025-01-26T20:10:06.080744,12.5,knots,OK,183.0,degrees,OK,15.5,knots,OK,20.6,°C,OK,16.9,°C,OK,1014.3,hPa,OK,7980.0,meters,OK,2283.0,feet,OK,0.0,mm/hr,OK,1724.0,meters,OK,1847.0,meters,OK,1701.0,meters,OK
2025-01-26T20:10:07.084813,5.4,knots,OK,317.0,degrees,OK,22.7,knots,OK,21.0,°C,OK,18.3,°C,OK,1013.8,hPa,OK,8064.0,meters,OK,1279.0,feet,OK,0.1,mm/hr,OK,1629.0,meters,OK,1894.0,meters,OK,1507.0,meters,OK
2025-01-26T20:10:08.089377,5.1,knots,OK,155.0,degrees,OK,12.5,knots,OK,18.5,°C,OK,14.5,°C,OK,1014.6,hPa,OK,6300.0,meters,OK,2223.0,feet,OK,0.3,mm/hr,OK,1941.0,meters,OK,1974.0,meters,OK,1956.0,meters,OK
2025-01-26T20:10:09.093597,8.0,knots,OK,282.0,degrees,OK,13.9,knots,OK,20.6,°C,OK,11.1,°C,OK,1013.6,hPa,OK,5686.0,meters,OK,1357.0,feet,OK,0.3,mm/hr,OK,1840.0,meters,OK,1799.0,meters,OK,1541.0,meters,OK
2025-01-26T20:10:10.097345,5.9,knots,OK,221.0,degrees,OK,19.5,knots,OK,22.2,°C,OK,16.2,°C,OK,1014.3,hPa,OK,7291.0,meters,OK,1256.0,feet,OK,0.5,mm/hr,OK,1918.0,meters,OK,1661.0,meters,OK,1735.0,meters,OK
2025-01-26T20:10:11.101625,6.4,knots,OK,83.0,degrees,OK,22.6,knots,OK,21.0,°C,OK,10.5,°C,OK,1014.2,hPa,OK,6085.0,meters,OK,2013.0,feet,OK,0.4,mm/hr,OK,1668.0,meters,OK,1697.0,meters,OK,1776.0,meters,OK
2025-01-26T20:10:12.106369,8.0,knots,OK,53.0,degrees,OK,23.3,knots,OK,16.5,°C,OK,17.1,°C,OK,1014.2,hPa,OK,6428.0,meters,OK,1676.0,feet,OK,0.0,mm/hr,OK,1990.0,meters,OK,1846.0,meters,OK,1776.0,meters,OK
2025-01-26T20:10:13.110806,14.7,knots,OK,70.0,degrees,OK,16.9,knots,OK,23.3,°C,OK,17.7,°C,OK,1014.7,hPa,OK,9094.0,meters,OK,1411.0,feet,OK,0.4,mm/hr,OK,1775.0,meters,OK,1543.0,meters,OK,1505.0,meters,OK
2025-01-26T20:10:14.115181,12.6,knots,OK,326.0,degrees,OK,14.7,knots,OK,22.8,°C,OK,17.4,°C,OK,1013.9,hPa,OK,5966.0,meters,OK,1092.0,feet,OK,0.0,mm/hr,OK,1837.0,meters,OK,1762.0,meters,OK,1518.0,meters,OK
2025-01-26T20:10:15.119794,13.7,knots,OK,286.0,degrees,OK,12.8,knots,OK,21.2,°C,OK,18.0,°C,OK,1014.5,hPa,OK,8929.0,meters,OK,1605.0,feet,OK,0.3,mm/hr,OK,1795.0,meters,OK,1911.0,meters,OK,1957.0,meters,OK
2025-01-26T20:10:16.124142,7.9,knots,OK,159.0,degrees,OK,16.7,knots,OK,23.6,°C,OK,10.5,°C,OK,1014.8,hPa,OK,7269.0,meters,OK,2403.0,feet,OK,0.3,mm/hr,OK,1905.0,meters,OK,1847.0,meters,OK,1833.0,meters,OK
2025-01-26T20:10:17.127455,9.4,knots,OK,276.0,degrees,OK,20.6,knots,OK,19.3,°C,OK,11.3,°C,OK,1014.6,hPa,OK,6471.0,meters,OK,2231.0,feet,OK,0.4,mm/hr,OK,1669.0,meters,OK,1513.0,meters,OK,1630.0,meters,OK
2025-01-26T20:10:18.132314,5.2,knots,OK,345.0,degrees,OK,16.1,knots,OK,19.7,°C,OK,17.5,°C,OK,1014.1,hPa,OK,8603.0,meters,OK,3000.0,feet,OK,0.4,mm/hr,OK,1615.0,meters,OK,1969.0,meters,OK,1985.0,meters,OK
2025-01-26T20:10:19.137219,13.5,knots,OK,69.0,degrees,OK,15.9,knots,OK,24.7,°C,OK,16.1,°C,OK,1013.2,hPa,OK,5217.0,meters,OK,1558.0,feet,OK,0.2,mm/hr,OK,1659.0,meters,OK,1876.0,meters,OK,1636.0,meters,OK
2025-01-26T20:10:20.142508,8.8,knots,OK,177.0,degrees,OK,22.6,knots,OK,18.6,°C,OK,14.6,°C,OK,1013.3,hPa,OK,8297.0,meters,OK,1177.0,feet,OK,0.4,mm/hr,OK,1629.0,meters,OK,1651.0,meters,OK,1701.0,meters,OK
2025-01-26T20:10:21.147600,5.7,knots,OK,2.0,degrees,OK,23.1,knots,OK,17.1,°C,OK,10.7,°C,OK,1013.5,hPa,OK,8685.0,meters,OK,2455.0,feet,OK,0.1,mm/hr,OK,1633.0,meters,OK,1514.0,meters,OK,1895.0,meters,OK
2025-01-26T20:10:22.159324,8.5,knots,OK,329.0,degrees,OK,22.6,knots,OK,22.8,°C,OK,19.0,°C,OK,1013.5,hPa,OK,7651.0,meters,OK,1469.0,feet,OK,0.3,mm/hr,OK,1834.0,meters,OK,1514.0,meters,OK,1815.0,meters,OK
2025-01-26T20:10:23.164778,14.9,knots,OK,35.0,degrees,OK,11.6,knots,OK,18.5,°C,OK,17.8,°C,OK,1014.6,hPa,OK,7654.0,meters,OK,1064.0,feet,OK,0.4,mm/hr,OK,1979.0,meters,OK,1885.0,meters,OK,1774.0,meters,OK
2025-01-26T20:10:24.169311,6.7,knots,OK,252.0,degrees,OK,14.6,knots,OK,15.8,°C,OK,17.7,°C,OK,1014.6,hPa,OK,8986.0,meters,OK,2134.0,feet,OK,0.5,mm/hr,OK,1937.0,meters,OK,1945.0,meters,OK,1953.0,meters,OK
2025-01-26T20:10:25.173575,14.0,knots,OK,43.0,degrees,OK,17.3,knots,OK,23.1,°C,OK,15.1,°C,OK,1014.2,hPa,OK,8766.0,meters,OK,1395.0,feet,OK,0.3,mm/hr,OK,1999.0,meters,OK,1573.0,meters,OK,1540.0,meters,OK
2025-01-26T20:10:26.177536,12.9,knots,OK,66.0,degrees,OK,19.7,knots,OK,17.6,°C,OK,13.6,°C,OK,1014.4,hPa,OK,7504.0,meters,OK,1835.0,feet,OK,0.4,mm/hr,OK,1504.0,meters,OK,1712.0,meters,OK,1568.0,meters,OK
2025-01-26T20:10:27.181338,6.2,knots,OK,279.0,degrees,OK,24.6,knots,OK,15.7,°C,OK,11.7,°C,OK,1014.7,hPa,OK,7549.0,meters,OK,1443.0,feet,OK,0.4,mm/hr,OK,1637.0,meters,OK,1976.0,meters,OK,1674.0,meters,OK
2025-01-26T20:10:28.185579,13.0,knots,OK,357.0,degrees,OK,17.2,knots,OK,18.6,°C,OK,10.2,°C,OK,1014.4,hPa,OK,9981.0,meters,OK,2851.0,feet,OK,0.1,mm/hr,OK,1847.0,meters,OK,1760.0,meters,OK,1691.0,meters,OK
2025-01-26T20:10:29.189294,10.7,knots,OK,248.0,degrees,OK,16.0,knots,OK,23.6,°C,OK,18.8,°C,OK,1013.3,hPa,OK,8110.0,meters,OK,1408.0,feet,OK,0.3,mm/hr,OK,1959.0,meters,OK,1889.0,meters,OK,1850.0,meters,OK
2025-01-26T20:10:30.193843,7.1,knots,OK,155.0,degrees,OK,13.8,knots,OK,24.6,°C,OK,11.1,°C,OK,1013.7,hPa,OK,8285.0,meters,OK,1529.0,feet,OK,0.4,mm/hr,OK,1874.0,meters,OK,1841.0,meters,OK,1759.0,meters,OK
2025-01-26T20:10:31.197636,10.3,knots,OK,114.0,degrees,OK,11.0,knots,OK,18.1,°C,OK,14.2,°C,OK,1014.2,hPa,OK,6687.0,meters,OK,1777.0,feet,OK,0.4,mm/hr,OK,1685.0,meters,OK,1809.0,meters,OK,1850.0,meters,OK
2025-01-26T20:10:32.201241,5.6,knots,OK,281.0,degrees,OK,24.8,knots,OK,21.8,°C,OK,14.0,°C,OK,1014.6,hPa,OK,7513.0,meters,OK,1294.0,feet,OK,0.2,mm/hr,OK,1740.0,meters,OK,1859.0,meters,OK,1548.0,meters,OK
2025-01-26T20:10:33.205845,11.8,knots,OK,20.0,degrees,OK,16.6,knots,OK,16.3,°C,OK,12.7,°C,OK,1013.4,hPa,OK,9160.0,meters,OK,1922.0,feet,OK,0.2,mm/hr,OK,1821.0,meters,OK,1848.0,meters,OK,1990.0,meters,OK
2025-01-26T20:10:34.210729,7.4,knots,OK,49.0,degrees,OK,17.1,knots,OK,20.9,°C,OK,14.3,°C,OK,1014.3,hPa,OK,8654.0,meters,OK,2103.0,feet,OK,0.5,mm/hr,OK,1550.0,meters,OK,1704.0,meters,OK,1506.0,meters,OK
2025-01-26T20:10:35.215603,10.3,knots,OK,243.0,degrees,OK,21.1,knots,OK,23.4,°C,OK,14.8,°C,OK,1013.4,hPa,OK,5331.0,meters,OK,2241.0,feet,OK,0.5,mm/hr,OK,1789.0,meters,OK,1570.0,meters,OK,1919.0,meters,OK
2025-01-26T20:10:36.220241,5.8,knots,OK,254.0,degrees,OK,14.9,knots,OK,16.4,°C,OK,16.1,°C,OK,1014.9,hPa,OK,6903.0,meters,OK,1705.0,feet,OK,0.5,mm/hr,OK,1734.0,meters,OK,1858.0,meters,OK,1913.0,meters,OK
2025-01-26T20:10:37.224550,9.2,knots,OK,75.0,degrees,OK,18.0,knots,OK,21.6,°C,OK,18.8,°C,OK,1014.6,hPa,OK,5167.0,meters,OK,1293.0,feet,OK,0.2,mm/hr,OK,1535.0,meters,OK,1606.0,meters,OK,1800.0,meters,OK
2025-01-26T20:10:38.229007,7.3,knots,OK,124.0,degrees,OK,22.9,knots,OK,18.5,°C,OK,13.7,°C,OK,1013.5,hPa,OK,7877.0,meters,OK,1205.0,feet,OK,0.5,mm/hr,OK,1772.0,meters,OK,1744.0,meters,OK,1626.0,meters,OK
2025-01-26T20:10:39.234009,12.9,knots,OK,19.0,degrees,OK,15.6,knots,OK,23.2,°C,OK,14.8,°C,OK,1013.8,hPa,OK,7238.0,meters,OK,1808.0,feet,OK,0.2,mm/hr,OK,1586.0,meters,OK,1574.0,meters,OK,1911.0,meters,OK
2025-01-26T20:10:40.237345,8.5,knots,OK,104.0,degrees,OK,24.7,knots,OK,23.6,°C,OK,17.3,°C,OK,1014.0,hPa,OK,7314.0,meters,OK,1769.0,feet,OK,0.1,mm/hr,OK,1595.0,meters,OK,1633.0,meters,OK,1562.0,meters,OK
2025-01-26T20:10:41.240718,13.0,knots,OK,344.0,degrees,OK,21.3,knots,OK,16.3,°C,OK,15.6,°C,OK,1013.1,hPa,OK,5398.0,meters,OK,1481.0,feet,OK,0.3,mm/hr,OK,1893.0,meters,OK,1898.0,meters,OK,1860.0,meters,OK
2025-01-26T20:10:42.245561,14.1,knots,OK,276.0,degrees,OK,24.6,knots,OK,21.3,°C,OK,11.0,°C,OK,1014.7,hPa,OK,6309.0,meters,OK,2044.0,feet,OK,0.3,mm/hr,OK,1791.0,meters,OK,1625.0,meters,OK,1596.0,meters,OK
2025-01-26T20:10:43.250650,7.2,knots,OK,150.0,degrees,OK,19.2,knots,OK,17.6,°C,OK,13.1,°C,OK,1013.8,hPa,OK,5607.0,meters,OK,1529.0,feet,OK,0.5,mm/hr,OK,1760.0,meters,OK,1909.0,meters,OK,1729.0,meters,OK
2025-01-26T20:10:44.255388,9.0,knots,OK,257.0,degrees,OK,13.9,knots,OK,15.1,°C,OK,17.1,°C,OK,1013.4,hPa,OK,5540.0,meters,OK,2444.0,feet,OK,0.1,mm/hr,OK,1841.0,meters,OK,1734.0,meters,OK,1905.0,meters,OK
2025-01-26T20:10:45.260026,9.0,knots,OK,23.0,degrees,OK,19.8,knots,OK,17.4,°C,OK,15.6,°C,OK,1013.2,hPa,OK,6620.0,meters,OK,2102.0,feet,OK,0.1,mm/hr,OK,1944.0,meters,OK,1628.0,meters,OK,1953.0,meters,OK
2025-01-26T20:10:46.264462,5.9,knots,OK,214.0,degrees,OK,12.7,knots,OK,19.1,°C,OK,18.7,°C,OK,1015.0,hPa,OK,5077.0,meters,OK,1734.0,feet,OK,0.1,mm/hr,OK,1887.0,meters,OK,1794.0,meters,OK,1503.0,meters,OK
2025-01-26T20:10:47.267674,9.9,knots,OK,353.0,degrees,OK,16.2,knots,OK,19.0,°C,OK,18.2,°C,OK,1014.6,hPa,OK,6905.0,meters,OK,2749.0,feet,OK,0.2,mm/hr,OK,1913.0,meters,OK,1542.0,meters,OK,1999.0,meters,OK
2025-01-26T20:10:48.271684,7.4,knots,OK,71.0,degrees,OK,18.3,knots,OK,19.1,°C,OK,11.1,°C,OK,1013.4,hPa,OK,5964.0,meters,OK,1858.0,feet,OK,0.2,mm/hr,OK,1598.0,meters,OK,1564.0,meters,OK,1859.0,meters,OK
2025-01-26T20:10:49.276094,8.1,knots,OK,276.0,degrees,OK,15.6,knots,OK,22.1,°C,OK,17.3,°C,OK,1014.6,hPa,OK,6088.0,meters,OK,2035.0,feet,OK,0.2,mm/hr,OK,1655.0,meters,OK,1805.0,meters,OK,1958.0,meters,OK
2025-01-26T20:10:50.280266,13.4,knots,OK,56.0,degrees,OK,20.3,knots,OK,17.1,°C,OK,19.5,°C,OK,1013.6,hPa,OK,6393.0,meters,OK,2070.0,feet,OK,0.2,mm/hr,OK,1836.0,meters,OK,1640.0,meters,OK,1976.0,meters,OK
2025-01-26T20:10:51.284460,12.3,knots,OK,249.0,degrees,OK,21.8,knots,OK,15.3,°C,OK,13.8,°C,OK,1013.8,hPa,OK,5854.0,meters,OK,2008.0,feet,OK,0.1,mm/hr,OK,1781.0,meters,OK,1802.0,meters,OK,1715.0,meters,OK
2025-01-26T20:10:52.288056,14.5,knots,OK,83.0,degrees,OK,10.1,knots,OK,18.8,°C,OK,11.6,°C,OK,1014.8,hPa,OK,8057.0,meters,OK,1895.0,feet,OK,0.2,mm/hr,OK,1702.0,meters,OK,1728.0,meters,OK,1530.0,meters,OK
2025-01-26T20:10:53.291908,10.4,knots,OK,114.0,degrees,OK,14.9,knots,OK,21.9,°C,OK,19.3,°C,OK,1015.0,hPa,OK,6588.0,meters,OK,1908.0,feet,OK,0.0,mm/hr,OK,1632.0,meters,OK,1739.0,meters,OK,1821.0,meters,OK
2025-01-26T20:10:54.296368,9.5,knots,OK,243.0,degrees,OK,24.4,knots,OK,16.9,°C,OK,13.2,°C,OK,1013.4,hPa,OK,6352.0,meters,OK,2993.0,feet,OK,0.3,mm/hr,OK,1632.0,meters,OK,1677.0,meters,OK,1821.0,meters,OK
2025-01-26T20:10:55.301270,5.4,knots,OK,143.0,degrees,OK,22.5,knots,OK,17.5,°C,OK,10.7,°C,OK,1014.2,hPa,OK,7822.0,meters,OK,1782.0,feet,OK,0.2,mm/hr,OK,1649.0,meters,OK,1635.0,meters,OK,1962.0,meters,OK
2025-01-26T20:10:56.305936,5.7,knots,OK,123.0,degrees,OK,10.4,knots,OK,20.0,°C,OK,14.6,°C,OK,1014.7,hPa,OK,9591.0,meters,OK,1767.0,feet,OK,0.3,mm/hr,OK,1547.0,meters,OK,1549.0,meters,OK,1992.0,meters,OK
2025-01-26T20:10:57.310709,8.0,knots,OK,30.0,degrees,OK,17.5,knots,OK,17.4,°C,OK,14.4,°C,OK,1014.9,hPa,OK,8802.0,meters,OK,1407.0,feet,OK,0.3,mm/hr,OK,1632.0,meters,OK,1792.0,meters,OK,1877.0,meters,OK
2025-01-26T20:10:58.315710,9.8,knots,OK,16.0,degrees,OK,19.3,knots,OK,18.6,°C,OK,11.4,°C,OK,1014.3,hPa,OK,7785.0,meters,OK,2045.0,feet,OK,0.5,mm/hr,OK,1915.0,meters,OK,1985.0,meters,OK,1841.0,meters,OK
2025-01-26T20:10:59.319773,12.2,knots,OK,13.0,degrees,OK,17.9,knots,OK,18.9,°C,OK,16.9,°C,OK,1014.9,hPa,OK,9310.0,meters,OK,2131.0,feet,OK,0.4,mm/hr,OK,1705.0,meters,OK,1973.0,meters,OK,1846.0,meters,OK
2025-01-26T20:11:00.324728,10.4,knots,OK,289.0,degrees,OK,17.2,knots,OK,24.6,°C,OK,17.6,°C,OK,1014.5,hPa,OK,9290.0,meters,OK,2558.0,feet,OK,0.2,mm/hr,OK,1747.0,meters,OK,1759.0,meters,OK,1862.0,meters,OK
2025-01-26T20:11:01.329179,13.6,knots,OK,35.0,degrees,OK,22.6,knots,OK,15.7,°C,OK,18.2,°C,OK,1014.1,hPa,OK,7951.0,meters,OK,1993.0,feet,OK,0.2,mm/hr,OK,1970.0,meters,OK,1838.0,meters,OK,1571.0,meters,OK
2025-01-26T20:11:02.334388,9.6,knots,OK,3.0,degrees,OK,12.3,knots,OK,17.0,°C,OK,15.8,°C,OK,1013.0,hPa,OK,9369.0,meters,OK,1644.0,feet,OK,0.4,mm/hr,OK,1641.0,meters,OK,1743.0,meters,OK,1575.0,meters,OK
2025-01-26T20:11:03.339188,6.7,knots,OK,191.0,degrees,OK,11.4,knots,OK,21.0,°C,OK,10.7,°C,OK,1014.1,hPa,OK,9162.0,meters,OK,1573.0,feet,OK,0.5,mm/hr,OK,1918.0,meters,OK,1882.0,meters,OK,1581.0,meters,OK
2025-01-26T20:11:04.344643,5.9,knots,OK,313.0,degrees,OK,18.0,knots,OK,23.9,°C,OK,16.3,°C,OK,1013.0,hPa,OK,9945.0,meters,OK,1648.0,feet,OK,0.1,mm/hr,OK,1534.0,meters,OK,1711.0,meters,OK,1933.0,meters,OK
2025-01-26T20:11:05.348782,12.3,knots,OK,133.0,degrees,OK,16.2,knots,OK,23.3,°C,OK,19.3,°C,OK,1014.8,hPa,OK,8079.0,meters,OK,1285.0,feet,OK,0.3,mm/hr,OK,1809.0,meters,OK,1553.0,meters,OK,1671.0,meters,OK
2025-01-26T20:11:06.352956,13.5,knots,OK,264.0,degrees,OK,14.4,knots,OK,20.9,°C,OK,11.1,°C,OK,1014.0,hPa,OK,6366.0,meters,OK,2325.0,feet,OK,0.0,mm/hr,OK,1810.0,meters,OK,1577.0,meters,OK,1617.0,meters,OK
2025-01-26T20:11:07.358119,12.4,knots,OK,358.0,degrees,OK,24.7,knots,OK,23.6,°C,OK,10.5,°C,OK,1014.1,hPa,OK,6330.0,meters,OK,1254.0,feet,OK,0.4,mm/hr,OK,1754.0,meters,OK,1963.0,meters,OK,1520.0,meters,OK
2025-01-26T20:11:08.362622,10.9,knots,OK,157.0,degrees,OK,11.5,knots,OK,22.7,°C,OK,11.1,°C,OK,1014.6,hPa,OK,5917.0,meters,OK,2272.0,feet,OK,0.5,mm/hr,OK,1513.0,meters,OK,1533.0,meters,OK,1719.0,meters,OK
2025-01-26T20:11:09.367119,12.1,knots,OK,134.0,degrees,OK,13.8,knots,OK,22.9,°C,OK,11.7,°C,OK,1013.0,hPa,OK,8328.0,meters,OK,1141.0,feet,OK,0.4,mm/hr,OK,1787.0,meters,OK,1790.0,meters,OK,1639.0,meters,OK
2025-01-26T20:11:10.371926,8.2,knots,OK,64.0,degrees,OK,19.3,knots,OK,19.0,°C,OK,11.0,°C,OK,1014.1,hPa,OK,5591.0,meters,OK,2921.0,feet,OK,0.1,mm/hr,OK,1563.0,meters,OK,1717.0,meters,OK,1789.0,meters,OK
2025-01-26T20:11:11.376520,8.9,knots,OK,108.0,degrees,OK,23.1,knots,OK,20.2,°C,OK,10.8,°C,OK,1013.2,hPa,OK,6865.0,meters,OK,2968.0,feet,OK,0.1,mm/hr,OK,1609.0,meters,OK,1580.0,meters,OK,1957.0,meters,OK
2025-01-26T20:11:12.380878,14.0,knots,OK,304.0,degrees,OK,13.3,knots,OK,23.6,°C,OK,14.7,°C,OK,1014.5,hPa,OK,9129.0,meters,OK,1145.0,feet,OK,0.3,mm/hr,OK,1726.0,meters,OK,1951.0,meters,OK,1920.0,meters,OK
2025-01-26T20:11:13.385258,5.0,knots,OK,137.0,degrees,OK,13.7,knots,OK,17.2,°C,OK,11.8,°C,OK,1013.1,hPa,OK,9164.0,meters,OK,2419.0,feet,OK,0.5,mm/hr,OK,1548.0,meters,OK,1715.0,meters,OK,1591.0,meters,OK
2025-01-26T20:11:14.389782,9.1,knots,OK,260.0,degrees,OK,21.8,knots,OK,20.5,°C,OK,13.5,°C,OK,1014.7,hPa,OK,6449.0,meters,OK,1440.0,feet,OK,0.5,mm/hr,OK,1767.0,meters,OK,1923.0,meters,OK,1670.0,meters,OK
2025-01-26T20:11:15.394415,14.0,knots,OK,60.0,degrees,OK,25.0,knots,OK,17.1,°C,OK,10.3,°C,OK,1013.2,hPa,OK,9253.0,meters,OK,1584.0,feet,OK,0.5,mm/hr,OK,1785.0,meters,OK,1950.0,meters,OK,1594.0,meters,OK
2025-01-26T20:11:16.398425,13.1,knots,OK,281.0,degrees,OK,14.3,knots,OK,23.9,°C,OK,14.1,°C,OK,1014.2,hPa,OK,9517.0,meters,OK,1098.0,feet,OK,0.1,mm/hr,OK,1831.0,meters,OK,1723.0,meters,OK,1532.0,meters,OK
2025-01-26T20:11:17.402623,13.4,knots,OK,119.0,degrees,OK,13.5,knots,OK,15.4,°C,OK,12.2,°C,OK,1013.1,hPa,OK,8698.0,meters,OK,2670.0,feet,OK,0.4,mm/hr,OK,1597.0,meters,OK,1643.0,meters,OK,1687.0,meters,OK
2025-01-26T20:11:18.407450,5.4,knots,OK,124.0,degrees,OK,16.4,knots,OK,17.6,°C,OK,14.4,°C,OK,1014.8,hPa,OK,8563.0,meters,OK,1096.0,feet,OK,0.3,mm/hr,OK,1957.0,meters,OK,1597.0,meters,OK,1927.0,meters,OK
2025-01-26T20:11:19.412592,12.9,knots,OK,10.0,degrees,OK,17.8,knots,OK,18.1,°C,OK,10.7,°C,OK,1014.5,hPa,OK,5212.0,meters,OK,1280.0,feet,OK,0.0,mm/hr,OK,1805.0,meters,OK,1644.0,meters,OK,1744.0,meters,OK
2025-01-26T20:11:20.417563,14.0,knots,OK,152.0,degrees,OK,16.1,knots,OK,15.7,°C,OK,12.3,°C,OK,1015.0,hPa,OK,9199.0,meters,OK,1862.0,feet,OK,0.4,mm/hr,OK,1870.0,meters,OK,1682.0,meters,OK,1552.0,meters,OK
2025-01-26T20:11:21.421587,7.0,knots,OK,48.0,degrees,OK,22.1,knots,OK,19.8,°C,OK,17.6,°C,OK,1013.4,hPa,OK,6882.0,meters,OK,1970.0,feet,OK,0.5,mm/hr,OK,1602.0,meters,OK,1515.0,meters,OK,1731.0,meters,OK
2025-01-26T20:11:22.425651,6.7,knots,OK,124.0,degrees,OK,15.3,knots,OK,22.1,°C,OK,16.8,°C,OK,1014.8,hPa,OK,7274.0,meters,OK,1698.0,feet,OK,0.0,mm/hr,OK,1867.0,meters,OK,1644.0,meters,OK,1586.0,meters,OK
2025-01-26T20:11:23.429934,5.1,knots,OK,200.0,degrees,OK,11.7,knots,OK,21.5,°C,OK,12.6,°C,OK,1014.4,hPa,OK,5723.0,meters,OK,2264.0,feet,OK,0.4,mm/hr,OK,1754.0,meters,OK,1637.0,meters,OK,1822.0,meters,OK
2025-01-26T20:11:24.434245,9.0,knots,OK,223.0,degrees,OK,19.0,knots,OK,17.9,°C,OK,16.2,°C,OK,1014.2,hPa,OK,5453.0,meters,OK,2593.0,feet,OK,0.3,mm/hr,OK,1734.0,meters,OK,1921.0,meters,OK,1500.0,meters,OK
2025-01-26T20:11:25.439008,8.3,knots,OK,126.0,degrees,OK,14.7,knots,OK,21.5,°C,OK,19.0,°C,OK,1013.4,hPa,OK,9813.0,meters,OK,1230.0,feet,OK,0.2,mm/hr,OK,1998.0,meters,OK,1557.0,meters,OK,1768.0,meters,OK
2025-01-26T20:11:26.442638,6.0,knots,OK,321.0,degrees,OK,19.4,knots,OK,19.3,°C,OK,12.4,°C,OK,1014.0,hPa,OK,8232.0,meters,OK,2893.0,feet,OK,0.4,mm/hr,OK,1508.0,meters,OK,1694.0,meters,OK,1615.0,meters,OK
2025-01-26T20:11:27.446695,13.8,knots,OK,17.0,degrees,OK,17.8,knots,OK,20.5,°C,OK,17.0,°C,OK,1014.2,hPa,OK,6530.0,meters,OK,2716.0,feet,OK,0.2,mm/hr,OK,1562.0,meters,OK,1994.0,meters,OK,1691.0,meters,OK
2025-01-26T20:11:28.450933,12.6,knots,OK,4.0,degrees,OK,17.6,knots,OK,22.3,°C,OK,11.7,°C,OK,1014.9,hPa,OK,6931.0,meters,OK,2168.0,feet,OK,0.2,mm/hr,OK,1624.0,meters,OK,1735.0,meters,OK,1527.0,meters,OK
2025-01-26T20:11:29.455078,14.4,knots,OK,53.0,degrees,OK,20.7,knots,OK,23.5,°C,OK,13.0,°C,OK,1014.1,hPa,OK,8281.0,meters,OK,2533.0,feet,OK,0.5,mm/hr,OK,1996.0,meters,OK,1583.0,meters,OK,1874.0,meters,OK
2025-01-26T20:11:30.459418,9.1,knots,OK,84.0,degrees,OK,23.0,knots,OK,24.9,°C,OK,11.3,°C,OK,1014.2,hPa,OK,6825.0,meters,OK,2960.0,feet,OK,0.0,mm/hr,OK,1840.0,meters,OK,1861.0,meters,OK,1767.0,meters,OK
2025-01-26T20:11:31.463728,10.4,knots,OK,313.0,degrees,OK,24.9,knots,OK,15.5,°C,OK,11.7,°C,OK,1014.7,hPa,OK,8856.0,meters,OK,2570.0,feet,OK,0.2,mm/hr,OK,1765.0,meters,OK,1575.0,meters,OK,1566.0,meters,OK
2025-01-26T20:11:32.467844,14.4,knots,OK,191.0,degrees,OK,19.5,knots,OK,15.9,°C,OK,16.4,°C,OK,1013.9,hPa,OK,8468.0,meters,OK,1937.0,feet,OK,0.2,mm/hr,OK,1885.0,meters,OK,1993.0,meters,OK,1698.0,meters,OK
2025-01-26T20:11:33.471778,6.2,knots,OK,56.0,degrees,OK,18.0,knots,OK,19.0,°C,OK,15.5,°C,OK,1013.6,hPa,OK,8244.0,meters,OK,2920.0,feet,OK,0.1,mm/hr,OK,1806.0,meters,OK,1602.0,meters,OK,1657.0,meters,OK
2025-01-26T20:11:34.476061,13.1,knots,OK,79.0,degrees,OK,16.9,knots,OK,20.8,°C,OK,15.5,°C,OK,1013.4,hPa,OK,7488.0,meters,OK,1036.0,feet,OK,0.4,mm/hr,OK,1516.0,meters,OK,1755.0,meters,OK,1923.0,meters,OK
2025-01-26T20:11:35.480506,11.3,knots,OK,172.0,degrees,OK,15.3,knots,OK,16.6,°C,OK,17.4,°C,OK,1014.0,hPa,OK,6408.0,meters,OK,2471.0,feet,OK,0.5,mm/hr,OK,1721.0,meters,OK,1773.0,meters,OK,1807.0,meters,OK
2025-01-26T20:11:36.484004,12.0,knots,OK,341.0,degrees,OK,15.5,knots,OK,22.3,°C,OK,13.8,°C,OK,1014.3,hPa,OK,7433.0,meters,OK,2501.0,feet,OK,0.3,mm/hr,OK,1903.0,meters,OK,1783.0,meters,OK,1790.0,meters,OK
2025-01-26T20:11:37.487400,6.9,knots,OK,43.0,degrees,OK,23.5,knots,OK,23.0,°C,OK,14.0,°C,OK,1014.8,hPa,OK,5151.0,meters,OK,1612.0,feet,OK,0.4,mm/hr,OK,1985.0,meters,OK,1576.0,meters,OK,1512.0,meters,OK
2025-01-26T20:11:38.491657,11.2,knots,OK,277.0,degrees,OK,16.8,knots,OK,18.9,°C,OK,17.3,°C,OK,1014.9,hPa,OK,7274.0,meters,OK,1182.0,feet,OK,0.0,mm/hr,OK,1968.0,meters,OK,1544.0,meters,OK,1931.0,meters,OK
2025-01-26T20:11:39.495524,12.3,knots,OK,215.0,degrees,OK,16.3,knots,OK,18.4,°C,OK,17.6,°C,OK,1013.5,hPa,OK,7865.0,meters,OK,2970.0,feet,OK,0.4,mm/hr,OK,1706.0,meters,OK,1680.0,meters,OK,1924.0,meters,OK
2025-01-26T20:11:40.498981,10.0,knots,OK,60.0,degrees,OK,21.2,knots,OK,19.8,°C,OK,14.3,°C,OK,1014.4,hPa,OK,5510.0,meters,OK,1449.0,feet,OK,0.4,mm/hr,OK,1764.0,meters,OK,1767.0,meters,OK,1698.0,meters,OK
2025-01-26T20:11:41.503737,8.7,knots,OK,59.0,degrees,OK,13.1,knots,OK,21.2,°C,OK,17.6,°C,OK,1013.0,hPa,OK,9945.0,meters,OK,2335.0,feet,OK,0.1,mm/hr,OK,1556.0,meters,OK,1659.0,meters,OK,1956.0,meters,OK
2025-01-26T20:11:42.507862,12.6,knots,OK,342.0,degrees,OK,21.4,knots,OK,21.1,°C,OK,19.8,°C,OK,1014.1,hPa,OK,5053.0,meters,OK,2657.0,feet,OK,0.2,mm/hr,OK,1718.0,meters,OK,1876.0,meters,OK,1662.0,meters,OK
2025-01-26T20:11:43.511736,12.8,knots,OK,35.0,degrees,OK,15.8,knots,OK,17.4,°C,OK,11.6,°C,OK,1015.0,hPa,OK,6282.0,meters,OK,2359.0,feet,OK,0.0,mm/hr,OK,1681.0,meters,OK,1618.0,meters,OK,1591.0,meters,OK
2025-01-26T20:11:44.515133,7.7,knots,OK,254.0,degrees,OK,18.8,knots,OK,21.8,°C,OK,10.8,°C,OK,1014.6,hPa,OK,5320.0,meters,OK,1489.0,feet,OK,0.2,mm/hr,OK,1921.0,meters,OK,1543.0,meters,OK,1891.0,meters,OK
2025-01-26T20:11:45.520485,10.2,knots,OK,350.0,degrees,OK,23.3,knots,OK,16.2,°C,OK,11.7,°C,OK,1013.9,hPa,OK,8397.0,meters,OK,2553.0,feet,OK,0.2,mm/hr,OK,1625.0,meters,OK,1986.0,meters,OK,1696.0,meters,OK
2025-01-26T20:11:46.525623,8.9,knots,OK,177.0,degrees,OK,15.7,knots,OK,23.9,°C,OK,14.3,°C,OK,1013.1,hPa,OK,9368.0,meters,OK,1929.0,feet,OK,0.3,mm/hr,OK,1751.0,meters,OK,1740.0,meters,OK,1848.0,meters,OK
2025-01-26T20:11:47.529491,14.7,knots,OK,259.0,degrees,OK,21.7,knots,OK,16.9,°C,OK,13.1,°C,OK,1013.3,hPa,OK,7436.0,meters,OK,2090.0,feet,OK,0.3,mm/hr,OK,1847.0,meters,OK,1845.0,meters,OK,1937.0,meters,OK
2025-01-26T20:11:48.534373,11.7,knots,OK,138.0,degrees,OK,12.0,knots,OK,17.2,°C,OK,14.9,°C,OK,1013.4,hPa,OK,8853.0,meters,OK,1112.0,feet,OK,0.3,mm/hr,OK,1685.0,meters,OK,1879.0,meters,OK,1576.0,meters,OK
2025-01-26T20:11:49.539043,7.4,knots,OK,165.0,degrees,OK,23.4,knots,OK,24.7,°C,OK,18.0,°C,OK,1014.0,hPa,OK,5961.0,meters,OK,1101.0,feet,OK,0.1,mm/hr,OK,1596.0,meters,OK,1542.0,meters,OK,1550.0,meters,OK
2025-01-26T20:11:50.543256,11.3,knots,OK,88.0,degrees,OK,14.3,knots,OK,19.8,°C,OK,17.6,°C,OK,1013.0,hPa,OK,6814.0,meters,OK,1390.0,feet,OK,0.4,mm/hr,OK,1708.0,meters,OK,1764.0,meters,OK,1899.0,meters,OK
2025-01-26T20:11:51.548399,13.5,knots,OK,290.0,degrees,OK,10.8,knots,OK,23.1,°C,OK,11.9,°C,OK,1014.6,hPa,OK,9703.0,meters,OK,2848.0,feet,OK,0.3,mm/hr,OK,1944.0,meters,OK,1742.0,meters,OK,1897.0,meters,OK
2025-01-26T20:11:52.553070,11.4,knots,OK,63.0,degrees,OK,14.2,knots,OK,19.4,°C,OK,13.6,°C,OK,1014.9,hPa,OK,5864.0,meters,OK,1690.0,feet,OK,0.2,mm/hr,OK,1697.0,meters,OK,1577.0,meters,OK,1556.0,meters,OK
2025-01-26T20:11:53.558154,13.4,knots,OK,143.0,degrees,OK,23.2,knots,OK,24.4,°C,OK,12.1,°C,OK,1014.0,hPa,OK,8927.0,meters,OK,1377.0,feet,OK,0.1,mm/hr,OK,1874.0,meters,OK,1881.0,meters,OK,1780.0,meters,OK
2025-01-26T20:11:54.562827,6.0,knots,OK,289.0,degrees,OK,14.5,knots,OK,22.1,°C,OK,11.0,°C,OK,1014.1,hPa,OK,5746.0,meters,OK,1172.0,feet,OK,0.1,mm/hr,OK,1575.0,meters,OK,1744.0,meters,OK,1698.0,meters,OK
2025-01-26T20:11:55.566796,11.7,knots,OK,192.0,degrees,OK,18.1,knots,OK,15.5,°C,OK,11.9,°C,OK,1014.4,hPa,OK,6639.0,meters,OK,2229.0,feet,OK,0.3,mm/hr,OK,1829.0,meters,OK,1624.0,meters,OK,1987.0,meters,OK
2025-01-26T20:11:56.571128,7.2,knots,OK,27.0,degrees,OK,23.4,knots,OK,21.3,°C,OK,13.7,°C,OK,1013.4,hPa,OK,6385.0,meters,OK,2868.0,feet,OK,0.0,mm/hr,OK,1999.0,meters,OK,1965.0,meters,OK,1796.0,meters,OK
2025-01-26T20:11:57.575551,6.2,knots,OK,325.0,degrees,OK,19.0,knots,OK,23.3,°C,OK,10.1,°C,OK,1014.4,hPa,OK,7672.0,meters,OK,2705.0,feet,OK,0.4,mm/hr,OK,1531.0,meters,OK,1952.0,meters,OK,1625.0,meters,OK
2025-01-26T20:11:58.579399,8.7,knots,OK,343.0,degrees,OK,15.3,knots,OK,24.7,°C,OK,19.0,°C,OK,1014.2,hPa,OK,7512.0,meters,OK,2225.0,feet,OK,0.1,mm/hr,OK,1541.0,meters,OK,1698.0,meters,OK,1685.0,meters,OK
2025-01-26T20:11:59.583763,15.0,knots,OK,242.0,degrees,OK,11.3,knots,OK,22.6,°C,OK,12.5,°C,OK,1014.4,hPa,OK,5608.0,meters,OK,1098.0,feet,OK,0.2,mm/hr,OK,1886.0,meters,OK,1736.0,meters,OK,1827.0,meters,OK
2025-01-26T20:12:00.588193,9.3,knots,OK,126.0,degrees,OK,12.1,knots,OK,18.8,°C,OK,15.0,°C,OK,1013.1,hPa,OK,9433.0,meters,OK,2341.0,feet,OK,0.3,mm/hr,OK,1782.0,meters,OK,1822.0,meters,OK,1758.0,meters,OK
2025-01-26T20:12:01.592210,5.0,knots,OK,350.0,degrees,OK,14.8,knots,OK,17.4,°C,OK,14.5,°C,OK,1013.2,hPa,OK,8243.0,meters,OK,2260.0,feet,OK,0.5,mm/hr,OK,1878.0,meters,OK,1819.0,meters,OK,1810.0,meters,OK
2025-01-26T20:12:02.596154,11.5,knots,OK,245.0,degrees,OK,22.3,knots,OK,17.0,°C,OK,17.5,°C,OK,1014.5,hPa,OK,9223.0,meters,OK,2376.0,feet,OK,0.4,mm/hr,OK,1615.0,meters,OK,1766.0,meters,OK,1800.0,meters,OK
2025-01-26T20:12:03.600557,11.1,knots,OK,221.0,degrees,OK,16.0,knots,OK,21.4,°C,OK,11.8,°C,OK,1013.6,hPa,OK,5607.0,meters,OK,2735.0,feet,OK,0.1,mm/hr,OK,1834.0,meters,OK,1631.0,meters,OK,1919.0,meters,OK
2025-01-26T20:12:04.605260,12.8,knots,OK,0.0,degrees,OK,24.6,knots,OK,19.4,°C,OK,17.6,°C,OK,1014.6,hPa,OK,6889.0,meters,OK,2917.0,feet,OK,0.2,mm/hr,OK,1964.0,meters,OK,1582.0,meters,OK,1650.0,meters,OK
2025-01-26T20:12:05.610324,13.6,knots,OK,173.0,degrees,OK,20.3,knots,OK,17.2,°C,OK,15.4,°C,OK,1014.7,hPa,OK,6962.0,meters,OK,2039.0,feet,OK,0.5,mm/hr,OK,1551.0,meters,OK,1857.0,meters,OK,1852.0,meters,OK
2025-01-26T20:12:06.614976,12.5,knots,OK,10.0,degrees,OK,22.8,knots,OK,22.7,°C,OK,15.1,°C,OK,1013.7,hPa,OK,5540.0,meters,OK,2512.0,feet,OK,0.3,mm/hr,OK,1923.0,meters,OK,1534.0,meters,OK,1643.0,meters,OK
2025-01-26T20:12:07.619948,5.4,knots,OK,263.0,degrees,OK,16.4,knots,OK,24.4,°C,OK,13.0,°C,OK,1014.0,hPa,OK,7541.0,meters,OK,2007.0,feet,OK,0.2,mm/hr,OK,1551.0,meters,OK,1638.0,meters,OK,1920.0,meters,OK
2025-01-26T20:12:08.624268,11.0,knots,OK,79.0,degrees,OK,10.2,knots,OK,16.9,°C,OK,17.6,°C,OK,1014.8,hPa,OK,6921.0,meters,OK,1768.0,feet,OK,0.5,mm/hr,OK,1593.0,meters,OK,1558.0,meters,OK,1637.0,meters,OK
2025-01-26T20:12:09.628569,5.4,knots,OK,238.0,degrees,OK,15.0,knots,OK,20.2,°C,OK,11.1,°C,OK,1015.0,hPa,OK,9839.0,meters,OK,1040.0,feet,OK,0.0,mm/hr,OK,1586.0,meters,OK,1810.0,meters,OK,1625.0,meters,OK
2025-01-26T20:12:10.633032,11.1,knots,OK,187.0,degrees,OK,17.2,knots,OK,19.1,°C,OK,14.4,°C,OK,1013.5,hPa,OK,8304.0,meters,OK,1969.0,feet,OK,0.0,mm/hr,OK,1862.0,meters,OK,1537.0,meters,OK,1722.0,meters,OK
2025-01-26T20:12:11.638034,10.7,knots,OK,45.0,degrees,OK,12.6,knots,OK,15.0,°C,OK,15.1,°C,OK,1013.8,hPa,OK,7196.0,meters,OK,1722.0,feet,OK,0.4,mm/hr,OK,1516.0,meters,OK,1851.0,meters,OK,1570.0,meters,OK
2025-01-26T20:12:12.643144,14.8,knots,OK,276.0,degrees,OK,23.9,knots,OK,23.1,°C,OK,19.6,°C,OK,1013.5,hPa,OK,8755.0,meters,OK,2285.0,feet,OK,0.3,mm/hr,OK,1951.0,meters,OK,1617.0,meters,OK,1968.0,meters,OK
2025-01-26T20:12:13.647269,6.9,knots,OK,248.0,degrees,OK,23.1,knots,OK,19.2,°C,OK,18.7,°C,OK,1013.9,hPa,OK,8265.0,meters,OK,1440.0,feet,OK,0.3,mm/hr,OK,1838.0,meters,OK,1511.0,meters,OK,1915.0,meters,OK
2025-01-26T20:12:14.652034,13.5,knots,OK,79.0,degrees,OK,15.5,knots,OK,19.3,°C,OK,20.0,°C,OK,1014.3,hPa,OK,7579.0,meters,OK,1893.0,feet,OK,0.0,mm/hr,OK,1544.0,meters,OK,1892.0,meters,OK,1675.0,meters,OK
2025-01-26T20:12:15.656842,13.1,knots,OK,61.0,degrees,OK,17.6,knots,OK,17.6,°C,OK,11.9,°C,OK,1013.2,hPa,OK,6208.0,meters,OK,1242.0,feet,OK,0.2,mm/hr,OK,1809.0,meters,OK,1974.0,meters,OK,1620.0,meters,OK
2025-01-26T20:12:16.661383,11.1,knots,OK,52.0,degrees,OK,20.6,knots,OK,20.2,°C,OK,15.9,°C,OK,1014.2,hPa,OK,8552.0,meters,OK,1499.0,feet,OK,0.5,mm/hr,OK,1664.0,meters,OK,1576.0,meters,OK,1927.0,meters,OK
2025-01-26T20:12:17.665988,6.4,knots,OK,114.0,degrees,OK,23.5,knots,OK,18.8,°C,OK,15.6,°C,OK,1013.0,hPa,OK,7034.0,meters,OK,1369.0,feet,OK,0.1,mm/hr,OK,1806.0,meters,OK,1792.0,meters,OK,1795.0,meters,OK
2025-01-26T20:12:18.671112,6.7,knots,OK,202.0,degrees,OK,16.8,knots,OK,17.3,°C,OK,11.7,°C,OK,1013.8,hPa,OK,7914.0,meters,OK,1435.0,feet,OK,0.4,mm/hr,OK,1679.0,meters,OK,1507.0,meters,OK,1956.0,meters,OK
2025-01-26T20:12:19.675243,13.6,knots,OK,245.0,degrees,OK,13.4,knots,OK,17.1,°C,OK,13.1,°C,OK,1013.1,hPa,OK,6783.0,meters,OK,1130.0,feet,OK,0.3,mm/hr,OK,1758.0,meters,OK,1742.0,meters,OK,1614.0,meters,OK
2025-01-26T20:12:20.678982,7.6,knots,OK,263.0,degrees,OK,11.8,knots,OK,18.3,°C,OK,19.1,°C,OK,1014.5,hPa,OK,8331.0,meters,OK,2054.0,feet,OK,0.4,mm/hr,OK,1643.0,meters,OK,1702.0,meters,OK,1594.0,meters,OK
2025-01-26T20:12:21.682226,13.4,knots,OK,78.0,degrees,OK,17.7,knots,OK,16.2,°C,OK,10.6,°C,OK,1013.9,hPa,OK,6869.0,meters,OK,2656.0,feet,OK,0.4,mm/hr,OK,1599.0,meters,OK,1928.0,meters,OK,1502.0,meters,OK
2025-01-26T20:12:22.686961,10.9,knots,OK,248.0,degrees,OK,15.9,knots,OK,21.0,°C,OK,15.2,°C,OK,1013.5,hPa,OK,6346.0,meters,OK,1636.0,feet,OK,0.3,mm/hr,OK,1969.0,meters,OK,1710.0,meters,OK,1520.0,meters,OK
2025-01-26T20:12:23.690630,9.7,knots,OK,141.0,degrees,OK,24.0,knots,OK,17.7,°C,OK,19.9,°C,OK,1013.1,hPa,OK,8468.0,meters,OK,2168.0,feet,OK,0.4,mm/hr,OK,1929.0,meters,OK,1693.0,meters,OK,1585.0,meters,OK
2025-01-26T20:12:24.695892,6.2,knots,OK,6.0,degrees,OK,23.6,knots,OK,20.3,°C,OK,18.6,°C,OK,1014.4,hPa,OK,5161.0,meters,OK,1770.0,feet,OK,0.3,mm/hr,OK,1660.0,meters,OK,1761.0,meters,OK,1694.0,meters,OK
2025-01-26T20:12:25.700401,9.6,knots,OK,295.0,degrees,OK,11.3,knots,OK,22.4,°C,OK,16.0,°C,OK,1013.7,hPa,OK,6242.0,meters,OK,1626.0,feet,OK,0.5,mm/hr,OK,1878.0,meters,OK,1550.0,meters,OK,1773.0,meters,OK
2025-01-26T20:12:26.704090,5.4,knots,OK,341.0,degrees,OK,13.3,knots,OK,18.4,°C,OK,12.4,°C,OK,1013.4,hPa,OK,9615.0,meters,OK,2035.0,feet,OK,0.1,mm/hr,OK,1990.0,meters,OK,1735.0,meters,OK,1619.0,meters,OK
2025-01-26T20:12:27.707671,12.0,knots,OK,296.0,degrees,OK,11.5,knots,OK,21.2,°C,OK,15.1,°C,OK,1013.2,hPa,OK,7888.0,meters,OK,1794.0,feet,OK,0.1,mm/hr,OK,1725.0,meters,OK,1762.0,meters,OK,1802.0,meters,OK
2025-01-26T20:12:28.711599,5.2,knots,OK,171.0,degrees,OK,14.1,knots,OK,19.9,°C,OK,14.6,°C,OK,1013.5,hPa,OK,5235.0,meters,OK,2748.0,feet,OK,0.5,mm/hr,OK,1708.0,meters,OK,1605.0,meters,OK,1558.0,meters,OK
2025-01-26T20:12:29.715901,10.2,knots,OK,51.0,degrees,OK,20.5,knots,OK,16.1,°C,OK,12.1,°C,OK,1014.7,hPa,OK,7780.0,meters,OK,1026.0,feet,OK,0.3,mm/hr,OK,1924.0,meters,OK,1828.0,meters,OK,1767.0,meters,OK
2025-01-26T20:12:30.719959,12.7,knots,OK,130.0,degrees,OK,11.5,knots,OK,17.4,°C,OK,11.6,°C,OK,1013.4,hPa,OK,9210.0,meters,OK,1405.0,feet,OK,0.4,mm/hr,OK,1833.0,meters,OK,1651.0,meters,OK,1794.0,meters,OK
2025-01-26T20:12:31.723807,6.3,knots,OK,332.0,degrees,OK,21.3,knots,OK,24.6,°C,OK,14.6,°C,OK,1014.3,hPa,OK,7858.0,meters,OK,2378.0,feet,OK,0.0,mm/hr,OK,1531.0,meters,OK,1748.0,meters,OK,1683.0,meters,OK
2025-01-26T20:12:32.727798,12.9,knots,OK,26.0,degrees,OK,16.2,knots,OK,15.2,°C,OK,10.1,°C,OK,1014.0,hPa,OK,7857.0,meters,OK,1511.0,feet,OK,0.3,mm/hr,OK,1680.0,meters,OK,1660.0,meters,OK,1915.0,meters,OK
2025-01-26T20:12:33.730913,11.1,knots,OK,88.0,degrees,OK,19.3,knots,OK,16.3,°C,OK,19.3,°C,OK,1014.2,hPa,OK,9778.0,meters,OK,2851.0,feet,OK,0.0,mm/hr,OK,1896.0,meters,OK,1760.0,meters,OK,1801.0,meters,OK
2025-01-26T20:12:34.733975,14.0,knots,OK,280.0,degrees,OK,12.1,knots,OK,16.3,°C,OK,16.3,°C,OK,1014.4,hPa,OK,9401.0,meters,OK,1668.0,feet,OK,0.2,mm/hr,OK,1916.0,meters,OK,1998.0,meters,OK,1756.0,meters,OK
2025-01-26T20:12:35.737625,10.9,knots,OK,78.0,degrees,OK,24.0,knots,OK,23.6,°C,OK,14.4,°C,OK,1013.2,hPa,OK,6396.0,meters,OK,1769.0,feet,OK,0.1,mm/hr,OK,1659.0,meters,OK,1668.0,meters,OK,1667.0,meters,OK
2025-01-26T20:12:36.741554,6.3,knots,OK,359.0,degrees,OK,19.1,knots,OK,18.6,°C,OK,15.9,°C,OK,1014.5,hPa,OK,6454.0,meters,OK,2568.0,feet,OK,0.2,mm/hr,OK,1733.0,meters,OK,1536.0,meters,OK,1857.0,meters,OK
2025-01-26T20:12:37.744710,9.3,knots,OK,76.0,degrees,OK,16.6,knots,OK,15.9,°C,OK,18.8,°C,OK,1014.4,hPa,OK,9489.0,meters,OK,1274.0,feet,OK,0.3,mm/hr,OK,1670.0,meters,OK,1898.0,meters,OK,1815.0,meters,OK
2025-01-26T20:12:38.749456,5.3,knots,OK,123.0,degrees,OK,20.6,knots,OK,17.8,°C,OK,16.9,°C,OK,1014.0,hPa,OK,9700.0,meters,OK,2091.0,feet,OK,0.0,mm/hr,OK,1867.0,meters,OK,1851.0,meters,OK,1669.0,meters,OK
2025-01-26T20:12:39.753459,9.0,knots,OK,276.0,degrees,OK,10.1,knots,OK,24.0,°C,OK,13.1,°C,OK,1014.8,hPa,OK,7207.0,meters,OK,1106.0,feet,OK,0.3,mm/hr,OK,1565.0,meters,OK,1989.0,meters,OK,1990.0,meters,OK
2025-01-26T20:12:40.758011,12.4,knots,OK,38.0,degrees,OK,22.4,knots,OK,17.6,°C,OK,10.2,°C,OK,1014.9,hPa,OK,9552.0,meters,OK,2885.0,feet,OK,0.2,mm/hr,OK,1766.0,meters,OK,1662.0,meters,OK,1933.0,meters,OK
2025-01-26T20:12:41.761778,11.7,knots,OK,54.0,degrees,OK,13.0,knots,OK,24.6,°C,OK,16.0,°C,OK,1013.0,hPa,OK,8795.0,meters,OK,1600.0,feet,OK,0.2,mm/hr,OK,1899.0,meters,OK,1578.0,meters,OK,1936.0,meters,OK
2025-01-26T20:12:42.765663,8.7,knots,OK,225.0,degrees,OK,24.6,knots,OK,20.9,°C,OK,12.5,°C,OK,1014.6,hPa,OK,8863.0,meters,OK,1742.0,feet,OK,0.4,mm/hr,OK,1551.0,meters,OK,1979.0,meters,OK,1887.0,meters,OK
2025-01-26T20:12:43.769443,7.8,knots,OK,339.0,degrees,OK,15.8,knots,OK,23.4,°C,OK,20.0,°C,OK,1014.7,hPa,OK,9556.0,meters,OK,2853.0,feet,OK,0.4,mm/hr,OK,1702.0,meters,OK,1728.0,meters,OK,1701.0,meters,OK
2025-01-26T20:12:44.773599,12.7,knots,OK,89.0,degrees,OK,22.3,knots,OK,19.0,°C,OK,15.9,°C,OK,1014.2,hPa,OK,7339.0,meters,OK,2919.0,feet,OK,0.5,mm/hr,OK,1854.0,meters,OK,1807.0,meters,OK,1810.0,meters,OK
2025-01-26T20:12:45.778143,9.0,knots,OK,311.0,degrees,OK,23.0,knots,OK,21.0,°C,OK,14.7,°C,OK,1013.9,hPa,OK,7439.0,meters,OK,2018.0,feet,OK,0.2,mm/hr,OK,1636.0,meters,OK,1659.0,meters,OK,1512.0,meters,OK
2025-01-26T20:12:46.782342,9.6,knots,OK,120.0,degrees,OK,13.7,knots,OK,21.6,°C,OK,11.5,°C,OK,1013.7,hPa,OK,5523.0,meters,OK,2428.0,feet,OK,0.3,mm/hr,OK,1968.0,meters,OK,1809.0,meters,OK,1601.0,meters,OK
2025-01-26T20:12:47.787323,10.6,knots,OK,232.0,degrees,OK,13.4,knots,OK,18.1,°C,OK,17.2,°C,OK,1013.7,hPa,OK,7071.0,meters,OK,1477.0,feet,OK,0.1,mm/hr,OK,1860.0,meters,OK,1997.0,meters,OK,1907.0,meters,OK
2025-01-26T20:12:48.790975,13.1,knots,OK,176.0,degrees,OK,13.1,knots,OK,17.7,°C,OK,19.8,°C,OK,1014.7,hPa,OK,5304.0,meters,OK,1057.0,feet,OK,0.4,mm/hr,OK,1602.0,meters,OK,1500.0,meters,OK,1739.0,meters,OK
2025-01-26T20:12:49.794728,9.3,knots,OK,235.0,degrees,OK,15.9,knots,OK,23.2,°C,OK,15.0,°C,OK,1014.5,hPa,OK,6832.0,meters,OK,1733.0,feet,OK,0.4,mm/hr,OK,1870.0,meters,OK,1528.0,meters,OK,1614.0,meters,OK
2025-01-26T20:12:50.799524,6.1,knots,OK,126.0,degrees,OK,15.1,knots,OK,19.3,°C,OK,11.6,°C,OK,1014.0,hPa,OK,5425.0,meters,OK,1345.0,feet,OK,0.0,mm/hr,OK,1526.0,meters,OK,1602.0,meters,OK,1743.0,meters,OK
2025-01-26T20:12:51.806701,13.9,knots,OK,316.0,degrees,OK,21.3,knots,OK,24.6,°C,OK,19.9,°C,OK,1014.2,hPa,OK,9955.0,meters,OK,2728.0,feet,OK,0.5,mm/hr,OK,1957.0,meters,OK,1976.0,meters,OK,1892.0,meters,OK
2025-01-26T20:12:52.810445,8.8,knots,OK,47.0,degrees,OK,10.1,knots,OK,15.3,°C,OK,11.7,°C,OK,1014.8,hPa,OK,5149.0,meters,OK,2432.0,feet,OK,0.4,mm/hr,OK,1604.0,meters,OK,1663.0,meters,OK,1684.0,meters,OK
2025-01-26T20:12:53.814354,7.3,knots,OK,135.0,degrees,OK,12.6,knots,OK,23.4,°C,OK,11.9,°C,OK,1014.8,hPa,OK,5625.0,meters,OK,1513.0,feet,OK,0.4,mm/hr,OK,1820.0,meters,OK,1808.0,meters,OK,1637.0,meters,OK
2025-01-26T20:12:54.819484,13.7,knots,OK,35.0,degrees,OK,13.2,knots,OK,24.5,°C,OK,13.7,°C,OK,1014.5,hPa,OK,5760.0,meters,OK,1033.0,feet,OK,0.2,mm/hr,OK,1627.0,meters,OK,1707.0,meters,OK,1517.0,meters,OK
2025-01-26T20:12:55.824188,14.5,knots,OK,164.0,degrees,OK,10.9,knots,OK,21.3,°C,OK,18.7,°C,OK,1013.3,hPa,OK,9794.0,meters,OK,2212.0,feet,OK,0.3,mm/hr,OK,1773.0,meters,OK,1734.0,meters,OK,1635.0,meters,OK
2025-01-26T20:12:56.829086,12.8,knots,OK,245.0,degrees,OK,23.1,knots,OK,19.5,°C,OK,16.4,°C,OK,1014.1,hPa,OK,8492.0,meters,OK,2292.0,feet,OK,0.4,mm/hr,OK,1995.0,meters,OK,1567.0,meters,OK,1816.0,meters,OK
2025-01-26T20:12:57.833645,12.7,knots,OK,105.0,degrees,OK,16.6,knots,OK,17.2,°C,OK,18.7,°C,OK,1014.4,hPa,OK,9118.0,meters,OK,1510.0,feet,OK,0.0,mm/hr,OK,1518.0,meters,OK,1771.0,meters,OK,1826.0,meters,OK
2025-01-26T20:12:58.838461,9.5,knots,OK,112.0,degrees,OK,18.2,knots,OK,23.9,°C,OK,16.1,°C,OK,1014.1,hPa,OK,8779.0,meters,OK,2768.0,feet,OK,0.2,mm/hr,OK,1910.0,meters,OK,1617.0,meters,OK,1835.0,meters,OK
2025-01-26T20:12:59.842905,5.0,knots,OK,88.0,degrees,OK,10.8,knots,OK,19.5,°C,OK,15.1,°C,OK,1014.2,hPa,OK,5469.0,meters,OK,1306.0,feet,OK,0.5,mm/hr,OK,1650.0,meters,OK,1645.0,meters,OK,1653.0,meters,OK
2025-01-26T20:13:00.847120,14.6,knots,OK,221.0,degrees,OK,22.1,knots,OK,15.8,°C,OK,15.7,°C,OK,1014.2,hPa,OK,9863.0,meters,OK,1479.0,feet,OK,0.1,mm/hr,OK,1665.0,meters,OK,1588.0,meters,OK,1653.0,meters,OK
2025-01-26T20:13:01.851587,9.3,knots,OK,336.0,degrees,OK,10.9,knots,OK,17.9,°C,OK,12.4,°C,OK,1013.2,hPa,OK,7464.0,meters,OK,2548.0,feet,OK,0.4,mm/hr,OK,1735.0,meters,OK,1680.0,meters,OK,1556.0,meters,OK
2025-01-26T20:13:02.855689,9.8,knots,OK,258.0,degrees,OK,11.0,knots,OK,19.7,°C,OK,10.5,°C,OK,1014.9,hPa,OK,7460.0,meters,OK,1481.0,feet,OK,0.1,mm/hr,OK,1960.0,meters,OK,1934.0,meters,OK,1707.0,meters,OK
2025-01-26T20:13:03.860851,9.4,knots,OK,264.0,degrees,OK,17.0,knots,OK,23.0,°C,OK,10.7,°C,OK,1013.6,hPa,OK,7040.0,meters,OK,1121.0,feet,OK,0.2,mm/hr,OK,1552.0,meters,OK,1813.0,meters,OK,1835.0,meters,OK
2025-01-26T20:13:04.865043,6.5,knots,OK,246.0,degrees,OK,11.4,knots,OK,17.1,°C,OK,14.3,°C,OK,1014.9,hPa,OK,9393.0,meters,OK,2475.0,feet,OK,0.3,mm/hr,OK,1676.0,meters,OK,1733.0,meters,OK,1618.0,meters,OK
2025-01-26T20:13:05.870160,11.2,knots,OK,129.0,degrees,OK,24.5,knots,OK,20.9,°C,OK,13.6,°C,OK,1014.8,hPa,OK,6232.0,meters,OK,1315.0,feet,OK,0.5,mm/hr,OK,1898.0,meters,OK,1508.0,meters,OK,1674.0,meters,OK
2025-01-26T20:13:06.874545,7.2,knots,OK,179.0,degrees,OK,16.8,knots,OK,16.4,°C,OK,14.6,°C,OK,1014.5,hPa,OK,8032.0,meters,OK,2680.0,feet,OK,0.1,mm/hr,OK,1903.0,meters,OK,1869.0,meters,OK,1674.0,meters,OK
2025-01-26T20:13:07.878706,14.1,knots,OK,298.0,degrees,OK,13.8,knots,OK,21.7,°C,OK,14.8,°C,OK,1013.9,hPa,OK,8264.0,meters,OK,1216.0,feet,OK,0.4,mm/hr,OK,1610.0,meters,OK,1921.0,meters,OK,1970.0,meters,OK
2025-01-26T20:13:08.883691,10.0,knots,OK,299.0,degrees,OK,22.8,knots,OK,24.5,°C,OK,10.9,°C,OK,1014.9,hPa,OK,7772.0,meters,OK,2115.0,feet,OK,0.1,mm/hr,OK,1942.0,meters,OK,1758.0,meters,OK,1574.0,meters,OK
2025-01-26T20:13:09.887895,13.4,knots,OK,76.0,degrees,OK,13.0,knots,OK,18.3,°C,OK,10.9,°C,OK,1013.8,hPa,OK,5014.0,meters,OK,2243.0,feet,OK,0.3,mm/hr,OK,1547.0,meters,OK,1798.0,meters,OK,1770.0,meters,OK
2025-01-26T20:13:10.891934,7.4,knots,OK,354.0,degrees,OK,13.0,knots,OK,17.0,°C,OK,17.6,°C,OK,1013.7,hPa,OK,7691.0,meters,OK,1123.0,feet,OK,0.1,mm/hr,OK,1551.0,meters,OK,1953.0,meters,OK,1653.0,meters,OK
2025-01-26T20:13:11.895833,6.7,knots,OK,65.0,degrees,OK,17.3,knots,OK,15.6,°C,OK,11.9,°C,OK,1014.1,hPa,OK,9969.0,meters,OK,2059.0,feet,OK,0.1,mm/hr,OK,1796.0,meters,OK,1518.0,meters,OK,1821.0,meters,OK
2025-01-26T20:13:12.900130,7.5,knots,OK,264.0,degrees,OK,14.6,knots,OK,15.1,°C,OK,18.9,°C,OK,1013.5,hPa,OK,9771.0,meters,OK,2126.0,feet,OK,0.3,mm/hr,OK,1723.0,meters,OK,1836.0,meters,OK,1919.0,meters,OK
2025-01-26T20:13:13.904714,13.7,knots,OK,189.0,degrees,OK,22.5,knots,OK,17.9,°C,OK,11.1,°C,OK,1013.4,hPa,OK,8022.0,meters,OK,2586.0,feet,OK,0.5,mm/hr,OK,1628.0,meters,OK,1594.0,meters,OK,1561.0,meters,OK
2025-01-26T20:13:14.909167,7.9,knots,OK,53.0,degrees,OK,11.8,knots,OK,21.7,°C,OK,16.1,°C,OK,1014.0,hPa,OK,6056.0,meters,OK,1364.0,feet,OK,0.3,mm/hr,OK,1660.0,meters,OK,1523.0,meters,OK,1501.0,meters,OK
2025-01-26T20:13:15.913657,6.8,knots,OK,357.0,degrees,OK,11.6,knots,OK,18.2,°C,OK,12.4,°C,OK,1013.2,hPa,OK,8444.0,meters,OK,1842.0,feet,OK,0.5,mm/hr,OK,1939.0,meters,OK,1663.0,meters,OK,1543.0,meters,OK
2025-01-26T20:13:16.917602,13.9,knots,OK,249.0,degrees,OK,23.3,knots,OK,21.4,°C,OK,10.8,°C,OK,1014.5,hPa,OK,8082.0,meters,OK,2365.0,feet,OK,0.2,mm/hr,OK,1916.0,meters,OK,1939.0,meters,OK,1847.0,meters,OK
2025-01-26T20:13:17.920904,6.0,knots,OK,280.0,degrees,OK,22.0,knots,OK,22.6,°C,OK,19.2,°C,OK,1013.4,hPa,OK,9620.0,meters,OK,2303.0,feet,OK,0.3,mm/hr,OK,1934.0,meters,OK,1676.0,meters,OK,1839.0,meters,OK
2025-01-26T20:13:18.924951,9.9,knots,OK,11.0,degrees,OK,18.1,knots,OK,15.1,°C,OK,16.0,°C,OK,1014.5,hPa,OK,7968.0,meters,OK,1566.0,feet,OK,0.4,mm/hr,OK,1926.0,meters,OK,1912.0,meters,OK,1769.0,meters,OK
2025-01-26T20:13:19.928773,12.8,knots,OK,130.0,degrees,OK,24.9,knots,OK,24.7,°C,OK,18.1,°C,OK,1014.7,hPa,OK,8703.0,meters,OK,1284.0,feet,OK,0.0,mm/hr,OK,1687.0,meters,OK,1915.0,meters,OK,1573.0,meters,OK
2025-01-26T20:13:20.932919,14.8,knots,OK,10.0,degrees,OK,24.9,knots,OK,21.4,°C,OK,11.1,°C,OK,1014.5,hPa,OK,6443.0,meters,OK,2755.0,feet,OK,0.4,mm/hr,OK,1620.0,meters,OK,1854.0,meters,OK,1757.0,meters,OK
2025-01-26T20:13:21.936762,9.8,knots,OK,102.0,degrees,OK,11.0,knots,OK,15.1,°C,OK,16.1,°C,OK,1014.1,hPa,OK,8017.0,meters,OK,2311.0,feet,OK,0.3,mm/hr,OK,1510.0,meters,OK,1937.0,meters,OK,1666.0,meters,OK
2025-01-26T20:13:22.940764,10.9,knots,OK,284.0,degrees,OK,14.6,knots,OK,23.9,°C,OK,12.8,°C,OK,1014.1,hPa,OK,7139.0,meters,OK,2516.0,feet,OK,0.2,mm/hr,OK,1631.0,meters,OK,1904.0,meters,OK,1568.0,meters,OK
2025-01-26T20:13:23.944173,11.9,knots,OK,172.0,degrees,OK,19.2,knots,OK,16.7,°C,OK,18.7,°C,OK,1014.4,hPa,OK,6742.0,meters,OK,1335.0,feet,OK,0.4,mm/hr,OK,1817.0,meters,OK,1677.0,meters,OK,1539.0,meters,OK
2025-01-26T20:13:24.947999,9.9,knots,OK,145.0,degrees,OK,21.0,knots,OK,17.3,°C,OK,19.4,°C,OK,1013.3,hPa,OK,7570.0,meters,OK,2317.0,feet,OK,0.3,mm/hr,OK,1863.0,meters,OK,1924.0,meters,OK,1875.0,meters,OK
2025-01-26T20:13:25.952707,7.6,knots,OK,236.0,degrees,OK,10.4,knots,OK,19.3,°C,OK,13.0,°C,OK,1013.4,hPa,OK,9320.0,meters,OK,2815.0,feet,OK,0.1,mm/hr,OK,1967.0,meters,OK,1921.0,meters,OK,1945.0,meters,OK
2025-01-26T20:13:26.957197,5.6,knots,OK,155.0,degrees,OK,21.5,knots,OK,15.5,°C,OK,15.0,°C,OK,1014.9,hPa,OK,5880.0,meters,OK,2947.0,feet,OK,0.3,mm/hr,OK,1661.0,meters,OK,1641.0,meters,OK,1530.0,meters,OK
2025-01-26T20:13:27.960679,12.8,knots,OK,212.0,degrees,OK,23.0,knots,OK,20.6,°C,OK,14.3,°C,OK,1013.4,hPa,OK,7026.0,meters,OK,1816.0,feet,OK,0.5,mm/hr,OK,1707.0,meters,OK,1927.0,meters,OK,1567.0,meters,OK
2025-01-26T20:13:28.965081,6.2,knots,OK,273.0,degrees,OK,10.1,knots,OK,17.7,°C,OK,10.7,°C,OK,1014.1,hPa,OK,5984.0,meters,OK,1423.0,feet,OK,0.1,mm/hr,OK,1927.0,meters,OK,1624.0,meters,OK,1580.0,meters,OK
2025-01-26T20:13:29.969150,13.8,knots,OK,46.0,degrees,OK,18.7,knots,OK,23.1,°C,OK,18.8,°C,OK,1014.8,hPa,OK,6225.0,meters,OK,1086.0,feet,OK,0.4,mm/hr,OK,1968.0,meters,OK,1705.0,meters,OK,1933.0,meters,OK
2025-01-26T20:13:30.973151,6.5,knots,OK,317.0,degrees,OK,24.1,knots,OK,17.0,°C,OK,11.6,°C,OK,1014.7,hPa,OK,9705.0,meters,OK,1570.0,feet,OK,0.3,mm/hr,OK,1791.0,meters,OK,1591.0,meters,OK,1926.0,meters,OK
2025-01-26T20:13:31.978528,8.6,knots,OK,33.0,degrees,OK,23.3,knots,OK,20.8,°C,OK,14.2,°C,OK,1014.8,hPa,OK,7935.0,meters,OK,1880.0,feet,OK,0.0,mm/hr,OK,1599.0,meters,OK,1728.0,meters,OK,1944.0,meters,OK
2025-01-26T20:13:32.984031,13.8,knots,OK,63.0,degrees,OK,14.1,knots,OK,24.4,°C,OK,19.8,°C,OK,1013.4,hPa,OK,8470.0,meters,OK,2674.0,feet,OK,0.4,mm/hr,OK,1889.0,meters,OK,1653.0,meters,OK,1890.0,meters,OK
2025-01-26T20:13:33.988325,8.4,knots,OK,90.0,degrees,OK,16.0,knots,OK,21.0,°C,OK,13.2,°C,OK,1014.7,hPa,OK,5867.0,meters,OK,2826.0,feet,OK,0.0,mm/hr,OK,1609.0,meters,OK,1753.0,meters,OK,1662.0,meters,OK
2025-01-26T20:13:34.992692,12.2,knots,OK,84.0,degrees,OK,13.8,knots,OK,21.5,°C,OK,16.1,°C,OK,1014.7,hPa,OK,9478.0,meters,OK,2694.0,feet,OK,0.3,mm/hr,OK,1919.0,meters,OK,1937.0,meters,OK,1888.0,meters,OK
2025-01-26T20:13:35.997429,5.5,knots,OK,128.0,degrees,OK,17.4,knots,OK,18.5,°C,OK,19.1,°C,OK,1014.8,hPa,OK,7180.0,meters,OK,1110.0,feet,OK,0.3,mm/hr,OK,1664.0,meters,OK,1597.0,meters,OK,1932.0,meters,OK
2025-01-26T20:13:37.001024,12.2,knots,OK,23.0,degrees,OK,13.4,knots,OK,24.7,°C,OK,16.7,°C,OK,1014.0,hPa,OK,5908.0,meters,OK,1577.0,feet,OK,0.1,mm/hr,OK,1614.0,meters,OK,1638.0,meters,OK,1621.0,meters,OK
2025-01-26T20:13:38.006056,9.3,knots,OK,341.0,degrees,OK,16.6,knots,OK,21.6,°C,OK,16.1,°C,OK,1014.2,hPa,OK,6300.0,meters,OK,2809.0,feet,OK,0.5,mm/hr,OK,1809.0,meters,OK,1603.0,meters,OK,1926.0,meters,OK
2025-01-26T20:13:39.011125,7.3,knots,OK,198.0,degrees,OK,15.1,knots,OK,19.1,°C,OK,10.7,°C,OK,1014.8,hPa,OK,8745.0,meters,OK,2182.0,feet,OK,0.3,mm/hr,OK,1637.0,meters,OK,1839.0,meters,OK,1996.0,meters,OK
2025-01-26T20:13:40.016060,6.5,knots,OK,336.0,degrees,OK,17.7,knots,OK,16.6,°C,OK,15.8,°C,OK,1014.8,hPa,OK,5548.0,meters,OK,1083.0,feet,OK,0.5,mm/hr,OK,1929.0,meters,OK,1547.0,meters,OK,1669.0,meters,OK
2025-01-26T20:13:41.020186,9.7,knots,OK,217.0,degrees,OK,15.1,knots,OK,19.7,°C,OK,15.4,°C,OK,1014.7,hPa,OK,8430.0,meters,OK,2011.0,feet,OK,0.2,mm/hr,OK,1772.0,meters,OK,1785.0,meters,OK,1793.0,meters,OK
2025-01-26T20:13:42.023142,6.6,knots,OK,324.0,degrees,OK,22.7,knots,OK,18.6,°C,OK,12.5,°C,OK,1013.4,hPa,OK,5402.0,meters,OK,1997.0,feet,OK,0.2,mm/hr,OK,1553.0,meters,OK,1794.0,meters,OK,1715.0,meters,OK
2025-01-26T20:13:43.027192,6.4,knots,OK,197.0,degrees,OK,20.3,knots,OK,22.6,°C,OK,13.9,°C,OK,1014.9,hPa,OK,8632.0,meters,OK,2167.0,feet,OK,0.2,mm/hr,OK,1675.0,meters,OK,1654.0,meters,OK,1745.0,meters,OK
2025-01-26T20:13:44.031298,14.1,knots,OK,302.0,degrees,OK,17.4,knots,OK,22.3,°C,OK,15.5,°C,OK,1013.9,hPa,OK,6427.0,meters,OK,2220.0,feet,OK,0.4,mm/hr,OK,1603.0,meters,OK,1916.0,meters,OK,1639.0,meters,OK
2025-01-26T20:13:45.035339,6.0,knots,OK,356.0,degrees,OK,21.2,knots,OK,17.6,°C,OK,12.2,°C,OK,1013.6,hPa,OK,9924.0,meters,OK,1815.0,feet,OK,0.1,mm/hr,OK,1814.0,meters,OK,1958.0,meters,OK,1938.0,meters,OK
2025-01-26T20:13:46.039531,7.7,knots,OK,298.0,degrees,OK,15.9,knots,OK,22.3,°C,OK,14.4,°C,OK,1014.9,hPa,OK,9616.0,meters,OK,2232.0,feet,OK,0.5,mm/hr,OK,1771.0,meters,OK,1540.0,meters,OK,1864.0,meters,OK
2025-01-26T20:13:47.044148,9.5,knots,OK,347.0,degrees,OK,12.1,knots,OK,23.3,°C,OK,14.2,°C,OK,1015.0,hPa,OK,5256.0,meters,OK,1837.0,feet,OK,0.4,mm/hr,OK,1504.0,meters,OK,1967.0,meters,OK,1621.0,meters,OK
2025-01-26T20:13:48.048292,8.4,knots,OK,76.0,degrees,OK,10.9,knots,OK,22.5,°C,OK,14.6,°C,OK,1014.5,hPa,OK,5802.0,meters,OK,1841.0,feet,OK,0.4,mm/hr,OK,1609.0,meters,OK,1864.0,meters,OK,1663.0,meters,OK
2025-01-26T20:13:49.051941,12.8,knots,OK,289.0,degrees,OK,14.7,knots,OK,22.7,°C,OK,17.2,°C,OK,1014.8,hPa,OK,8592.0,meters,OK,1293.0,feet,OK,0.0,mm/hr,OK,1858.0,meters,OK,1616.0,meters,OK,1665.0,meters,OK
2025-01-26T20:13:50.055777,9.6,knots,OK,34.0,degrees,OK,16.1,knots,OK,19.6,°C,OK,18.8,°C,OK,1013.3,hPa,OK,9821.0,meters,OK,2840.0,feet,OK,0.2,mm/hr,OK,1692.0,meters,OK,1817.0,meters,OK,1970.0,meters,OK
2025-01-26T20:13:51.060003,15.0,knots,OK,316.0,degrees,OK,11.9,knots,OK,20.7,°C,OK,11.8,°C,OK,1014.3,hPa,OK,9768.0,meters,OK,1097.0,feet,OK,0.1,mm/hr,OK,1952.0,meters,OK,1859.0,meters,OK,1948.0,meters,OK
2025-01-26T20:13:52.064685,10.3,knots,OK,330.0,degrees,OK,16.7,knots,OK,16.8,°C,OK,13.3,°C,OK,1013.2,hPa,OK,9265.0,meters,OK,1030.0,feet,OK,0.2,mm/hr,OK,1766.0,meters,OK,1690.0,meters,OK,1565.0,meters,OK
2025-01-26T20:13:53.069133,6.5,knots,OK,204.0,degrees,OK,16.1,knots,OK,15.3,°C,OK,11.2,°C,OK,1013.5,hPa,OK,9343.0,meters,OK,2450.0,feet,OK,0.3,mm/hr,OK,1994.0,meters,OK,1789.0,meters,OK,1685.0,meters,OK
2025-01-26T20:13:54.074292,10.0,knots,OK,139.0,degrees,OK,17.8,knots,OK,21.7,°C,OK,10.8,°C,OK,1013.1,hPa,OK,7871.0,meters,OK,2839.0,feet,OK,0.1,mm/hr,OK,1697.0,meters,OK,1850.0,meters,OK,1545.0,meters,OK
2025-01-26T20:13:55.079300,11.5,knots,OK,213.0,degrees,OK,13.1,knots,OK,16.3,°C,OK,19.3,°C,OK,1013.1,hPa,OK,9091.0,meters,OK,1613.0,feet,OK,0.4,mm/hr,OK,1731.0,meters,OK,1845.0,meters,OK,1874.0,meters,OK
2025-01-26T20:13:56.083833,9.3,knots,OK,263.0,degrees,OK,20.9,knots,OK,25.0,°C,OK,17.6,°C,OK,1014.6,hPa,OK,5157.0,meters,OK,2917.0,feet,OK,0.1,mm/hr,OK,1528.0,meters,OK,1818.0,meters,OK,1999.0,meters,OK
2025-01-26T20:13:57.088497,10.2,knots,OK,278.0,degrees,OK,17.9,knots,OK,18.8,°C,OK,10.7,°C,OK,1014.8,hPa,OK,8987.0,meters,OK,2600.0,feet,OK,0.2,mm/hr,OK,1818.0,meters,OK,1858.0,meters,OK,1916.0,meters,OK
2025-01-26T20:13:58.093281,9.3,knots,OK,102.0,degrees,OK,20.9,knots,OK,23.1,°C,OK,18.5,°C,OK,1015.0,hPa,OK,6853.0,meters,OK,2489.0,feet,OK,0.4,mm/hr,OK,1664.0,meters,OK,1549.0,meters,OK,1779.0,meters,OK
2025-01-26T20:13:59.097688,13.4,knots,OK,313.0,degrees,OK,16.8,knots,OK,22.9,°C,OK,13.2,°C,OK,1013.1,hPa,OK,5558.0,meters,OK,1405.0,feet,OK,0.1,mm/hr,OK,1693.0,meters,OK,1710.0,meters,OK,1887.0,meters,OK
2025-01-26T20:14:00.101373,12.6,knots,OK,194.0,degrees,OK,13.5,knots,OK,21.4,°C,OK,16.8,°C,OK,1014.4,hPa,OK,8479.0,meters,OK,1039.0,feet,OK,0.2,mm/hr,OK,1738.0,meters,OK,1977.0,meters,OK,1997.0,meters,OK
2025-01-26T20:14:01.104562,10.9,knots,OK,305.0,degrees,OK,17.5,knots,OK,20.0,°C,OK,16.3,°C,OK,1013.9,hPa,OK,9308.0,meters,OK,1017.0,feet,OK,0.3,mm/hr,OK,1558.0,meters,OK,1666.0,meters,OK,1925.0,meters,OK
2025-01-26T20:14:02.107438,5.1,knots,OK,86.0,degrees,OK,15.1,knots,OK,16.9,°C,OK,16.8,°C,OK,1014.1,hPa,OK,5842.0,meters,OK,2299.0,feet,OK,0.1,mm/hr,OK,1758.0,meters,OK,1984.0,meters,OK,1930.0,meters,OK
2025-01-26T20:14:03.111788,13.8,knots,OK,173.0,degrees,OK,15.4,knots,OK,16.9,°C,OK,15.4,°C,OK,1014.3,hPa,OK,8527.0,meters,OK,2961.0,feet,OK,0.3,mm/hr,OK,1658.0,meters,OK,1832.0,meters,OK,1955.0,meters,OK
2025-01-26T20:14:04.115237,12.5,knots,OK,47.0,degrees,OK,11.0,knots,OK,21.0,°C,OK,15.0,°C,OK,1014.7,hPa,OK,9353.0,meters,OK,1481.0,feet,OK,0.5,mm/hr,OK,1713.0,meters,OK,1751.0,meters,OK,1915.0,meters,OK
2025-01-26T20:14:05.119258,10.0,knots,OK,165.0,degrees,OK,16.0,knots,OK,24.3,°C,OK,11.6,°C,OK,1013.1,hPa,OK,7129.0,meters,OK,2729.0,feet,OK,0.4,mm/hr,OK,1981.0,meters,OK,1935.0,meters,OK,1660.0,meters,OK
2025-01-26T20:14:06.123487,8.3,knots,OK,353.0,degrees,OK,19.7,knots,OK,16.5,°C,OK,15.7,°C,OK,1014.7,hPa,OK,9963.0,meters,OK,2273.0,feet,OK,0.4,mm/hr,OK,1732.0,meters,OK,1810.0,meters,OK,1553.0,meters,OK
2025-01-26T20:14:07.127331,13.5,knots,OK,302.0,degrees,OK,12.7,knots,OK,18.8,°C,OK,10.7,°C,OK,1014.4,hPa,OK,5417.0,meters,OK,1154.0,feet,OK,0.2,mm/hr,OK,1548.0,meters,OK,1794.0,meters,OK,1758.0,meters,OK
2025-01-26T20:14:08.130856,5.1,knots,OK,134.0,degrees,OK,13.4,knots,OK,15.7,°C,OK,14.9,°C,OK,1013.4,hPa,OK,6092.0,meters,OK,2271.0,feet,OK,0.5,mm/hr,OK,1532.0,meters,OK,1533.0,meters,OK,1874.0,meters,OK
2025-01-26T20:14:09.135907,9.0,knots,OK,47.0,degrees,OK,15.0,knots,OK,20.6,°C,OK,15.3,°C,OK,1013.1,hPa,OK,6262.0,meters,OK,1773.0,feet,OK,0.3,mm/hr,OK,1915.0,meters,OK,1506.0,meters,OK,1712.0,meters,OK
2025-01-26T20:14:10.140138,6.5,knots,OK,150.0,degrees,OK,20.6,knots,OK,18.1,°C,OK,10.2,°C,OK,1014.6,hPa,OK,9841.0,meters,OK,1392.0,feet,OK,0.1,mm/hr,OK,1802.0,meters,OK,1723.0,meters,OK,1596.0,meters,OK
2025-01-26T20:14:11.145544,10.0,knots,OK,317.0,degrees,OK,16.9,knots,OK,16.2,°C,OK,16.9,°C,OK,1014.3,hPa,OK,5320.0,meters,OK,2912.0,feet,OK,0.1,mm/hr,OK,1602.0,meters,OK,1785.0,meters,OK,1936.0,meters,OK
2025-01-26T20:14:12.160228,12.7,knots,OK,37.0,degrees,OK,14.1,knots,OK,22.2,°C,OK,13.5,°C,OK,1014.1,hPa,OK,7107.0,meters,OK,1516.0,feet,OK,0.3,mm/hr,OK,1923.0,meters,OK,1998.0,meters,OK,1727.0,meters,OK
2025-01-26T20:14:13.165734,12.3,knots,OK,32.0,degrees,OK,12.1,knots,OK,24.2,°C,OK,18.0,°C,OK,1014.4,hPa,OK,8188.0,meters,OK,2288.0,feet,OK,0.2,mm/hr,OK,1780.0,meters,OK,1959.0,meters,OK,1800.0,meters,OK
2025-01-26T20:14:14.169823,8.2,knots,OK,270.0,degrees,OK,10.5,knots,OK,18.6,°C,OK,14.9,°C,OK,1014.2,hPa,OK,7724.0,meters,OK,2661.0,feet,OK,0.1,mm/hr,OK,1938.0,meters,OK,1934.0,meters,OK,1862.0,meters,OK
2025-01-26T20:14:15.174563,13.6,knots,OK,248.0,degrees,OK,24.2,knots,OK,24.6,°C,OK,16.0,°C,OK,1013.9,hPa,OK,5664.0,meters,OK,1568.0,feet,OK,0.0,mm/hr,OK,1592.0,meters,OK,1880.0,meters,OK,1966.0,meters,OK
2025-01-26T20:14:16.179070,8.4,knots,OK,297.0,degrees,OK,18.9,knots,OK,23.1,°C,OK,14.9,°C,OK,1013.5,hPa,OK,6141.0,meters,OK,2869.0,feet,OK,0.2,mm/hr,OK,1533.0,meters,OK,1776.0,meters,OK,1942.0,meters,OK
2025-01-26T20:14:17.183435,10.4,knots,OK,85.0,degrees,OK,24.3,knots,OK,18.5,°C,OK,18.7,°C,OK,1013.8,hPa,OK,6317.0,meters,OK,2784.0,feet,OK,0.3,mm/hr,OK,1970.0,meters,OK,1617.0,meters,OK,1902.0,meters,OK
2025-01-26T20:14:18.187000,11.9,knots,OK,12.0,degrees,OK,12.0,knots,OK,15.9,°C,OK,14.4,°C,OK,1014.5,hPa,OK,9882.0,meters,OK,2771.0,feet,OK,0.3,mm/hr,OK,1744.0,meters,OK,1973.0,meters,OK,1555.0,meters,OK
2025-01-26T20:14:19.190732,7.4,knots,OK,76.0,degrees,OK,22.3,knots,OK,18.7,°C,OK,16.6,°C,OK,1013.0,hPa,OK,8113.0,meters,OK,2060.0,feet,OK,0.3,mm/hr,OK,1527.0,meters,OK,1901.0,meters,OK,1615.0,meters,OK
2025-01-26T20:14:20.193860,10.2,knots,OK,270.0,degrees,OK,12.1,knots,OK,19.3,°C,OK,18.5,°C,OK,1013.1,hPa,OK,6152.0,meters,OK,1895.0,feet,OK,0.4,mm/hr,OK,1987.0,meters,OK,1586.0,meters,OK,1977.0,meters,OK
2025-01-26T20:14:21.197972,8.1,knots,OK,292.0,degrees,OK,23.5,knots,OK,22.1,°C,OK,13.8,°C,OK,1014.4,hPa,OK,7294.0,meters,OK,2535.0,feet,OK,0.2,mm/hr,OK,1861.0,meters,OK,1575.0,meters,OK,1784.0,meters,OK
2025-01-26T20:14:22.202148,13.3,knots,OK,110.0,degrees,OK,14.6,knots,OK,16.2,°C,OK,18.4,°C,OK,1013.4,hPa,OK,8630.0,meters,OK,2968.0,feet,OK,0.4,mm/hr,OK,1560.0,meters,OK,1650.0,meters,OK,1532.0,meters,OK
2025-01-26T20:14:23.206538,11.9,knots,OK,168.0,degrees,OK,13.5,knots,OK,19.9,°C,OK,11.8,°C,OK,1014.0,hPa,OK,8758.0,meters,OK,1725.0,feet,OK,0.5,mm/hr,OK,1669.0,meters,OK,1792.0,meters,OK,1809.0,meters,OK
2025-01-26T20:14:24.210887,13.5,knots,OK,245.0,degrees,OK,23.1,knots,OK,19.7,°C,OK,10.6,°C,OK,1014.1,hPa,OK,8992.0,meters,OK,2974.0,feet,OK,0.2,mm/hr,OK,1720.0,meters,OK,1975.0,meters,OK,1632.0,meters,OK
2025-01-26T20:14:25.215218,12.1,knots,OK,17.0,degrees,OK,15.8,knots,OK,24.3,°C,OK,12.3,°C,OK,1013.4,hPa,OK,5444.0,meters,OK,2059.0,feet,OK,0.1,mm/hr,OK,1891.0,meters,OK,1502.0,meters,OK,1682.0,meters,OK
2025-01-26T20:14:26.219872,8.2,knots,OK,33.0,degrees,OK,23.1,knots,OK,22.4,°C,OK,16.6,°C,OK,1013.7,hPa,OK,6473.0,meters,OK,2042.0,feet,OK,0.3,mm/hr,OK,1738.0,meters,OK,1950.0,meters,OK,1632.0,meters,OK
2025-01-26T20:14:27.224655,12.8,knots,OK,198.0,degrees,OK,23.0,knots,OK,15.9,°C,OK,15.6,°C,OK,1014.4,hPa,OK,8699.0,meters,OK,2908.0,feet,OK,0.4,mm/hr,OK,1570.0,meters,OK,1879.0,meters,OK,1600.0,meters,OK
2025-01-26T20:14:28.228731,11.3,knots,OK,340.0,degrees,OK,12.1,knots,OK,15.3,°C,OK,19.3,°C,OK,1014.3,hPa,OK,7899.0,meters,OK,1766.0,feet,OK,0.2,mm/hr,OK,1578.0,meters,OK,1984.0,meters,OK,1657.0,meters,OK
2025-01-26T20:14:29.233531,10.3,knots,OK,201.0,degrees,OK,17.3,knots,OK,20.1,°C,OK,16.8,°C,OK,1013.2,hPa,OK,5690.0,meters,OK,1645.0,feet,OK,0.4,mm/hr,OK,1758.0,meters,OK,1703.0,meters,OK,1758.0,meters,OK
2025-01-26T20:14:30.238057,13.2,knots,OK,36.0,degrees,OK,25.0,knots,OK,22.1,°C,OK,14.1,°C,OK,1014.8,hPa,OK,6854.0,meters,OK,2398.0,feet,OK,0.2,mm/hr,OK,1639.0,meters,OK,1704.0,meters,OK,1809.0,meters,OK
2025-01-26T20:14:31.242075,11.5,knots,OK,228.0,degrees,OK,16.8,knots,OK,23.9,°C,OK,17.3,°C,OK,1014.1,hPa,OK,9394.0,meters,OK,2494.0,feet,OK,0.4,mm/hr,OK,1816.0,meters,OK,1559.0,meters,OK,1975.0,meters,OK
2025-01-26T20:14:32.246711,11.8,knots,OK,289.0,degrees,OK,14.7,knots,OK,21.2,°C,OK,10.5,°C,OK,1014.5,hPa,OK,7663.0,meters,OK,2260.0,feet,OK,0.0,mm/hr,OK,1874.0,meters,OK,1588.0,meters,OK,1519.0,meters,OK
2025-01-26T20:14:33.251526,12.8,knots,OK,294.0,degrees,OK,20.5,knots,OK,17.5,°C,OK,11.6,°C,OK,1014.1,hPa,OK,5811.0,meters,OK,2752.0,feet,OK,0.3,mm/hr,OK,1534.0,meters,OK,1535.0,meters,OK,1776.0,meters,OK
2025-01-26T20:14:34.255552,11.3,knots,OK,206.0,degrees,OK,17.2,knots,OK,23.8,°C,OK,10.7,°C,OK,1014.1,hPa,OK,9803.0,meters,OK,1327.0,feet,OK,0.0,mm/hr,OK,1982.0,meters,OK,1591.0,meters,OK,1660.0,meters,OK
2025-01-26T20:14:35.260276,8.5,knots,OK,337.0,degrees,OK,21.0,knots,OK,16.9,°C,OK,11.0,°C,OK,1013.2,hPa,OK,6112.0,meters,OK,2849.0,feet,OK,0.0,mm/hr,OK,1561.0,meters,OK,1633.0,meters,OK,1909.0,meters,OK
2025-01-26T20:14:36.264735,12.2,knots,OK,171.0,degrees,OK,12.8,knots,OK,19.0,°C,OK,12.9,°C,OK,1013.9,hPa,OK,5151.0,meters,OK,1681.0,feet,OK,0.4,mm/hr,OK,1702.0,meters,OK,1939.0,meters,OK,1898.0,meters,OK
2025-01-26T20:14:37.268777,9.7,knots,OK,226.0,degrees,OK,22.3,knots,OK,17.6,°C,OK,16.2,°C,OK,1014.4,hPa,OK,5980.0,meters,OK,2526.0,feet,OK,0.3,mm/hr,OK,1553.0,meters,OK,1873.0,meters,OK,1697.0,meters,OK
2025-01-26T20:14:38.273748,6.2,knots,OK,105.0,degrees,OK,13.8,knots,OK,17.6,°C,OK,12.7,°C,OK,1013.4,hPa,OK,5595.0,meters,OK,1152.0,feet,OK,0.3,mm/hr,OK,1773.0,meters,OK,1840.0,meters,OK,1803.0,meters,OK
2025-01-26T20:14:39.277873,7.5,knots,OK,81.0,degrees,OK,10.8,knots,OK,21.6,°C,OK,14.7,°C,OK,1013.2,hPa,OK,7994.0,meters,OK,1310.0,feet,OK,0.1,mm/hr,OK,1747.0,meters,OK,1775.0,meters,OK,1867.0,meters,OK
2025-01-26T20:14:40.281443,10.8,knots,OK,165.0,degrees,OK,22.0,knots,OK,20.6,°C,OK,16.2,°C,OK,1014.3,hPa,OK,9532.0,meters,OK,1541.0,feet,OK,0.1,mm/hr,OK,1671.0,meters,OK,1958.0,meters,OK,1602.0,meters,OK
2025-01-26T20:14:41.286197,7.8,knots,OK,74.0,degrees,OK,19.7,knots,OK,20.9,°C,OK,11.5,°C,OK,1014.9,hPa,OK,9627.0,meters,OK,1462.0,feet,OK,0.0,mm/hr,OK,1796.0,meters,OK,1642.0,meters,OK,1724.0,meters,OK
2025-01-26T20:14:42.290419,10.8,knots,OK,269.0,degrees,OK,23.4,knots,OK,23.4,°C,OK,11.4,°C,OK,1014.4,hPa,OK,5905.0,meters,OK,2915.0,feet,OK,0.0,mm/hr,OK,1801.0,meters,OK,1757.0,meters,OK,1888.0,meters,OK
2025-01-26T20:14:43.294429,5.3,knots,OK,137.0,degrees,OK,15.2,knots,OK,23.5,°C,OK,18.8,°C,OK,1013.7,hPa,OK,6850.0,meters,OK,2755.0,feet,OK,0.2,mm/hr,OK,1921.0,meters,OK,1870.0,meters,OK,1652.0,meters,OK
2025-01-26T20:14:44.299123,11.5,knots,OK,103.0,degrees,OK,16.7,knots,OK,20.2,°C,OK,15.7,°C,OK,1013.5,hPa,OK,9883.0,meters,OK,1858.0,feet,OK,0.1,mm/hr,OK,1674.0,meters,OK,1926.0,meters,OK,1869.0,meters,OK
2025-01-26T20:14:45.302695,9.3,knots,OK,55.0,degrees,OK,21.7,knots,OK,20.7,°C,OK,12.9,°C,OK,1013.7,hPa,OK,8797.0,meters,OK,2830.0,feet,OK,0.3,mm/hr,OK,1979.0,meters,OK,1812.0,meters,OK,1556.0,meters,OK
2025-01-26T20:14:46.306486,6.8,knots,OK,230.0,degrees,OK,15.5,knots,OK,20.7,°C,OK,18.9,°C,OK,1013.8,hPa,OK,5418.0,meters,OK,1181.0,feet,OK,0.1,mm/hr,OK,1889.0,meters,OK,1919.0,meters,OK,1717.0,meters,OK
2025-01-26T20:14:47.310473,10.9,knots,OK,238.0,degrees,OK,14.7,knots,OK,21.3,°C,OK,11.1,°C,OK,1014.6,hPa,OK,9590.0,meters,OK,2921.0,feet,OK,0.2,mm/hr,OK,1707.0,meters,OK,1564.0,meters,OK,1588.0,meters,OK
2025-01-26T20:14:48.314269,12.5,knots,OK,106.0,degrees,OK,10.2,knots,OK,24.7,°C,OK,11.6,°C,OK,1013.9,hPa,OK,5840.0,meters,OK,1404.0,feet,OK,0.1,mm/hr,OK,1642.0,meters,OK,1770.0,meters,OK,1903.0,meters,OK
2025-01-26T20:14:49.318310,8.8,knots,OK,255.0,degrees,OK,23.6,knots,OK,18.4,°C,OK,16.9,°C,OK,1013.2,hPa,OK,8213.0,meters,OK,1869.0,feet,OK,0.4,mm/hr,OK,1746.0,meters,OK,1550.0,meters,OK,1792.0,meters,OK
2025-01-26T20:14:50.322491,8.4,knots,OK,185.0,degrees,OK,16.6,knots,OK,23.2,°C,OK,11.9,°C,OK,1013.8,hPa,OK,7488.0,meters,OK,1720.0,feet,OK,0.0,mm/hr,OK,1762.0,meters,OK,1619.0,meters,OK,1677.0,meters,OK
2025-01-26T20:14:51.327413,10.2,knots,OK,96.0,degrees,OK,15.7,knots,OK,16.3,°C,OK,14.9,°C,OK,1014.7,hPa,OK,8697.0,meters,OK,1692.0,feet,OK,0.4,mm/hr,OK,1934.0,meters,OK,1992.0,meters,OK,1901.0,meters,OK
2025-01-26T20:14:52.331441,14.2,knots,OK,287.0,degrees,OK,22.6,knots,OK,23.7,°C,OK,11.8,°C,OK,1014.9,hPa,OK,8055.0,meters,OK,1906.0,feet,OK,0.4,mm/hr,OK,1800.0,meters,OK,1938.0,meters,OK,1631.0,meters,OK
2025-01-26T20:14:53.335548,11.1,knots,OK,76.0,degrees,OK,18.2,knots,OK,23.7,°C,OK,16.8,°C,OK,1013.5,hPa,OK,9028.0,meters,OK,1307.0,feet,OK,0.3,mm/hr,OK,1682.0,meters,OK,1851.0,meters,OK,1619.0,meters,OK
2025-01-26T20:14:54.340153,9.4,knots,OK,201.0,degrees,OK,24.1,knots,OK,24.2,°C,OK,11.5,°C,OK,1013.3,hPa,OK,8617.0,meters,OK,1286.0,feet,OK,0.1,mm/hr,OK,1739.0,meters,OK,1530.0,meters,OK,1847.0,meters,OK
2025-01-26T20:14:55.344947,12.1,knots,OK,41.0,degrees,OK,16.8,knots,OK,16.9,°C,OK,15.2,°C,OK,1014.2,hPa,OK,9951.0,meters,OK,2713.0,feet,OK,0.2,mm/hr,OK,1645.0,meters,OK,1621.0,meters,OK,1561.0,meters,OK
2025-01-26T20:14:56.348074,14.4,knots,OK,210.0,degrees,OK,11.2,knots,OK,20.4,°C,OK,13.2,°C,OK,1013.2,hPa,OK,8603.0,meters,OK,1623.0,feet,OK,0.1,mm/hr,OK,1536.0,meters,OK,1636.0,meters,OK,1881.0,meters,OK
2025-01-26T20:14:57.352711,8.7,knots,OK,89.0,degrees,OK,12.8,knots,OK,15.3,°C,OK,12.2,°C,OK,1014.6,hPa,OK,5692.0,meters,OK,1071.0,feet,OK,0.5,mm/hr,OK,1543.0,meters,OK,1552.0,meters,OK,1541.0,meters,OK
2025-01-26T20:14:58.356976,11.2,knots,OK,201.0,degrees,OK,16.8,knots,OK,18.8,°C,OK,18.6,°C,OK,1014.3,hPa,OK,5998.0,meters,OK,2554.0,feet,OK,0.2,mm/hr,OK,1868.0,meters,OK,1935.0,meters,OK,1763.0,meters,OK
2025-01-26T20:14:59.361326,12.5,knots,OK,16.0,degrees,OK,19.9,knots,OK,20.9,°C,OK,12.9,°C,OK,1013.6,hPa,OK,9576.0,meters,OK,2876.0,feet,OK,0.1,mm/hr,OK,1666.0,meters,OK,1907.0,meters,OK,1766.0,meters,OK
2025-01-26T20:15:00.366691,10.1,knots,OK,349.0,degrees,OK,14.2,knots,OK,24.2,°C,OK,15.1,°C,OK,1013.0,hPa,OK,8047.0,meters,OK,1250.0,feet,OK,0.2,mm/hr,OK,1774.0,meters,OK,1893.0,meters,OK,1908.0,meters,OK
2025-01-26T20:15:01.370912,13.6,knots,OK,216.0,degrees,OK,18.6,knots,OK,24.3,°C,OK,12.6,°C,OK,1013.3,hPa,OK,8864.0,meters,OK,2522.0,feet,OK,0.0,mm/hr,OK,1918.0,meters,OK,1805.0,meters,OK,1708.0,meters,OK
2025-01-26T20:15:02.374938,6.5,knots,OK,30.0,degrees,OK,24.4,knots,OK,23.2,°C,OK,17.4,°C,OK,1013.0,hPa,OK,7445.0,meters,OK,1515.0,feet,OK,0.2,mm/hr,OK,1841.0,meters,OK,1972.0,meters,OK,1991.0,meters,OK
2025-01-26T20:15:03.379608,13.2,knots,OK,139.0,degrees,OK,12.2,knots,OK,15.4,°C,OK,15.4,°C,OK,1013.1,hPa,OK,8098.0,meters,OK,1739.0,feet,OK,0.2,mm/hr,OK,1910.0,meters,OK,1874.0,meters,OK,1618.0,meters,OK
2025-01-26T20:15:04.384074,8.3,knots,OK,192.0,degrees,OK,10.3,knots,OK,16.1,°C,OK,15.3,°C,OK,1014.4,hPa,OK,7946.0,meters,OK,2198.0,feet,OK,0.1,mm/hr,OK,1718.0,meters,OK,1555.0,meters,OK,1880.0,meters,OK
2025-01-26T20:15:05.387902,11.7,knots,OK,73.0,degrees,OK,22.1,knots,OK,16.6,°C,OK,17.6,°C,OK,1013.9,hPa,OK,7103.0,meters,OK,2224.0,feet,OK,0.0,mm/hr,OK,1847.0,meters,OK,1778.0,meters,OK,1633.0,meters,OK
2025-01-26T20:15:06.392230,8.3,knots,OK,344.0,degrees,OK,13.3,knots,OK,22.5,°C,OK,18.8,°C,OK,1013.6,hPa,OK,7678.0,meters,OK,1143.0,feet,OK,0.1,mm/hr,OK,1768.0,meters,OK,1921.0,meters,OK,1611.0,meters,OK
2025-01-26T20:15:07.395231,12.8,knots,OK,87.0,degrees,OK,11.8,knots,OK,19.4,°C,OK,18.8,°C,OK,1014.7,hPa,OK,7422.0,meters,OK,2510.0,feet,OK,0.4,mm/hr,OK,1932.0,meters,OK,1656.0,meters,OK,1939.0,meters,OK
2025-01-26T20:15:08.400101,8.3,knots,OK,344.0,degrees,OK,20.7,knots,OK,23.0,°C,OK,13.9,°C,OK,1014.5,hPa,OK,5819.0,meters,OK,1734.0,feet,OK,0.4,mm/hr,OK,1728.0,meters,OK,1965.0,meters,OK,1591.0,meters,OK
2025-01-26T20:15:09.404936,11.7,knots,OK,37.0,degrees,OK,19.7,knots,OK,24.9,°C,OK,15.5,°C,OK,1014.5,hPa,OK,9872.0,meters,OK,1587.0,feet,OK,0.3,mm/hr,OK,1787.0,meters,OK,1917.0,meters,OK,1577.0,meters,OK
2025-01-26T20:15:10.408903,10.5,knots,OK,175.0,degrees,OK,20.8,knots,OK,21.6,°C,OK,18.0,°C,OK,1013.7,hPa,OK,7191.0,meters,OK,2667.0,feet,OK,0.2,mm/hr,OK,1521.0,meters,OK,1740.0,meters,OK,1506.0,meters,OK
2025-01-26T20:15:11.413275,5.7,knots,OK,216.0,degrees,OK,13.5,knots,OK,19.8,°C,OK,17.4,°C,OK,1014.8,hPa,OK,8482.0,meters,OK,2302.0,feet,OK,0.4,mm/hr,OK,1954.0,meters,OK,1804.0,meters,OK,1937.0,meters,OK
2025-01-26T20:15:12.417904,8.6,knots,OK,201.0,degrees,OK,19.1,knots,OK,17.5,°C,OK,10.3,°C,OK,1014.2,hPa,OK,6053.0,meters,OK,2374.0,feet,OK,0.3,mm/hr,OK,1991.0,meters,OK,1641.0,meters,OK,1711.0,meters,OK
2025-01-26T20:15:13.422869,6.9,knots,OK,181.0,degrees,OK,13.5,knots,OK,21.5,°C,OK,10.7,°C,OK,1013.8,hPa,OK,7557.0,meters,OK,2631.0,feet,OK,0.3,mm/hr,OK,1534.0,meters,OK,1761.0,meters,OK,1667.0,meters,OK
2025-01-26T20:15:14.426647,12.1,knots,OK,337.0,degrees,OK,17.3,knots,OK,20.7,°C,OK,15.7,°C,OK,1014.7,hPa,OK,5102.0,meters,OK,1516.0,feet,OK,0.5,mm/hr,OK,1944.0,meters,OK,1697.0,meters,OK,1975.0,meters,OK
2025-01-26T20:15:15.430932,5.9,knots,OK,50.0,degrees,OK,23.8,knots,OK,23.0,°C,OK,19.5,°C,OK,1013.3,hPa,OK,9661.0,meters,OK,1616.0,feet,OK,0.4,mm/hr,OK,1629.0,meters,OK,1821.0,meters,OK,1610.0,meters,OK
2025-01-26T20:15:16.434836,6.2,knots,OK,326.0,degrees,OK,18.3,knots,OK,24.2,°C,OK,16.8,°C,OK,1013.3,hPa,OK,5399.0,meters,OK,1099.0,feet,OK,0.3,mm/hr,OK,1958.0,meters,OK,1866.0,meters,OK,1741.0,meters,OK
2025-01-26T20:15:17.437976,11.4,knots,OK,207.0,degrees,OK,17.6,knots,OK,21.7,°C,OK,16.8,°C,OK,1014.3,hPa,OK,9462.0,meters,OK,1462.0,feet,OK,0.4,mm/hr,OK,1884.0,meters,OK,1730.0,meters,OK,1910.0,meters,OK
2025-01-26T20:15:18.441783,9.5,knots,OK,146.0,degrees,OK,20.6,knots,OK,18.5,°C,OK,12.6,°C,OK,1013.8,hPa,OK,5177.0,meters,OK,1446.0,feet,OK,0.3,mm/hr,OK,1836.0,meters,OK,1695.0,meters,OK,1678.0,meters,OK
2025-01-26T20:15:19.445961,7.5,knots,OK,32.0,degrees,OK,14.9,knots,OK,15.4,°C,OK,16.8,°C,OK,1013.6,hPa,OK,5489.0,meters,OK,2555.0,feet,OK,0.2,mm/hr,OK,1723.0,meters,OK,1914.0,meters,OK,1607.0,meters,OK
2025-01-26T20:15:20.450783,14.3,knots,OK,137.0,degrees,OK,11.4,knots,OK,19.7,°C,OK,17.1,°C,OK,1013.4,hPa,OK,7132.0,meters,OK,1207.0,feet,OK,0.0,mm/hr,OK,1660.0,meters,OK,1809.0,meters,OK,1971.0,meters,OK
2025-01-26T20:15:21.454910,10.5,knots,OK,147.0,degrees,OK,15.7,knots,OK,24.7,°C,OK,11.1,°C,OK,1014.0,hPa,OK,7885.0,meters,OK,1850.0,feet,OK,0.3,mm/hr,OK,1722.0,meters,OK,1601.0,meters,OK,1573.0,meters,OK
2025-01-26T20:15:22.459059,5.6,knots,OK,273.0,degrees,OK,21.8,knots,OK,20.7,°C,OK,14.2,°C,OK,1015.0,hPa,OK,9972.0,meters,OK,1230.0,feet,OK,0.4,mm/hr,OK,1534.0,meters,OK,1592.0,meters,OK,1969.0,meters,OK
2025-01-26T20:15:23.463936,13.3,knots,OK,103.0,degrees,OK,18.7,knots,OK,16.6,°C,OK,15.5,°C,OK,1013.0,hPa,OK,6350.0,meters,OK,1979.0,feet,OK,0.2,mm/hr,OK,1586.0,meters,OK,1764.0,meters,OK,1777.0,meters,OK
2025-01-26T20:15:24.468021,6.5,knots,OK,123.0,degrees,OK,22.9,knots,OK,22.7,°C,OK,18.3,°C,OK,1014.0,hPa,OK,9816.0,meters,OK,2926.0,feet,OK,0.1,mm/hr,OK,1795.0,meters,OK,1509.0,meters,OK,1605.0,meters,OK
2025-01-26T20:15:25.472227,7.7,knots,OK,224.0,degrees,OK,22.9,knots,OK,24.5,°C,OK,19.2,°C,OK,1013.5,hPa,OK,9706.0,meters,OK,1766.0,feet,OK,0.2,mm/hr,OK,1767.0,meters,OK,1503.0,meters,OK,1803.0,meters,OK
2025-01-26T20:15:26.477375,5.6,knots,OK,67.0,degrees,OK,15.5,knots,OK,17.9,°C,OK,16.7,°C,OK,1013.5,hPa,OK,9374.0,meters,OK,2830.0,feet,OK,0.1,mm/hr,OK,1640.0,meters,OK,1754.0,meters,OK,1736.0,meters,OK
2025-01-26T20:15:27.482086,8.1,knots,OK,135.0,degrees,OK,24.7,knots,OK,19.5,°C,OK,17.5,°C,OK,1014.1,hPa,OK,5627.0,meters,OK,2623.0,feet,OK,0.4,mm/hr,OK,1608.0,meters,OK,1896.0,meters,OK,1953.0,meters,OK
2025-01-26T20:15:28.486018,11.3,knots,OK,11.0,degrees,OK,23.4,knots,OK,20.9,°C,OK,14.3,°C,OK,1014.5,hPa,OK,5680.0,meters,OK,1040.0,feet,OK,0.3,mm/hr,OK,1587.0,meters,OK,1708.0,meters,OK,1936.0,meters,OK
2025-01-26T20:15:29.490215,14.0,knots,OK,139.0,degrees,OK,18.8,knots,OK,24.6,°C,OK,12.7,°C,OK,1014.2,hPa,OK,7258.0,meters,OK,1260.0,feet,OK,0.0,mm/hr,OK,1876.0,meters,OK,1678.0,meters,OK,1586.0,meters,OK
2025-01-26T20:15:30.494272,6.9,knots,OK,76.0,degrees,OK,14.1,knots,OK,21.2,°C,OK,12.5,°C,OK,1014.9,hPa,OK,8415.0,meters,OK,2733.0,feet,OK,0.1,mm/hr,OK,1796.0,meters,OK,1631.0,meters,OK,1563.0,meters,OK
2025-01-26T20:15:31.498823,9.5,knots,OK,57.0,degrees,OK,20.5,knots,OK,20.6,°C,OK,15.4,°C,OK,1013.9,hPa,OK,5296.0,meters,OK,1402.0,feet,OK,0.0,mm/hr,OK,1670.0,meters,OK,1943.0,meters,OK,1593.0,meters,OK
2025-01-26T20:15:32.503823,8.0,knots,OK,103.0,degrees,OK,15.2,knots,OK,21.7,°C,OK,10.4,°C,OK,1014.1,hPa,OK,6632.0,meters,OK,2089.0,feet,OK,0.5,mm/hr,OK,1531.0,meters,OK,1559.0,meters,OK,1858.0,meters,OK
2025-01-26T20:15:33.507531,9.7,knots,OK,160.0,degrees,OK,12.6,knots,OK,19.8,°C,OK,16.9,°C,OK,1014.4,hPa,OK,6129.0,meters,OK,2820.0,feet,OK,0.1,mm/hr,OK,1679.0,meters,OK,1621.0,meters,OK,1895.0,meters,OK
2025-01-26T20:15:34.512144,11.9,knots,OK,18.0,degrees,OK,19.0,knots,OK,22.0,°C,OK,12.3,°C,OK,1014.3,hPa,OK,7818.0,meters,OK,1772.0,feet,OK,0.3,mm/hr,OK,1938.0,meters,OK,1870.0,meters,OK,1525.0,meters,OK
2025-01-26T20:15:35.516842,11.5,knots,OK,69.0,degrees,OK,22.5,knots,OK,19.1,°C,OK,10.5,°C,OK,1014.7,hPa,OK,6902.0,meters,OK,1809.0,feet,OK,0.2,mm/hr,OK,1788.0,meters,OK,1995.0,meters,OK,1997.0,meters,OK
2025-01-26T20:15:36.520831,14.1,knots,OK,136.0,degrees,OK,17.2,knots,OK,16.4,°C,OK,15.9,°C,OK,1013.2,hPa,OK,6552.0,meters,OK,2647.0,feet,OK,0.3,mm/hr,OK,1994.0,meters,OK,1610.0,meters,OK,1808.0,meters,OK
2025-01-26T20:15:37.525955,11.7,knots,OK,244.0,degrees,OK,10.6,knots,OK,22.0,°C,OK,14.3,°C,OK,1014.1,hPa,OK,5507.0,meters,OK,1459.0,feet,OK,0.3,mm/hr,OK,1920.0,meters,OK,1885.0,meters,OK,1754.0,meters,OK
2025-01-26T20:15:38.530437,12.9,knots,OK,78.0,degrees,OK,21.9,knots,OK,20.4,°C,OK,12.7,°C,OK,1014.2,hPa,OK,8130.0,meters,OK,1594.0,feet,OK,0.4,mm/hr,OK,1872.0,meters,OK,1697.0,meters,OK,1532.0,meters,OK
2025-01-26T20:15:39.535083,10.5,knots,OK,91.0,degrees,OK,17.8,knots,OK,21.0,°C,OK,15.7,°C,OK,1013.8,hPa,OK,6269.0,meters,OK,1768.0,feet,OK,0.3,mm/hr,OK,1562.0,meters,OK,1795.0,meters,OK,1660.0,meters,OK
2025-01-26T20:15:40.539138,5.6,knots,OK,277.0,degrees,OK,15.6,knots,OK,17.2,°C,OK,19.8,°C,OK,1013.5,hPa,OK,6820.0,meters,OK,2381.0,feet,OK,0.3,mm/hr,OK,1580.0,meters,OK,1652.0,meters,OK,1523.0,meters,OK
2025-01-26T20:15:41.543160,11.7,knots,OK,47.0,degrees,OK,20.5,knots,OK,15.6,°C,OK,18.3,°C,OK,1014.1,hPa,OK,6258.0,meters,OK,1936.0,feet,OK,0.4,mm/hr,OK,1802.0,meters,OK,1923.0,meters,OK,1632.0,meters,OK
2025-01-26T20:15:42.547235,13.7,knots,OK,42.0,degrees,OK,24.6,knots,OK,21.6,°C,OK,19.7,°C,OK,1013.3,hPa,OK,6233.0,meters,OK,2484.0,feet,OK,0.1,mm/hr,OK,1738.0,meters,OK,1602.0,meters,OK,1695.0,meters,OK
2025-01-26T20:15:43.551806,8.6,knots,OK,294.0,degrees,OK,13.7,knots,OK,17.0,°C,OK,19.8,°C,OK,1015.0,hPa,OK,8450.0,meters,OK,2265.0,feet,OK,0.2,mm/hr,OK,1785.0,meters,OK,1812.0,meters,OK,1570.0,meters,OK
2025-01-26T20:15:44.555770,8.7,knots,OK,171.0,degrees,OK,21.2,knots,OK,24.6,°C,OK,14.7,°C,OK,1014.1,hPa,OK,6392.0,meters,OK,1797.0,feet,OK,0.1,mm/hr,OK,1691.0,meters,OK,1733.0,meters,OK,1560.0,meters,OK
2025-01-26T20:15:45.560173,6.7,knots,OK,220.0,degrees,OK,18.2,knots,OK,20.1,°C,OK,15.2,°C,OK,1013.4,hPa,OK,5391.0,meters,OK,2040.0,feet,OK,0.4,mm/hr,OK,1711.0,meters,OK,1853.0,meters,OK,1520.0,meters,OK
2025-01-26T20:15:46.564516,12.9,knots,OK,197.0,degrees,OK,19.0,knots,OK,24.5,°C,OK,16.3,°C,OK,1014.7,hPa,OK,7482.0,meters,OK,1348.0,feet,OK,0.1,mm/hr,OK,1760.0,meters,OK,1828.0,meters,OK,1500.0,meters,OK
2025-01-26T20:15:47.569048,11.2,knots,OK,33.0,degrees,OK,23.9,knots,OK,20.8,°C,OK,11.2,°C,OK,1014.1,hPa,OK,6882.0,meters,OK,2352.0,feet,OK,0.1,mm/hr,OK,1658.0,meters,OK,1761.0,meters,OK,1641.0,meters,OK
2025-01-26T20:15:48.572834,9.5,knots,OK,11.0,degrees,OK,24.6,knots,OK,23.4,°C,OK,15.1,°C,OK,1013.3,hPa,OK,8782.0,meters,OK,2428.0,feet,OK,0.0,mm/hr,OK,1782.0,meters,OK,1927.0,meters,OK,1515.0,meters,OK
2025-01-26T20:15:49.576521,8.5,knots,OK,31.0,degrees,OK,22.0,knots,OK,22.3,°C,OK,10.2,°C,OK,1014.1,hPa,OK,6937.0,meters,OK,1736.0,feet,OK,0.3,mm/hr,OK,1893.0,meters,OK,1819.0,meters,OK,1626.0,meters,OK
2025-01-26T20:15:50.580286,14.1,knots,OK,273.0,degrees,OK,17.8,knots,OK,18.1,°C,OK,13.7,°C,OK,1014.4,hPa,OK,5409.0,meters,OK,2373.0,feet,OK,0.3,mm/hr,OK,1747.0,meters,OK,1777.0,meters,OK,1512.0,meters,OK
2025-01-26T20:15:51.584548,13.6,knots,OK,248.0,degrees,OK,21.6,knots,OK,15.5,°C,OK,10.8,°C,OK,1014.8,hPa,OK,7318.0,meters,OK,1383.0,feet,OK,0.3,mm/hr,OK,1638.0,meters,OK,1909.0,meters,OK,1625.0,meters,OK
2025-01-26T20:15:52.589181,13.1,knots,OK,298.0,degrees,OK,10.5,knots,OK,16.7,°C,OK,12.8,°C,OK,1014.5,hPa,OK,8608.0,meters,OK,2656.0,feet,OK,0.4,mm/hr,OK,1690.0,meters,OK,1593.0,meters,OK,1742.0,meters,OK
2025-01-26T20:15:53.593932,6.2,knots,OK,85.0,degrees,OK,19.5,knots,OK,20.7,°C,OK,16.2,°C,OK,1014.5,hPa,OK,5933.0,meters,OK,2562.0,feet,OK,0.2,mm/hr,OK,1663.0,meters,OK,1955.0,meters,OK,1691.0,meters,OK
2025-01-26T20:15:54.598358,15.0,knots,OK,47.0,degrees,OK,11.5,knots,OK,23.6,°C,OK,15.1,°C,OK,1014.0,hPa,OK,6380.0,meters,OK,2957.0,feet,OK,0.1,mm/hr,OK,1595.0,meters,OK,1942.0,meters,OK,1751.0,meters,OK
2025-01-26T20:15:55.602419,11.0,knots,OK,275.0,degrees,OK,19.6,knots,OK,22.5,°C,OK,19.0,°C,OK,1014.8,hPa,OK,7491.0,meters,OK,1329.0,feet,OK,0.5,mm/hr,OK,1860.0,meters,OK,1683.0,meters,OK,1857.0,meters,OK
2025-01-26T20:15:56.607831,8.1,knots,OK,116.0,degrees,OK,11.3,knots,OK,15.4,°C,OK,17.2,°C,OK,1013.6,hPa,OK,8772.0,meters,OK,1540.0,feet,OK,0.0,mm/hr,OK,1755.0,meters,OK,1580.0,meters,OK,1596.0,meters,OK
2025-01-26T20:15:57.613623,9.2,knots,OK,12.0,degrees,OK,24.3,knots,OK,19.0,°C,OK,15.5,°C,OK,1014.9,hPa,OK,8041.0,meters,OK,1707.0,feet,OK,0.4,mm/hr,OK,1720.0,meters,OK,1526.0,meters,OK,1627.0,meters,OK
2025-01-26T20:15:58.618304,7.1,knots,OK,297.0,degrees,OK,23.5,knots,OK,17.6,°C,OK,19.4,°C,OK,1015.0,hPa,OK,7057.0,meters,OK,1507.0,feet,OK,0.2,mm/hr,OK,1811.0,meters,OK,1951.0,meters,OK,1669.0,meters,OK
2025-01-26T20:15:59.622620,14.9,knots,OK,269.0,degrees,OK,16.2,knots,OK,18.7,°C,OK,18.3,°C,OK,1013.7,hPa,OK,7720.0,meters,OK,2354.0,feet,OK,0.4,mm/hr,OK,1606.0,meters,OK,1992.0,meters,OK,1576.0,meters,OK
2025-01-26T20:16:00.627053,12.3,knots,OK,247.0,degrees,OK,19.7,knots,OK,16.8,°C,OK,17.4,°C,OK,1013.5,hPa,OK,5946.0,meters,OK,2830.0,feet,OK,0.5,mm/hr,OK,1954.0,meters,OK,1795.0,meters,OK,1810.0,meters,OK
2025-01-26T20:16:01.630543,10.1,knots,OK,213.0,degrees,OK,12.4,knots,OK,15.1,°C,OK,16.1,°C,OK,1014.9,hPa,OK,9134.0,meters,OK,2177.0,feet,OK,0.4,mm/hr,OK,1975.0,meters,OK,1506.0,meters,OK,1664.0,meters,OK
2025-01-26T20:16:02.635376,13.6,knots,OK,210.0,degrees,OK,23.8,knots,OK,18.7,°C,OK,18.4,°C,OK,1013.4,hPa,OK,9578.0,meters,OK,1087.0,feet,OK,0.4,mm/hr,OK,1563.0,meters,OK,1874.0,meters,OK,1586.0,meters,OK
2025-01-26T20:16:03.641160,7.2,knots,OK,213.0,degrees,OK,11.1,knots,OK,15.9,°C,OK,19.3,°C,OK,1013.7,hPa,OK,8437.0,meters,OK,2771.0,feet,OK,0.5,mm/hr,OK,1626.0,meters,OK,1908.0,meters,OK,1782.0,meters,OK
2025-01-26T20:16:04.645813,7.4,knots,OK,127.0,degrees,OK,17.1,knots,OK,23.1,°C,OK,17.0,°C,OK,1013.2,hPa,OK,6949.0,meters,OK,2450.0,feet,OK,0.0,mm/hr,OK,1657.0,meters,OK,1975.0,meters,OK,1836.0,meters,OK
2025-01-26T20:16:05.650358,11.6,knots,OK,212.0,degrees,OK,11.6,knots,OK,23.9,°C,OK,13.3,°C,OK,1014.1,hPa,OK,8531.0,meters,OK,1307.0,feet,OK,0.4,mm/hr,OK,1753.0,meters,OK,1745.0,meters,OK,1761.0,meters,OK
2025-01-26T20:16:06.654588,7.9,knots,OK,116.0,degrees,OK,16.3,knots,OK,19.1,°C,OK,10.5,°C,OK,1014.9,hPa,OK,7046.0,meters,OK,2099.0,feet,OK,0.5,mm/hr,OK,1552.0,meters,OK,1970.0,meters,OK,1938.0,meters,OK
2025-01-26T20:16:07.658554,6.0,knots,OK,113.0,degrees,OK,18.0,knots,OK,16.3,°C,OK,19.4,°C,OK,1013.8,hPa,OK,8750.0,meters,OK,2867.0,feet,OK,0.2,mm/hr,OK,1708.0,meters,OK,1737.0,meters,OK,1725.0,meters,OK
2025-01-26T20:16:08.662388,5.0,knots,OK,224.0,degrees,OK,19.2,knots,OK,17.6,°C,OK,10.1,°C,OK,1014.8,hPa,OK,8879.0,meters,OK,1336.0,feet,OK,0.2,mm/hr,OK,1848.0,meters,OK,1743.0,meters,OK,1511.0,meters,OK
2025-01-26T20:16:09.666473,13.5,knots,OK,164.0,degrees,OK,19.4,knots,OK,16.0,°C,OK,18.8,°C,OK,1014.8,hPa,OK,6375.0,meters,OK,2936.0,feet,OK,0.1,mm/hr,OK,1962.0,meters,OK,1575.0,meters,OK,1918.0,meters,OK
2025-01-26T20:16:10.671370,5.3,knots,OK,325.0,degrees,OK,18.7,knots,OK,24.5,°C,OK,12.9,°C,OK,1015.0,hPa,OK,7689.0,meters,OK,2162.0,feet,OK,0.0,mm/hr,OK,1660.0,meters,OK,1572.0,meters,OK,1771.0,meters,OK
2025-01-26T20:16:11.676271,5.9,knots,OK,283.0,degrees,OK,14.2,knots,OK,22.6,°C,OK,10.9,°C,OK,1013.9,hPa,OK,8265.0,meters,OK,1760.0,feet,OK,0.0,mm/hr,OK,1692.0,meters,OK,1570.0,meters,OK,1577.0,meters,OK
2025-01-26T20:16:12.680774,8.5,knots,OK,310.0,degrees,OK,15.7,knots,OK,19.4,°C,OK,17.9,°C,OK,1014.6,hPa,OK,5080.0,meters,OK,2189.0,feet,OK,0.4,mm/hr,OK,1990.0,meters,OK,1824.0,meters,OK,1987.0,meters,OK
2025-01-26T20:16:13.683890,5.3,knots,OK,142.0,degrees,OK,17.8,knots,OK,21.3,°C,OK,16.0,°C,OK,1013.8,hPa,OK,9155.0,meters,OK,1965.0,feet,OK,0.1,mm/hr,OK,1808.0,meters,OK,1912.0,meters,OK,1844.0,meters,OK
2025-01-26T20:16:14.687750,9.9,knots,OK,268.0,degrees,OK,17.9,knots,OK,16.3,°C,OK,18.9,°C,OK,1013.7,hPa,OK,9200.0,meters,OK,2696.0,feet,OK,0.2,mm/hr,OK,1661.0,meters,OK,1567.0,meters,OK,1976.0,meters,OK
2025-01-26T20:16:15.692074,9.3,knots,OK,326.0,degrees,OK,15.8,knots,OK,18.9,°C,OK,16.6,°C,OK,1014.8,hPa,OK,5062.0,meters,OK,1502.0,feet,OK,0.4,mm/hr,OK,1972.0,meters,OK,1754.0,meters,OK,1890.0,meters,OK
2025-01-26T20:16:16.696123,11.7,knots,OK,23.0,degrees,OK,14.7,knots,OK,19.2,°C,OK,16.6,°C,OK,1013.9,hPa,OK,9100.0,meters,OK,2785.0,feet,OK,0.1,mm/hr,OK,1979.0,meters,OK,1897.0,meters,OK,1588.0,meters,OK
2025-01-26T20:16:17.700412,6.8,knots,OK,219.0,degrees,OK,21.1,knots,OK,23.9,°C,OK,11.3,°C,OK,1015.0,hPa,OK,8436.0,meters,OK,2868.0,feet,OK,0.3,mm/hr,OK,1936.0,meters,OK,1692.0,meters,OK,1646.0,meters,OK
2025-01-26T20:16:18.705921,5.2,knots,OK,255.0,degrees,OK,16.1,knots,OK,23.0,°C,OK,19.4,°C,OK,1014.5,hPa,OK,5527.0,meters,OK,2686.0,feet,OK,0.4,mm/hr,OK,1955.0,meters,OK,1967.0,meters,OK,1774.0,meters,OK
2025-01-26T20:16:19.710374,6.0,knots,OK,284.0,degrees,OK,14.7,knots,OK,15.8,°C,OK,12.7,°C,OK,1015.0,hPa,OK,5492.0,meters,OK,1884.0,feet,OK,0.5,mm/hr,OK,1901.0,meters,OK,1612.0,meters,OK,1888.0,meters,OK
2025-01-26T20:16:20.714461,11.5,knots,OK,97.0,degrees,OK,18.1,knots,OK,16.8,°C,OK,19.0,°C,OK,1014.7,hPa,OK,6750.0,meters,OK,1010.0,feet,OK,0.3,mm/hr,OK,1839.0,meters,OK,1920.0,meters,OK,1674.0,meters,OK
2025-01-26T20:16:21.718242,12.6,knots,OK,135.0,degrees,OK,20.3,knots,OK,23.7,°C,OK,15.7,°C,OK,1013.7,hPa,OK,8633.0,meters,OK,2793.0,feet,OK,0.0,mm/hr,OK,1922.0,meters,OK,1522.0,meters,OK,1972.0,meters,OK
2025-01-26T20:16:22.722676,9.4,knots,OK,2.0,degrees,OK,17.4,knots,OK,20.5,°C,OK,18.1,°C,OK,1013.6,hPa,OK,5938.0,meters,OK,1296.0,feet,OK,0.3,mm/hr,OK,1768.0,meters,OK,1585.0,meters,OK,1772.0,meters,OK
2025-01-26T20:16:23.727060,7.7,knots,OK,4.0,degrees,OK,21.5,knots,OK,23.4,°C,OK,17.6,°C,OK,1013.2,hPa,OK,8212.0,meters,OK,1770.0,feet,OK,0.3,mm/hr,OK,1900.0,meters,OK,1874.0,meters,OK,1616.0,meters,OK
2025-01-26T20:16:24.731218,9.9,knots,OK,1.0,degrees,OK,11.0,knots,OK,22.9,°C,OK,10.3,°C,OK,1013.8,hPa,OK,5667.0,meters,OK,2508.0,feet,OK,0.0,mm/hr,OK,1802.0,meters,OK,1562.0,meters,OK,1968.0,meters,OK
2025-01-26T20:16:25.736847,11.1,knots,OK,222.0,degrees,OK,13.7,knots,OK,17.8,°C,OK,19.5,°C,OK,1013.5,hPa,OK,6249.0,meters,OK,1246.0,feet,OK,0.4,mm/hr,OK,1734.0,meters,OK,1827.0,meters,OK,1762.0,meters,OK
2025-01-26T20:16:26.740784,14.6,knots,OK,167.0,degrees,OK,24.6,knots,OK,24.5,°C,OK,16.7,°C,OK,1014.0,hPa,OK,8193.0,meters,OK,1909.0,feet,OK,0.3,mm/hr,OK,1876.0,meters,OK,1859.0,meters,OK,1883.0,meters,OK
2025-01-26T20:16:27.744086,13.3,knots,OK,295.0,degrees,OK,15.2,knots,OK,15.3,°C,OK,13.6,°C,OK,1013.8,hPa,OK,5055.0,meters,OK,1812.0,feet,OK,0.1,mm/hr,OK,1873.0,meters,OK,1902.0,meters,OK,1671.0,meters,OK
2025-01-26T20:16:28.748486,11.5,knots,OK,87.0,degrees,OK,14.6,knots,OK,15.3,°C,OK,13.6,°C,OK,1013.6,hPa,OK,7750.0,meters,OK,2182.0,feet,OK,0.3,mm/hr,OK,1701.0,meters,OK,1818.0,meters,OK,1932.0,meters,OK
2025-01-26T20:16:29.752903,14.0,knots,OK,170.0,degrees,OK,14.3,knots,OK,17.5,°C,OK,12.0,°C,OK,1013.7,hPa,OK,9372.0,meters,OK,1466.0,feet,OK,0.2,mm/hr,OK,1882.0,meters,OK,1974.0,meters,OK,1833.0,meters,OK
2025-01-26T20:16:30.756737,9.8,knots,OK,244.0,degrees,OK,16.7,knots,OK,17.7,°C,OK,13.4,°C,OK,1013.0,hPa,OK,8426.0,meters,OK,1350.0,feet,OK,0.1,mm/hr,OK,1535.0,meters,OK,1965.0,meters,OK,1668.0,meters,OK
2025-01-26T20:16:31.760604,12.1,knots,OK,40.0,degrees,OK,12.5,knots,OK,24.8,°C,OK,10.6,°C,OK,1014.5,hPa,OK,6343.0,meters,OK,2344.0,feet,OK,0.2,mm/hr,OK,1898.0,meters,OK,1962.0,meters,OK,1921.0,meters,OK
2025-01-26T20:16:32.765407,9.6,knots,OK,225.0,degrees,OK,16.0,knots,OK,19.5,°C,OK,19.8,°C,OK,1013.8,hPa,OK,8272.0,meters,OK,2797.0,feet,OK,0.2,mm/hr,OK,1585.0,meters,OK,1966.0,meters,OK,1613.0,meters,OK
2025-01-26T20:16:33.768528,8.6,knots,OK,345.0,degrees,OK,16.1,knots,OK,18.1,°C,OK,17.6,°C,OK,1014.2,hPa,OK,6490.0,meters,OK,2780.0,feet,OK,0.3,mm/hr,OK,1921.0,meters,OK,1674.0,meters,OK,1975.0,meters,OK
2025-01-26T20:16:34.771706,9.2,knots,OK,346.0,degrees,OK,13.5,knots,OK,23.9,°C,OK,10.9,°C,OK,1013.2,hPa,OK,9197.0,meters,OK,1748.0,feet,OK,0.4,mm/hr,OK,1756.0,meters,OK,1804.0,meters,OK,1535.0,meters,OK
2025-01-26T20:16:35.776434,13.9,knots,OK,213.0,degrees,OK,13.1,knots,OK,18.2,°C,OK,11.7,°C,OK,1014.2,hPa,OK,9183.0,meters,OK,2407.0,feet,OK,0.5,mm/hr,OK,1842.0,meters,OK,1558.0,meters,OK,1790.0,meters,OK
2025-01-26T20:16:36.781529,12.3,knots,OK,51.0,degrees,OK,18.4,knots,OK,19.1,°C,OK,19.4,°C,OK,1013.4,hPa,OK,7312.0,meters,OK,2844.0,feet,OK,0.4,mm/hr,OK,1746.0,meters,OK,1597.0,meters,OK,1951.0,meters,OK
2025-01-26T20:16:37.786275,6.6,knots,OK,253.0,degrees,OK,23.3,knots,OK,19.3,°C,OK,16.2,°C,OK,1013.4,hPa,OK,9507.0,meters,OK,2624.0,feet,OK,0.4,mm/hr,OK,1769.0,meters,OK,1871.0,meters,OK,1892.0,meters,OK
2025-01-26T20:16:38.790911,5.3,knots,OK,158.0,degrees,OK,17.1,knots,OK,16.9,°C,OK,14.8,°C,OK,1014.7,hPa,OK,7353.0,meters,OK,1236.0,feet,OK,0.5,mm/hr,OK,1760.0,meters,OK,1637.0,meters,OK,1918.0,meters,OK
2025-01-26T20:16:39.795079,13.9,knots,OK,305.0,degrees,OK,15.1,knots,OK,22.4,°C,OK,18.9,°C,OK,1014.0,hPa,OK,5040.0,meters,OK,1908.0,feet,OK,0.2,mm/hr,OK,1984.0,meters,OK,1748.0,meters,OK,1931.0,meters,OK
2025-01-26T20:16:40.799782,7.6,knots,OK,201.0,degrees,OK,14.1,knots,OK,19.4,°C,OK,11.2,°C,OK,1014.3,hPa,OK,9840.0,meters,OK,1915.0,feet,OK,0.5,mm/hr,OK,1760.0,meters,OK,1793.0,meters,OK,1806.0,meters,OK
2025-01-26T20:16:41.805157,9.0,knots,OK,193.0,degrees,OK,24.3,knots,OK,21.1,°C,OK,14.4,°C,OK,1014.8,hPa,OK,7857.0,meters,OK,2163.0,feet,OK,0.4,mm/hr,OK,1791.0,meters,OK,1859.0,meters,OK,1822.0,meters,OK
2025-01-26T20:16:42.810627,10.3,knots,OK,96.0,degrees,OK,23.6,knots,OK,17.5,°C,OK,14.0,°C,OK,1013.6,hPa,OK,6276.0,meters,OK,2258.0,feet,OK,0.2,mm/hr,OK,1541.0,meters,OK,1633.0,meters,OK,1780.0,meters,OK
2025-01-26T20:16:43.815139,6.6,knots,OK,358.0,degrees,OK,21.4,knots,OK,19.9,°C,OK,14.3,°C,OK,1013.7,hPa,OK,5856.0,meters,OK,1206.0,feet,OK,0.3,mm/hr,OK,1819.0,meters,OK,1609.0,meters,OK,1661.0,meters,OK
2025-01-26T20:16:44.820297,10.0,knots,OK,50.0,degrees,OK,15.4,knots,OK,15.2,°C,OK,10.1,°C,OK,1013.3,hPa,OK,6929.0,meters,OK,2174.0,feet,OK,0.5,mm/hr,OK,1870.0,meters,OK,1510.0,meters,OK,1818.0,meters,OK
2025-01-26T20:16:45.824806,6.8,knots,OK,104.0,degrees,OK,20.7,knots,OK,15.1,°C,OK,14.1,°C,OK,1013.8,hPa,OK,9852.0,meters,OK,1287.0,feet,OK,0.5,mm/hr,OK,1935.0,meters,OK,1957.0,meters,OK,1639.0,meters,OK
2025-01-26T20:16:46.829701,14.8,knots,OK,36.0,degrees,OK,22.8,knots,OK,24.7,°C,OK,11.1,°C,OK,1014.8,hPa,OK,5756.0,meters,OK,1565.0,feet,OK,0.2,mm/hr,OK,1916.0,meters,OK,1779.0,meters,OK,1568.0,meters,OK
2025-01-26T20:16:47.834524,12.3,knots,OK,287.0,degrees,OK,12.7,knots,OK,17.1,°C,OK,19.5,°C,OK,1013.7,hPa,OK,9327.0,meters,OK,1405.0,feet,OK,0.4,mm/hr,OK,1672.0,meters,OK,1644.0,meters,OK,1961.0,meters,OK
2025-01-26T20:16:48.839060,11.7,knots,OK,309.0,degrees,OK,14.9,knots,OK,17.7,°C,OK,13.2,°C,OK,1013.3,hPa,OK,9861.0,meters,OK,1416.0,feet,OK,0.2,mm/hr,OK,1528.0,meters,OK,1506.0,meters,OK,1566.0,meters,OK
2025-01-26T20:16:49.843559,10.3,knots,OK,160.0,degrees,OK,23.3,knots,OK,15.8,°C,OK,12.6,°C,OK,1014.8,hPa,OK,8547.0,meters,OK,1816.0,feet,OK,0.4,mm/hr,OK,1671.0,meters,OK,1780.0,meters,OK,1716.0,meters,OK
2025-01-26T20:16:50.848767,6.6,knots,OK,344.0,degrees,OK,21.4,knots,OK,19.0,°C,OK,10.1,°C,OK,1013.0,hPa,OK,6078.0,meters,OK,2552.0,feet,OK,0.4,mm/hr,OK,1751.0,meters,OK,1725.0,meters,OK,1519.0,meters,OK
2025-01-26T20:16:51.853602,6.8,knots,OK,253.0,degrees,OK,12.5,knots,OK,19.9,°C,OK,17.6,°C,OK,1013.6,hPa,OK,7174.0,meters,OK,1610.0,feet,OK,0.2,mm/hr,OK,1820.0,meters,OK,1546.0,meters,OK,1634.0,meters,OK
2025-01-26T20:16:52.857261,9.5,knots,OK,263.0,degrees,OK,20.6,knots,OK,24.9,°C,OK,15.8,°C,OK,1014.3,hPa,OK,8725.0,meters,OK,2095.0,feet,OK,0.4,mm/hr,OK,1973.0,meters,OK,1837.0,meters,OK,1814.0,meters,OK
2025-01-26T20:16:53.861656,11.7,knots,OK,81.0,degrees,OK,16.7,knots,OK,17.4,°C,OK,20.0,°C,OK,1014.2,hPa,OK,9006.0,meters,OK,1928.0,feet,OK,0.4,mm/hr,OK,1734.0,meters,OK,1899.0,meters,OK,1558.0,meters,OK
2025-01-26T20:16:54.866222,10.1,knots,OK,149.0,degrees,OK,22.2,knots,OK,15.4,°C,OK,14.3,°C,OK,1013.5,hPa,OK,8860.0,meters,OK,1635.0,feet,OK,0.3,mm/hr,OK,1943.0,meters,OK,1925.0,meters,OK,1718.0,meters,OK
2025-01-26T20:16:55.870074,13.3,knots,OK,256.0,degrees,OK,21.0,knots,OK,17.4,°C,OK,14.4,°C,OK,1014.2,hPa,OK,6826.0,meters,OK,2127.0,feet,OK,0.3,mm/hr,OK,1562.0,meters,OK,1884.0,meters,OK,1604.0,meters,OK
2025-01-26T20:16:56.873609,5.4,knots,OK,290.0,degrees,OK,22.6,knots,OK,19.0,°C,OK,17.7,°C,OK,1013.4,hPa,OK,6417.0,meters,OK,2651.0,feet,OK,0.0,mm/hr,OK,1927.0,meters,OK,1588.0,meters,OK,1612.0,meters,OK
2025-01-26T20:16:57.877750,12.0,knots,OK,272.0,degrees,OK,18.0,knots,OK,19.3,°C,OK,10.9,°C,OK,1013.5,hPa,OK,7911.0,meters,OK,2329.0,feet,OK,0.1,mm/hr,OK,1958.0,meters,OK,1570.0,meters,OK,1824.0,meters,OK
2025-01-26T20:16:58.881360,6.9,knots,OK,129.0,degrees,OK,10.2,knots,OK,24.1,°C,OK,16.2,°C,OK,1013.5,hPa,OK,8362.0,meters,OK,1950.0,feet,OK,0.3,mm/hr,OK,1571.0,meters,OK,1832.0,meters,OK,1690.0,meters,OK
2025-01-26T20:16:59.885802,12.0,knots,OK,73.0,degrees,OK,11.6,knots,OK,24.5,°C,OK,11.9,°C,OK,1013.2,hPa,OK,6740.0,meters,OK,2385.0,feet,OK,0.1,mm/hr,OK,1649.0,meters,OK,1732.0,meters,OK,1938.0,meters,OK
2025-01-26T20:17:00.891108,9.9,knots,OK,204.0,degrees,OK,10.4,knots,OK,22.6,°C,OK,16.8,°C,OK,1013.5,hPa,OK,7745.0,meters,OK,1233.0,feet,OK,0.1,mm/hr,OK,1975.0,meters,OK,1997.0,meters,OK,1543.0,meters,OK
2025-01-26T20:17:01.896536,6.1,knots,OK,256.0,degrees,OK,11.8,knots,OK,23.4,°C,OK,16.4,°C,OK,1013.6,hPa,OK,8514.0,meters,OK,2140.0,feet,OK,0.1,mm/hr,OK,1738.0,meters,OK,1773.0,meters,OK,1675.0,meters,OK
2025-01-26T20:17:02.901690,13.0,knots,OK,290.0,degrees,OK,21.1,knots,OK,15.2,°C,OK,18.0,°C,OK,1014.8,hPa,OK,9088.0,meters,OK,1744.0,feet,OK,0.1,mm/hr,OK,1781.0,meters,OK,1698.0,meters,OK,1588.0,meters,OK
2025-01-26T20:17:03.907168,13.0,knots,OK,259.0,degrees,OK,19.9,knots,OK,15.2,°C,OK,10.7,°C,OK,1013.1,hPa,OK,7421.0,meters,OK,2726.0,feet,OK,0.3,mm/hr,OK,1697.0,meters,OK,1645.0,meters,OK,1850.0,meters,OK
2025-01-26T20:17:04.911778,7.5,knots,OK,242.0,degrees,OK,23.1,knots,OK,19.7,°C,OK,16.1,°C,OK,1013.8,hPa,OK,6959.0,meters,OK,2355.0,feet,OK,0.3,mm/hr,OK,1794.0,meters,OK,1709.0,meters,OK,1606.0,meters,OK
2025-01-26T20:17:05.915841,8.5,knots,OK,355.0,degrees,OK,20.3,knots,OK,19.8,°C,OK,14.4,°C,OK,1014.5,hPa,OK,9099.0,meters,OK,1879.0,feet,OK,0.2,mm/hr,OK,1809.0,meters,OK,1608.0,meters,OK,1982.0,meters,OK
2025-01-26T20:17:06.920746,12.3,knots,OK,34.0,degrees,OK,17.7,knots,OK,20.2,°C,OK,11.0,°C,OK,1013.7,hPa,OK,8964.0,meters,OK,1152.0,feet,OK,0.4,mm/hr,OK,1641.0,meters,OK,1884.0,meters,OK,1839.0,meters,OK
2025-01-26T20:17:07.925569,8.9,knots,OK,233.0,degrees,OK,20.5,knots,OK,20.5,°C,OK,16.9,°C,OK,1015.0,hPa,OK,9240.0,meters,OK,1154.0,feet,OK,0.3,mm/hr,OK,1630.0,meters,OK,1880.0,meters,OK,1688.0,meters,OK
2025-01-26T20:17:08.930391,12.8,knots,OK,322.0,degrees,OK,13.9,knots,OK,22.5,°C,OK,15.3,°C,OK,1013.6,hPa,OK,6846.0,meters,OK,2591.0,feet,OK,0.2,mm/hr,OK,1911.0,meters,OK,1679.0,meters,OK,1848.0,meters,OK
2025-01-26T20:17:09.934863,10.6,knots,OK,46.0,degrees,OK,22.4,knots,OK,20.4,°C,OK,13.8,°C,OK,1014.4,hPa,OK,6652.0,meters,OK,1682.0,feet,OK,0.3,mm/hr,OK,1679.0,meters,OK,1912.0,meters,OK,1504.0,meters,OK
2025-01-26T20:17:10.938602,5.1,knots,OK,14.0,degrees,OK,20.5,knots,OK,22.5,°C,OK,11.2,°C,OK,1014.5,hPa,OK,6561.0,meters,OK,2772.0,feet,OK,0.5,mm/hr,OK,1610.0,meters,OK,1515.0,meters,OK,1562.0,meters,OK
2025-01-26T20:17:11.942291,12.1,knots,OK,287.0,degrees,OK,11.6,knots,OK,16.3,°C,OK,13.7,°C,OK,1014.0,hPa,OK,9510.0,meters,OK,1385.0,feet,OK,0.2,mm/hr,OK,1895.0,meters,OK,1713.0,meters,OK,1581.0,meters,OK
2025-01-26T20:17:12.947782,9.5,knots,OK,44.0,degrees,OK,18.7,knots,OK,24.1,°C,OK,15.5,°C,OK,1014.6,hPa,OK,6056.0,meters,OK,2578.0,feet,OK,0.1,mm/hr,OK,1905.0,meters,OK,1759.0,meters,OK,1715.0,meters,OK
2025-01-26T20:17:13.952274,9.3,knots,OK,44.0,degrees,OK,21.3,knots,OK,23.1,°C,OK,14.4,°C,OK,1014.7,hPa,OK,9009.0,meters,OK,2009.0,feet,OK,0.2,mm/hr,OK,1768.0,meters,OK,1862.0,meters,OK,1513.0,meters,OK
2025-01-26T20:17:14.957034,11.1,knots,OK,286.0,degrees,OK,15.4,knots,OK,19.6,°C,OK,10.3,°C,OK,1014.0,hPa,OK,7624.0,meters,OK,2236.0,feet,OK,0.2,mm/hr,OK,1769.0,meters,OK,1842.0,meters,OK,1884.0,meters,OK
2025-01-26T20:17:15.961571,13.5,knots,OK,42.0,degrees,OK,20.1,knots,OK,23.0,°C,OK,17.9,°C,OK,1013.5,hPa,OK,6851.0,meters,OK,2410.0,feet,OK,0.1,mm/hr,OK,1555.0,meters,OK,1570.0,meters,OK,1808.0,meters,OK
2025-01-26T20:17:16.966975,8.5,knots,OK,61.0,degrees,OK,12.5,knots,OK,21.8,°C,OK,18.9,°C,OK,1013.4,hPa,OK,7475.0,meters,OK,1843.0,feet,OK,0.1,mm/hr,OK,1641.0,meters,OK,1848.0,meters,OK,1711.0,meters,OK
2025-01-26T20:17:17.971492,9.3,knots,OK,254.0,degrees,OK,12.5,knots,OK,15.6,°C,OK,17.2,°C,OK,1013.5,hPa,OK,6750.0,meters,OK,2210.0,feet,OK,0.5,mm/hr,OK,1738.0,meters,OK,1801.0,meters,OK,1990.0,meters,OK
2025-01-26T20:17:18.974798,12.7,knots,OK,137.0,degrees,OK,17.5,knots,OK,18.5,°C,OK,17.0,°C,OK,1014.9,hPa,OK,5058.0,meters,OK,2311.0,feet,OK,0.5,mm/hr,OK,1609.0,meters,OK,1817.0,meters,OK,1836.0,meters,OK
2025-01-26T20:17:19.979575,14.0,knots,OK,35.0,degrees,OK,14.9,knots,OK,22.2,°C,OK,13.9,°C,OK,1013.9,hPa,OK,5622.0,meters,OK,2827.0,feet,OK,0.3,mm/hr,OK,1626.0,meters,OK,1608.0,meters,OK,1861.0,meters,OK
2025-01-26T20:17:20.984078,11.4,knots,OK,121.0,degrees,OK,14.8,knots,OK,18.1,°C,OK,13.4,°C,OK,1014.2,hPa,OK,6389.0,meters,OK,2344.0,feet,OK,0.3,mm/hr,OK,1830.0,meters,OK,1750.0,meters,OK,1599.0,meters,OK
2025-01-26T20:17:21.988637,14.7,knots,OK,235.0,degrees,OK,10.2,knots,OK,23.2,°C,OK,17.1,°C,OK,1014.9,hPa,OK,5118.0,meters,OK,1880.0,feet,OK,0.5,mm/hr,OK,1728.0,meters,OK,1835.0,meters,OK,1961.0,meters,OK
2025-01-26T20:17:22.993929,13.2,knots,OK,257.0,degrees,OK,13.9,knots,OK,23.6,°C,OK,18.1,°C,OK,1013.8,hPa,OK,6994.0,meters,OK,1517.0,feet,OK,0.3,mm/hr,OK,1653.0,meters,OK,1872.0,meters,OK,1778.0,meters,OK
2025-01-26T20:17:23.998346,8.2,knots,OK,84.0,degrees,OK,20.9,knots,OK,15.9,°C,OK,11.4,°C,OK,1014.3,hPa,OK,6077.0,meters,OK,2586.0,feet,OK,0.4,mm/hr,OK,1976.0,meters,OK,1845.0,meters,OK,1508.0,meters,OK
2025-01-26T20:17:25.002599,14.5,knots,OK,69.0,degrees,OK,23.3,knots,OK,18.2,°C,OK,13.5,°C,OK,1013.6,hPa,OK,7274.0,meters,OK,1047.0,feet,OK,0.5,mm/hr,OK,1867.0,meters,OK,1888.0,meters,OK,1561.0,meters,OK
2025-01-26T20:17:26.006533,13.7,knots,OK,335.0,degrees,OK,16.5,knots,OK,20.7,°C,OK,17.2,°C,OK,1014.3,hPa,OK,8346.0,meters,OK,1872.0,feet,OK,0.3,mm/hr,OK,1893.0,meters,OK,1959.0,meters,OK,1845.0,meters,OK
2025-01-26T20:17:27.011436,6.5,knots,OK,16.0,degrees,OK,18.6,knots,OK,23.9,°C,OK,11.9,°C,OK,1014.4,hPa,OK,8017.0,meters,OK,1458.0,feet,OK,0.1,mm/hr,OK,1961.0,meters,OK,1759.0,meters,OK,1805.0,meters,OK
2025-01-26T20:17:28.016044,8.3,knots,OK,311.0,degrees,OK,19.7,knots,OK,16.9,°C,OK,17.6,°C,OK,1014.4,hPa,OK,7629.0,meters,OK,2252.0,feet,OK,0.3,mm/hr,OK,1751.0,meters,OK,1511.0,meters,OK,1870.0,meters,OK
2025-01-26T20:17:29.020338,7.9,knots,OK,281.0,degrees,OK,14.9,knots,OK,21.9,°C,OK,18.6,°C,OK,1013.1,hPa,OK,6970.0,meters,OK,2851.0,feet,OK,0.0,mm/hr,OK,1811.0,meters,OK,1941.0,meters,OK,1562.0,meters,OK
2025-01-26T20:17:30.025149,8.8,knots,OK,144.0,degrees,OK,20.7,knots,OK,23.8,°C,OK,13.4,°C,OK,1013.4,hPa,OK,9106.0,meters,OK,1970.0,feet,OK,0.2,mm/hr,OK,1847.0,meters,OK,1769.0,meters,OK,1860.0,meters,OK
2025-01-26T20:17:31.029894,13.4,knots,OK,1.0,degrees,OK,22.3,knots,OK,20.9,°C,OK,17.1,°C,OK,1013.0,hPa,OK,8570.0,meters,OK,1211.0,feet,OK,0.2,mm/hr,OK,1608.0,meters,OK,1970.0,meters,OK,1621.0,meters,OK
2025-01-26T20:17:32.033589,14.4,knots,OK,190.0,degrees,OK,18.7,knots,OK,18.6,°C,OK,14.9,°C,OK,1013.7,hPa,OK,7613.0,meters,OK,2398.0,feet,OK,0.2,mm/hr,OK,1543.0,meters,OK,1728.0,meters,OK,1668.0,meters,OK
2025-01-26T20:17:33.038242,8.2,knots,OK,262.0,degrees,OK,17.1,knots,OK,23.4,°C,OK,11.4,°C,OK,1014.8,hPa,OK,7365.0,meters,OK,1720.0,feet,OK,0.1,mm/hr,OK,1944.0,meters,OK,1828.0,meters,OK,1678.0,meters,OK
2025-01-26T20:17:34.042936,8.5,knots,OK,259.0,degrees,OK,16.6,knots,OK,16.1,°C,OK,11.6,°C,OK,1014.8,hPa,OK,7353.0,meters,OK,2611.0,feet,OK,0.1,mm/hr,OK,1902.0,meters,OK,1799.0,meters,OK,1910.0,meters,OK
2025-01-26T20:17:35.046602,13.7,knots,OK,77.0,degrees,OK,16.6,knots,OK,19.2,°C,OK,19.6,°C,OK,1013.4,hPa,OK,8434.0,meters,OK,2169.0,feet,OK,0.3,mm/hr,OK,1809.0,meters,OK,1986.0,meters,OK,1864.0,meters,OK
2025-01-26T20:17:36.050525,9.5,knots,OK,245.0,degrees,OK,24.9,knots,OK,23.1,°C,OK,12.8,°C,OK,1014.1,hPa,OK,5011.0,meters,OK,1140.0,feet,OK,0.2,mm/hr,OK,1745.0,meters,OK,1897.0,meters,OK,1583.0,meters,OK
2025-01-26T20:17:37.054696,9.1,knots,OK,140.0,degrees,OK,23.4,knots,OK,19.1,°C,OK,16.5,°C,OK,1013.3,hPa,OK,9852.0,meters,OK,1745.0,feet,OK,0.3,mm/hr,OK,1884.0,meters,OK,1902.0,meters,OK,1667.0,meters,OK
2025-01-26T20:17:38.058656,5.1,knots,OK,252.0,degrees,OK,20.9,knots,OK,16.4,°C,OK,12.8,°C,OK,1014.1,hPa,OK,8876.0,meters,OK,1486.0,feet,OK,0.2,mm/hr,OK,1662.0,meters,OK,1665.0,meters,OK,1923.0,meters,OK
2025-01-26T20:17:39.063804,12.8,knots,OK,184.0,degrees,OK,16.9,knots,OK,17.3,°C,OK,16.7,°C,OK,1014.6,hPa,OK,9913.0,meters,OK,1210.0,feet,OK,0.2,mm/hr,OK,1916.0,meters,OK,1560.0,meters,OK,1927.0,meters,OK
2025-01-26T20:17:40.068307,8.4,knots,OK,162.0,degrees,OK,16.9,knots,OK,15.7,°C,OK,15.7,°C,OK,1013.6,hPa,OK,9346.0,meters,OK,1961.0,feet,OK,0.2,mm/hr,OK,1991.0,meters,OK,1845.0,meters,OK,1716.0,meters,OK
2025-01-26T20:17:41.073971,7.2,knots,OK,139.0,degrees,OK,17.0,knots,OK,23.3,°C,OK,16.0,°C,OK,1013.0,hPa,OK,5475.0,meters,OK,1676.0,feet,OK,0.4,mm/hr,OK,1643.0,meters,OK,1786.0,meters,OK,1903.0,meters,OK
2025-01-26T20:17:42.078408,6.3,knots,OK,121.0,degrees,OK,24.9,knots,OK,19.3,°C,OK,17.7,°C,OK,1015.0,hPa,OK,7811.0,meters,OK,1738.0,feet,OK,0.1,mm/hr,OK,1908.0,meters,OK,1825.0,meters,OK,1820.0,meters,OK
2025-01-26T20:17:43.082492,5.1,knots,OK,140.0,degrees,OK,21.6,knots,OK,20.3,°C,OK,10.9,°C,OK,1013.7,hPa,OK,7132.0,meters,OK,2327.0,feet,OK,0.4,mm/hr,OK,1952.0,meters,OK,1792.0,meters,OK,1536.0,meters,OK
2025-01-26T20:17:44.087034,9.7,knots,OK,240.0,degrees,OK,12.4,knots,OK,20.7,°C,OK,10.1,°C,OK,1014.4,hPa,OK,9551.0,meters,OK,2433.0,feet,OK,0.2,mm/hr,OK,1885.0,meters,OK,1820.0,meters,OK,1760.0,meters,OK
2025-01-26T20:17:45.092015,7.3,knots,OK,307.0,degrees,OK,21.7,knots,OK,16.1,°C,OK,10.9,°C,OK,1013.3,hPa,OK,8602.0,meters,OK,2166.0,feet,OK,0.4,mm/hr,OK,1706.0,meters,OK,1530.0,meters,OK,1994.0,meters,OK
2025-01-26T20:17:46.097132,9.2,knots,OK,149.0,degrees,OK,24.8,knots,OK,23.7,°C,OK,18.0,°C,OK,1013.9,hPa,OK,7686.0,meters,OK,2354.0,feet,OK,0.4,mm/hr,OK,1694.0,meters,OK,1979.0,meters,OK,1915.0,meters,OK
2025-01-26T20:17:47.101869,15.0,knots,OK,346.0,degrees,OK,10.8,knots,OK,15.9,°C,OK,11.9,°C,OK,1014.0,hPa,OK,8293.0,meters,OK,1334.0,feet,OK,0.3,mm/hr,OK,1573.0,meters,OK,1645.0,meters,OK,1725.0,meters,OK
2025-01-26T20:17:48.107499,8.8,knots,OK,338.0,degrees,OK,16.7,knots,OK,20.0,°C,OK,12.3,°C,OK,1014.4,hPa,OK,7026.0,meters,OK,2234.0,feet,OK,0.3,mm/hr,OK,1724.0,meters,OK,1573.0,meters,OK,1824.0,meters,OK
2025-01-26T20:17:49.111923,6.2,knots,OK,301.0,degrees,OK,23.2,knots,OK,16.5,°C,OK,15.8,°C,OK,1013.6,hPa,OK,7678.0,meters,OK,2892.0,feet,OK,0.2,mm/hr,OK,1708.0,meters,OK,1849.0,meters,OK,1532.0,meters,OK
2025-01-26T20:17:50.115968,9.0,knots,OK,122.0,degrees,OK,18.0,knots,OK,24.2,°C,OK,16.3,°C,OK,1013.6,hPa,OK,7147.0,meters,OK,2366.0,feet,OK,0.2,mm/hr,OK,1828.0,meters,OK,1743.0,meters,OK,1985.0,meters,OK
2025-01-26T20:17:51.119912,12.2,knots,OK,110.0,degrees,OK,14.1,knots,OK,18.3,°C,OK,10.5,°C,OK,1014.2,hPa,OK,7095.0,meters,OK,1015.0,feet,OK,0.5,mm/hr,OK,1716.0,meters,OK,1983.0,meters,OK,1657.0,meters,OK
2025-01-26T20:17:52.124959,12.9,knots,OK,178.0,degrees,OK,17.7,knots,OK,15.3,°C,OK,12.6,°C,OK,1014.4,hPa,OK,9371.0,meters,OK,1591.0,feet,OK,0.1,mm/hr,OK,1629.0,meters,OK,1979.0,meters,OK,1927.0,meters,OK
2025-01-26T20:17:53.129863,8.9,knots,OK,67.0,degrees,OK,18.8,knots,OK,16.9,°C,OK,14.9,°C,OK,1013.3,hPa,OK,8440.0,meters,OK,2257.0,feet,OK,0.2,mm/hr,OK,1999.0,meters,OK,1952.0,meters,OK,1929.0,meters,OK
2025-01-26T20:17:54.134442,12.3,knots,OK,89.0,degrees,OK,14.2,knots,OK,16.5,°C,OK,14.8,°C,OK,1015.0,hPa,OK,7251.0,meters,OK,1548.0,feet,OK,0.0,mm/hr,OK,1752.0,meters,OK,1805.0,meters,OK,1642.0,meters,OK
2025-01-26T20:17:55.139134,12.1,knots,OK,156.0,degrees,OK,21.2,knots,OK,15.5,°C,OK,10.4,°C,OK,1014.2,hPa,OK,9887.0,meters,OK,1509.0,feet,OK,0.2,mm/hr,OK,1766.0,meters,OK,1961.0,meters,OK,1996.0,meters,OK
2025-01-26T20:17:56.143565,13.3,knots,OK,102.0,degrees,OK,17.6,knots,OK,17.8,°C,OK,15.1,°C,OK,1013.8,hPa,OK,8542.0,meters,OK,2630.0,feet,OK,0.0,mm/hr,OK,1618.0,meters,OK,1795.0,meters,OK,1930.0,meters,OK
2025-01-26T20:17:57.153972,13.7,knots,OK,38.0,degrees,OK,10.4,knots,OK,17.3,°C,OK,16.1,°C,OK,1013.3,hPa,OK,9937.0,meters,OK,1817.0,feet,OK,0.5,mm/hr,OK,1682.0,meters,OK,1798.0,meters,OK,1690.0,meters,OK
2025-01-26T20:17:58.158910,9.5,knots,OK,351.0,degrees,OK,21.7,knots,OK,15.9,°C,OK,19.8,°C,OK,1013.5,hPa,OK,8567.0,meters,OK,1710.0,feet,OK,0.5,mm/hr,OK,1823.0,meters,OK,1706.0,meters,OK,1860.0,meters,OK
2025-01-26T20:17:59.162965,5.2,knots,OK,196.0,degrees,OK,22.9,knots,OK,24.6,°C,OK,12.0,°C,OK,1014.7,hPa,OK,7027.0,meters,OK,2845.0,feet,OK,0.5,mm/hr,OK,1679.0,meters,OK,1780.0,meters,OK,1880.0,meters,OK
2025-01-26T20:18:00.167055,7.6,knots,OK,281.0,degrees,OK,15.5,knots,OK,16.3,°C,OK,16.3,°C,OK,1013.6,hPa,OK,7774.0,meters,OK,1499.0,feet,OK,0.3,mm/hr,OK,1851.0,meters,OK,1962.0,meters,OK,1631.0,meters,OK
2025-01-26T20:18:01.171073,6.3,knots,OK,192.0,degrees,OK,24.7,knots,OK,22.7,°C,OK,15.8,°C,OK,1015.0,hPa,OK,5614.0,meters,OK,2551.0,feet,OK,0.4,mm/hr,OK,1861.0,meters,OK,1549.0,meters,OK,1867.0,meters,OK
2025-01-26T20:18:02.175110,13.2,knots,OK,125.0,degrees,OK,16.0,knots,OK,17.7,°C,OK,13.7,°C,OK,1014.4,hPa,OK,9916.0,meters,OK,1751.0,feet,OK,0.3,mm/hr,OK,1730.0,meters,OK,1719.0,meters,OK,1938.0,meters,OK
2025-01-26T20:18:03.178474,8.4,knots,OK,336.0,degrees,OK,14.0,knots,OK,17.2,°C,OK,17.6,°C,OK,1013.8,hPa,OK,7766.0,meters,OK,2755.0,feet,OK,0.0,mm/hr,OK,1547.0,meters,OK,1865.0,meters,OK,1721.0,meters,OK
2025-01-26T20:18:04.183084,11.6,knots,OK,263.0,degrees,OK,24.4,knots,OK,17.5,°C,OK,12.8,°C,OK,1014.5,hPa,OK,9929.0,meters,OK,1195.0,feet,OK,0.2,mm/hr,OK,1633.0,meters,OK,1622.0,meters,OK,1561.0,meters,OK
2025-01-26T20:18:05.187944,10.5,knots,OK,73.0,degrees,OK,23.1,knots,OK,16.0,°C,OK,16.9,°C,OK,1014.0,hPa,OK,9437.0,meters,OK,1191.0,feet,OK,0.5,mm/hr,OK,1926.0,meters,OK,1945.0,meters,OK,1857.0,meters,OK
2025-01-26T20:18:06.192591,5.4,knots,OK,314.0,degrees,OK,16.9,knots,OK,20.1,°C,OK,16.5,°C,OK,1013.5,hPa,OK,9754.0,meters,OK,2839.0,feet,OK,0.2,mm/hr,OK,1845.0,meters,OK,1708.0,meters,OK,1713.0,meters,OK
2025-01-26T20:18:07.197328,11.0,knots,OK,277.0,degrees,OK,14.9,knots,OK,23.7,°C,OK,14.7,°C,OK,1013.1,hPa,OK,9975.0,meters,OK,2033.0,feet,OK,0.5,mm/hr,OK,1668.0,meters,OK,1509.0,meters,OK,1851.0,meters,OK
2025-01-26T20:18:08.201530,8.5,knots,OK,236.0,degrees,OK,20.3,knots,OK,20.2,°C,OK,12.2,°C,OK,1013.1,hPa,OK,9247.0,meters,OK,1880.0,feet,OK,0.2,mm/hr,OK,1862.0,meters,OK,1605.0,meters,OK,1699.0,meters,OK
2025-01-26T20:18:09.205553,8.2,knots,OK,182.0,degrees,OK,23.0,knots,OK,24.1,°C,OK,17.0,°C,OK,1013.4,hPa,OK,9612.0,meters,OK,1936.0,feet,OK,0.0,mm/hr,OK,1573.0,meters,OK,1866.0,meters,OK,1876.0,meters,OK
2025-01-26T20:18:10.209446,8.6,knots,OK,106.0,degrees,OK,20.6,knots,OK,17.8,°C,OK,17.1,°C,OK,1014.2,hPa,OK,9677.0,meters,OK,2834.0,feet,OK,0.1,mm/hr,OK,1546.0,meters,OK,1828.0,meters,OK,1723.0,meters,OK
2025-01-26T20:18:11.213740,7.0,knots,OK,324.0,degrees,OK,17.0,knots,OK,18.6,°C,OK,11.8,°C,OK,1015.0,hPa,OK,8282.0,meters,OK,2910.0,feet,OK,0.1,mm/hr,OK,1721.0,meters,OK,1738.0,meters,OK,1779.0,meters,OK
2025-01-26T20:18:12.217345,9.8,knots,OK,62.0,degrees,OK,21.3,knots,OK,15.6,°C,OK,18.5,°C,OK,1014.1,hPa,OK,8022.0,meters,OK,1544.0,feet,OK,0.0,mm/hr,OK,1984.0,meters,OK,1937.0,meters,OK,1899.0,meters,OK
2025-01-26T20:18:13.222252,7.3,knots,OK,16.0,degrees,OK,18.3,knots,OK,22.4,°C,OK,19.0,°C,OK,1013.7,hPa,OK,7991.0,meters,OK,2536.0,feet,OK,0.1,mm/hr,OK,1889.0,meters,OK,1753.0,meters,OK,1632.0,meters,OK
2025-01-26T20:18:14.227039,11.2,knots,OK,253.0,degrees,OK,10.1,knots,OK,18.2,°C,OK,10.6,°C,OK,1013.2,hPa,OK,7665.0,meters,OK,1313.0,feet,OK,0.3,mm/hr,OK,1799.0,meters,OK,1794.0,meters,OK,1876.0,meters,OK
2025-01-26T20:18:15.231225,11.3,knots,OK,31.0,degrees,OK,14.5,knots,OK,22.9,°C,OK,14.9,°C,OK,1014.3,hPa,OK,8636.0,meters,OK,2090.0,feet,OK,0.0,mm/hr,OK,1505.0,meters,OK,1893.0,meters,OK,1595.0,meters,OK
2025-01-26T20:18:16.235745,14.8,knots,OK,107.0,degrees,OK,18.7,knots,OK,18.7,°C,OK,18.3,°C,OK,1013.4,hPa,OK,7657.0,meters,OK,1799.0,feet,OK,0.1,mm/hr,OK,1727.0,meters,OK,1537.0,meters,OK,1546.0,meters,OK
2025-01-26T20:18:17.239708,6.6,knots,OK,68.0,degrees,OK,19.6,knots,OK,18.8,°C,OK,11.0,°C,OK,1013.7,hPa,OK,9450.0,meters,OK,2466.0,feet,OK,0.2,mm/hr,OK,1957.0,meters,OK,1935.0,meters,OK,1874.0,meters,OK
2025-01-26T20:18:18.244404,10.5,knots,OK,112.0,degrees,OK,17.1,knots,OK,20.3,°C,OK,18.3,°C,OK,1014.6,hPa,OK,8749.0,meters,OK,1071.0,feet,OK,0.4,mm/hr,OK,1948.0,meters,OK,1740.0,meters,OK,1651.0,meters,OK
2025-01-26T20:18:19.249010,12.3,knots,OK,309.0,degrees,OK,16.1,knots,OK,20.1,°C,OK,13.5,°C,OK,1014.6,hPa,OK,5018.0,meters,OK,1685.0,feet,OK,0.3,mm/hr,OK,1568.0,meters,OK,1508.0,meters,OK,1745.0,meters,OK
2025-01-26T20:18:20.253395,14.5,knots,OK,80.0,degrees,OK,18.9,knots,OK,21.5,°C,OK,14.7,°C,OK,1013.6,hPa,OK,7057.0,meters,OK,1657.0,feet,OK,0.2,mm/hr,OK,1757.0,meters,OK,1705.0,meters,OK,1545.0,meters,OK
2025-01-26T20:18:21.257285,5.1,knots,OK,292.0,degrees,OK,20.4,knots,OK,24.2,°C,OK,18.6,°C,OK,1014.3,hPa,OK,5964.0,meters,OK,2723.0,feet,OK,0.3,mm/hr,OK,1884.0,meters,OK,1988.0,meters,OK,1561.0,meters,OK
2025-01-26T20:18:22.260763,9.7,knots,OK,265.0,degrees,OK,19.1,knots,OK,23.1,°C,OK,14.6,°C,OK,1014.5,hPa,OK,9427.0,meters,OK,1534.0,feet,OK,0.5,mm/hr,OK,1736.0,meters,OK,1769.0,meters,OK,1607.0,meters,OK
2025-01-26T20:18:23.265359,9.8,knots,OK,269.0,degrees,OK,23.6,knots,OK,24.3,°C,OK,18.1,°C,OK,1013.4,hPa,OK,7757.0,meters,OK,1996.0,feet,OK,0.2,mm/hr,OK,1916.0,meters,OK,1673.0,meters,OK,1807.0,meters,OK
2025-01-26T20:18:24.269411,11.7,knots,OK,122.0,degrees,OK,16.5,knots,OK,22.9,°C,OK,11.4,°C,OK,1013.5,hPa,OK,8631.0,meters,OK,1158.0,feet,OK,0.1,mm/hr,OK,1766.0,meters,OK,1866.0,meters,OK,1974.0,meters,OK
2025-01-26T20:18:25.273777,12.8,knots,OK,29.0,degrees,OK,10.1,knots,OK,20.1,°C,OK,14.7,°C,OK,1013.9,hPa,OK,5009.0,meters,OK,1933.0,feet,OK,0.4,mm/hr,OK,1539.0,meters,OK,1903.0,meters,OK,1877.0,meters,OK
2025-01-26T20:18:26.278299,8.3,knots,OK,155.0,degrees,OK,18.6,knots,OK,24.9,°C,OK,12.1,°C,OK,1013.2,hPa,OK,5332.0,meters,OK,1087.0,feet,OK,0.3,mm/hr,OK,1776.0,meters,OK,1829.0,meters,OK,1846.0,meters,OK
2025-01-26T20:18:27.282896,8.8,knots,OK,96.0,degrees,OK,13.7,knots,OK,19.7,°C,OK,15.4,°C,OK,1013.6,hPa,OK,7642.0,meters,OK,2968.0,feet,OK,0.4,mm/hr,OK,1914.0,meters,OK,1898.0,meters,OK,1745.0,meters,OK
2025-01-26T20:18:28.287425,9.1,knots,OK,10.0,degrees,OK,15.9,knots,OK,21.6,°C,OK,15.8,°C,OK,1013.2,hPa,OK,9612.0,meters,OK,1528.0,feet,OK,0.3,mm/hr,OK,1835.0,meters,OK,1682.0,meters,OK,1643.0,meters,OK
2025-01-26T20:18:29.292946,10.9,knots,OK,215.0,degrees,OK,23.3,knots,OK,16.7,°C,OK,13.2,°C,OK,1014.5,hPa,OK,9177.0,meters,OK,2604.0,feet,OK,0.3,mm/hr,OK,1525.0,meters,OK,1868.0,meters,OK,1592.0,meters,OK
2025-01-26T20:18:30.298158,12.4,knots,OK,60.0,degrees,OK,22.5,knots,OK,19.8,°C,OK,14.8,°C,OK,1014.6,hPa,OK,7280.0,meters,OK,2223.0,feet,OK,0.3,mm/hr,OK,1980.0,meters,OK,1513.0,meters,OK,1888.0,meters,OK
2025-01-26T20:18:31.302783,11.0,knots,OK,36.0,degrees,OK,16.2,knots,OK,21.4,°C,OK,10.2,°C,OK,1013.1,hPa,OK,7959.0,meters,OK,2787.0,feet,OK,0.1,mm/hr,OK,1954.0,meters,OK,1913.0,meters,OK,1975.0,meters,OK
2025-01-26T20:18:32.307963,9.3,knots,OK,304.0,degrees,OK,13.8,knots,OK,16.3,°C,OK,17.8,°C,OK,1013.7,hPa,OK,7048.0,meters,OK,2601.0,feet,OK,0.4,mm/hr,OK,1533.0,meters,OK,1520.0,meters,OK,1839.0,meters,OK
2025-01-26T20:18:33.312735,13.0,knots,OK,15.0,degrees,OK,17.8,knots,OK,22.7,°C,OK,16.2,°C,OK,1014.9,hPa,OK,8690.0,meters,OK,2943.0,feet,OK,0.3,mm/hr,OK,1764.0,meters,OK,1518.0,meters,OK,1733.0,meters,OK
2025-01-26T20:18:34.316252,12.7,knots,OK,114.0,degrees,OK,23.4,knots,OK,17.5,°C,OK,12.2,°C,OK,1013.2,hPa,OK,8054.0,meters,OK,2009.0,feet,OK,0.2,mm/hr,OK,1890.0,meters,OK,1507.0,meters,OK,1617.0,meters,OK
2025-01-26T20:18:35.319677,6.0,knots,OK,36.0,degrees,OK,14.6,knots,OK,23.6,°C,OK,13.6,°C,OK,1015.0,hPa,OK,9477.0,meters,OK,1315.0,feet,OK,0.0,mm/hr,OK,1774.0,meters,OK,1934.0,meters,OK,1883.0,meters,OK
2025-01-26T20:18:36.324207,9.4,knots,OK,167.0,degrees,OK,16.7,knots,OK,19.8,°C,OK,11.0,°C,OK,1013.8,hPa,OK,5199.0,meters,OK,1399.0,feet,OK,0.1,mm/hr,OK,1835.0,meters,OK,1711.0,meters,OK,1868.0,meters,OK
2025-01-26T20:18:37.328170,9.0,knots,OK,358.0,degrees,OK,22.5,knots,OK,23.1,°C,OK,13.7,°C,OK,1013.8,hPa,OK,5484.0,meters,OK,2091.0,feet,OK,0.4,mm/hr,OK,1729.0,meters,OK,1513.0,meters,OK,1954.0,meters,OK
2025-01-26T20:18:38.332014,13.7,knots,OK,40.0,degrees,OK,15.8,knots,OK,18.7,°C,OK,17.2,°C,OK,1014.0,hPa,OK,9926.0,meters,OK,1270.0,feet,OK,0.1,mm/hr,OK,1864.0,meters,OK,1726.0,meters,OK,1520.0,meters,OK
2025-01-26T20:18:39.336096,6.4,knots,OK,314.0,degrees,OK,10.3,knots,OK,16.2,°C,OK,17.6,°C,OK,1013.8,hPa,OK,6331.0,meters,OK,2959.0,feet,OK,0.5,mm/hr,OK,1778.0,meters,OK,1968.0,meters,OK,1812.0,meters,OK
2025-01-26T20:18:40.339662,12.9,knots,OK,289.0,degrees,OK,16.3,knots,OK,18.7,°C,OK,15.0,°C,OK,1014.1,hPa,OK,5803.0,meters,OK,2710.0,feet,OK,0.2,mm/hr,OK,1663.0,meters,OK,1927.0,meters,OK,1628.0,meters,OK
2025-01-26T20:18:41.344244,13.5,knots,OK,334.0,degrees,OK,13.4,knots,OK,18.4,°C,OK,15.8,°C,OK,1013.8,hPa,OK,9523.0,meters,OK,2257.0,feet,OK,0.5,mm/hr,OK,1664.0,meters,OK,1566.0,meters,OK,1563.0,meters,OK
2025-01-26T20:18:42.348638,14.6,knots,OK,171.0,degrees,OK,22.5,knots,OK,17.7,°C,OK,18.9,°C,OK,1014.3,hPa,OK,8194.0,meters,OK,1008.0,feet,OK,0.0,mm/hr,OK,1938.0,meters,OK,1984.0,meters,OK,1850.0,meters,OK
2025-01-26T20:18:43.353776,12.5,knots,OK,128.0,degrees,OK,13.2,knots,OK,21.8,°C,OK,13.4,°C,OK,1014.4,hPa,OK,9469.0,meters,OK,1336.0,feet,OK,0.1,mm/hr,OK,1978.0,meters,OK,1943.0,meters,OK,1909.0,meters,OK
2025-01-26T20:18:44.358405,5.8,knots,OK,30.0,degrees,OK,16.6,knots,OK,17.6,°C,OK,17.2,°C,OK,1014.2,hPa,OK,9151.0,meters,OK,1954.0,feet,OK,0.3,mm/hr,OK,1523.0,meters,OK,1615.0,meters,OK,1905.0,meters,OK
2025-01-26T20:18:45.362906,6.0,knots,OK,118.0,degrees,OK,22.8,knots,OK,24.2,°C,OK,13.4,°C,OK,1014.8,hPa,OK,5769.0,meters,OK,2959.0,feet,OK,0.2,mm/hr,OK,1530.0,meters,OK,1959.0,meters,OK,1738.0,meters,OK
2025-01-26T20:18:46.367504,11.3,knots,OK,323.0,degrees,OK,11.4,knots,OK,19.1,°C,OK,15.9,°C,OK,1014.0,hPa,OK,9470.0,meters,OK,1189.0,feet,OK,0.1,mm/hr,OK,1859.0,meters,OK,1922.0,meters,OK,1647.0,meters,OK
2025-01-26T20:18:47.371439,10.7,knots,OK,230.0,degrees,OK,20.0,knots,OK,23.3,°C,OK,16.6,°C,OK,1014.8,hPa,OK,8089.0,meters,OK,1289.0,feet,OK,0.1,mm/hr,OK,1690.0,meters,OK,1869.0,meters,OK,1715.0,meters,OK
2025-01-26T20:18:48.376421,10.1,knots,OK,218.0,degrees,OK,20.2,knots,OK,17.0,°C,OK,11.1,°C,OK,1015.0,hPa,OK,5364.0,meters,OK,2251.0,feet,OK,0.5,mm/hr,OK,1606.0,meters,OK,1525.0,meters,OK,1674.0,meters,OK
2025-01-26T20:18:49.381182,8.7,knots,OK,83.0,degrees,OK,12.3,knots,OK,24.9,°C,OK,10.3,°C,OK,1014.0,hPa,OK,8228.0,meters,OK,1249.0,feet,OK,0.4,mm/hr,OK,1588.0,meters,OK,1682.0,meters,OK,1788.0,meters,OK
2025-01-26T20:18:50.385247,5.3,knots,OK,184.0,degrees,OK,11.3,knots,OK,15.2,°C,OK,17.3,°C,OK,1014.0,hPa,OK,7960.0,meters,OK,2044.0,feet,OK,0.4,mm/hr,OK,1628.0,meters,OK,1612.0,meters,OK,1927.0,meters,OK
2025-01-26T20:18:51.389183,10.5,knots,OK,303.0,degrees,OK,17.2,knots,OK,18.6,°C,OK,17.1,°C,OK,1013.7,hPa,OK,7177.0,meters,OK,2639.0,feet,OK,0.0,mm/hr,OK,1878.0,meters,OK,1601.0,meters,OK,1658.0,meters,OK
2025-01-26T20:18:52.392831,11.1,knots,OK,12.0,degrees,OK,21.8,knots,OK,24.9,°C,OK,14.4,°C,OK,1014.0,hPa,OK,8411.0,meters,OK,2018.0,feet,OK,0.4,mm/hr,OK,1601.0,meters,OK,1851.0,meters,OK,1728.0,meters,OK
2025-01-26T20:18:53.396957,12.8,knots,OK,204.0,degrees,OK,17.2,knots,OK,23.1,°C,OK,15.9,°C,OK,1014.4,hPa,OK,7915.0,meters,OK,2774.0,feet,OK,0.3,mm/hr,OK,1522.0,meters,OK,1501.0,meters,OK,1623.0,meters,OK
2025-01-26T20:18:54.401584,13.3,knots,OK,167.0,degrees,OK,23.1,knots,OK,17.9,°C,OK,17.3,°C,OK,1013.1,hPa,OK,5686.0,meters,OK,2885.0,feet,OK,0.4,mm/hr,OK,1984.0,meters,OK,1878.0,meters,OK,1998.0,meters,OK
2025-01-26T20:18:55.405951,5.1,knots,OK,142.0,degrees,OK,24.4,knots,OK,19.1,°C,OK,17.2,°C,OK,1014.3,hPa,OK,6597.0,meters,OK,1285.0,feet,OK,0.1,mm/hr,OK,1712.0,meters,OK,1595.0,meters,OK,1672.0,meters,OK
2025-01-26T20:18:56.410686,10.8,knots,OK,289.0,degrees,OK,18.0,knots,OK,19.5,°C,OK,14.8,°C,OK,1014.6,hPa,OK,7914.0,meters,OK,1220.0,feet,OK,0.4,mm/hr,OK,1953.0,meters,OK,1848.0,meters,OK,1940.0,meters,OK
2025-01-26T20:18:57.415129,12.7,knots,OK,311.0,degrees,OK,17.5,knots,OK,21.7,°C,OK,18.4,°C,OK,1013.7,hPa,OK,9184.0,meters,OK,2296.0,feet,OK,0.4,mm/hr,OK,1629.0,meters,OK,1764.0,meters,OK,1621.0,meters,OK
2025-01-26T20:18:58.419877,14.1,knots,OK,31.0,degrees,OK,23.8,knots,OK,19.8,°C,OK,18.2,°C,OK,1014.4,hPa,OK,7653.0,meters,OK,1849.0,feet,OK,0.4,mm/hr,OK,1766.0,meters,OK,1918.0,meters,OK,1733.0,meters,OK
2025-01-26T20:18:59.423769,11.2,knots,OK,110.0,degrees,OK,23.2,knots,OK,21.6,°C,OK,12.4,°C,OK,1013.6,hPa,OK,8914.0,meters,OK,2274.0,feet,OK,0.2,mm/hr,OK,1725.0,meters,OK,1943.0,meters,OK,1852.0,meters,OK
2025-01-26T20:19:00.428419,12.1,knots,OK,47.0,degrees,OK,24.3,knots,OK,24.3,°C,OK,12.3,°C,OK,1013.7,hPa,OK,7126.0,meters,OK,2880.0,feet,OK,0.2,mm/hr,OK,1709.0,meters,OK,1943.0,meters,OK,1611.0,meters,OK
2025-01-26T20:19:01.433465,12.3,knots,OK,289.0,degrees,OK,15.6,knots,OK,17.2,°C,OK,13.8,°C,OK,1014.6,hPa,OK,8768.0,meters,OK,1718.0,feet,OK,0.3,mm/hr,OK,1672.0,meters,OK,1638.0,meters,OK,1775.0,meters,OK
2025-01-26T20:19:02.437739,8.8,knots,OK,268.0,degrees,OK,21.5,knots,OK,20.9,°C,OK,10.5,°C,OK,1013.1,hPa,OK,9293.0,meters,OK,1610.0,feet,OK,0.3,mm/hr,OK,1556.0,meters,OK,1657.0,meters,OK,1506.0,meters,OK
2025-01-26T20:19:03.442815,12.4,knots,OK,124.0,degrees,OK,23.0,knots,OK,17.0,°C,OK,16.9,°C,OK,1013.0,hPa,OK,6187.0,meters,OK,1306.0,feet,OK,0.4,mm/hr,OK,1914.0,meters,OK,1609.0,meters,OK,1603.0,meters,OK
2025-01-26T20:19:04.447381,6.0,knots,OK,239.0,degrees,OK,16.3,knots,OK,19.0,°C,OK,12.4,°C,OK,1013.8,hPa,OK,5640.0,meters,OK,2851.0,feet,OK,0.3,mm/hr,OK,1516.0,meters,OK,1612.0,meters,OK,1538.0,meters,OK
2025-01-26T20:19:05.452045,13.9,knots,OK,97.0,degrees,OK,21.7,knots,OK,20.5,°C,OK,13.8,°C,OK,1014.8,hPa,OK,7628.0,meters,OK,1239.0,feet,OK,0.4,mm/hr,OK,1835.0,meters,OK,1534.0,meters,OK,1709.0,meters,OK
2025-01-26T20:19:06.455914,15.0,knots,OK,325.0,degrees,OK,11.4,knots,OK,21.0,°C,OK,16.5,°C,OK,1013.7,hPa,OK,5050.0,meters,OK,2962.0,feet,OK,0.1,mm/hr,OK,1650.0,meters,OK,1969.0,meters,OK,1687.0,meters,OK
2025-01-26T20:19:07.460517,13.3,knots,OK,289.0,degrees,OK,23.5,knots,OK,23.8,°C,OK,19.0,°C,OK,1014.0,hPa,OK,5205.0,meters,OK,1035.0,feet,OK,0.4,mm/hr,OK,1944.0,meters,OK,1873.0,meters,OK,1862.0,meters,OK
2025-01-26T20:19:08.464729,6.7,knots,OK,96.0,degrees,OK,23.5,knots,OK,18.1,°C,OK,14.8,°C,OK,1013.3,hPa,OK,7664.0,meters,OK,1829.0,feet,OK,0.3,mm/hr,OK,1854.0,meters,OK,1750.0,meters,OK,1651.0,meters,OK
2025-01-26T20:19:09.468877,11.9,knots,OK,255.0,degrees,OK,15.6,knots,OK,19.2,°C,OK,18.2,°C,OK,1013.9,hPa,OK,7142.0,meters,OK,2793.0,feet,OK,0.3,mm/hr,OK,1715.0,meters,OK,1524.0,meters,OK,1576.0,meters,OK
2025-01-26T20:19:10.472497,11.3,knots,OK,63.0,degrees,OK,21.0,knots,OK,21.1,°C,OK,18.6,°C,OK,1013.7,hPa,OK,7767.0,meters,OK,1591.0,feet,OK,0.4,mm/hr,OK,1888.0,meters,OK,1580.0,meters,OK,1501.0,meters,OK
2025-01-26T20:19:11.476091,11.7,knots,OK,73.0,degrees,OK,24.8,knots,OK,15.1,°C,OK,17.7,°C,OK,1013.6,hPa,OK,8169.0,meters,OK,1365.0,feet,OK,0.1,mm/hr,OK,1934.0,meters,OK,1889.0,meters,OK,1966.0,meters,OK
2025-01-26T20:19:12.480199,6.4,knots,OK,156.0,degrees,OK,14.7,knots,OK,22.4,°C,OK,15.3,°C,OK,1013.2,hPa,OK,7990.0,meters,OK,1079.0,feet,OK,0.2,mm/hr,OK,1733.0,meters,OK,1572.0,meters,OK,1691.0,meters,OK
2025-01-26T20:19:13.484995,12.7,knots,OK,79.0,degrees,OK,23.0,knots,OK,16.0,°C,OK,15.2,°C,OK,1014.2,hPa,OK,7654.0,meters,OK,2213.0,feet,OK,0.3,mm/hr,OK,1744.0,meters,OK,1985.0,meters,OK,1870.0,meters,OK
2025-01-26T20:19:14.489321,9.9,knots,OK,93.0,degrees,OK,21.9,knots,OK,22.5,°C,OK,16.0,°C,OK,1013.8,hPa,OK,9306.0,meters,OK,1081.0,feet,OK,0.0,mm/hr,OK,1572.0,meters,OK,1919.0,meters,OK,1752.0,meters,OK
2025-01-26T20:19:15.493070,9.5,knots,OK,172.0,degrees,OK,14.5,knots,OK,21.6,°C,OK,12.8,°C,OK,1013.8,hPa,OK,9627.0,meters,OK,1931.0,feet,OK,0.0,mm/hr,OK,1584.0,meters,OK,1760.0,meters,OK,1671.0,meters,OK
2025-01-26T20:19:16.497810,12.9,knots,OK,218.0,degrees,OK,11.9,knots,OK,18.8,°C,OK,11.0,°C,OK,1014.0,hPa,OK,6941.0,meters,OK,2486.0,feet,OK,0.3,mm/hr,OK,1576.0,meters,OK,1500.0,meters,OK,1651.0,meters,OK
2025-01-26T20:19:17.501554,11.4,knots,OK,123.0,degrees,OK,11.3,knots,OK,21.8,°C,OK,10.8,°C,OK,1013.9,hPa,OK,8669.0,meters,OK,1725.0,feet,OK,0.1,mm/hr,OK,1536.0,meters,OK,1943.0,meters,OK,1757.0,meters,OK
2025-01-26T20:19:18.506164,13.9,knots,OK,106.0,degrees,OK,12.1,knots,OK,22.3,°C,OK,14.5,°C,OK,1013.5,hPa,OK,6637.0,meters,OK,2983.0,feet,OK,0.4,mm/hr,OK,1827.0,meters,OK,1564.0,meters,OK,1678.0,meters,OK
2025-01-26T20:19:19.510767,9.0,knots,OK,230.0,degrees,OK,18.3,knots,OK,24.8,°C,OK,13.2,°C,OK,1013.2,hPa,OK,8876.0,meters,OK,1137.0,feet,OK,0.0,mm/hr,OK,1709.0,meters,OK,1545.0,meters,OK,1881.0,meters,OK
2025-01-26T20:19:20.515286,8.9,knots,OK,85.0,degrees,OK,11.6,knots,OK,19.8,°C,OK,11.2,°C,OK,1014.2,hPa,OK,5557.0,meters,OK,2460.0,feet,OK,0.3,mm/hr,OK,1940.0,meters,OK,1535.0,meters,OK,1503.0,meters,OK
2025-01-26T20:19:21.520142,6.1,knots,OK,114.0,degrees,OK,10.1,knots,OK,16.3,°C,OK,10.3,°C,OK,1013.5,hPa,OK,6276.0,meters,OK,2450.0,feet,OK,0.1,mm/hr,OK,1632.0,meters,OK,1932.0,meters,OK,1800.0,meters,OK
2025-01-26T20:19:22.525039,14.6,knots,OK,17.0,degrees,OK,18.0,knots,OK,23.8,°C,OK,13.0,°C,OK,1014.1,hPa,OK,8650.0,meters,OK,1707.0,feet,OK,0.1,mm/hr,OK,1710.0,meters,OK,1590.0,meters,OK,1659.0,meters,OK
2025-01-26T20:19:23.529190,13.5,knots,OK,111.0,degrees,OK,14.8,knots,OK,21.8,°C,OK,13.9,°C,OK,1014.4,hPa,OK,5814.0,meters,OK,1853.0,feet,OK,0.1,mm/hr,OK,1512.0,meters,OK,1755.0,meters,OK,1992.0,meters,OK
2025-01-26T20:19:24.532977,9.0,knots,OK,318.0,degrees,OK,10.2,knots,OK,20.6,°C,OK,19.3,°C,OK,1014.5,hPa,OK,7441.0,meters,OK,2550.0,feet,OK,0.1,mm/hr,OK,1530.0,meters,OK,1985.0,meters,OK,1681.0,meters,OK
2025-01-26T20:19:25.536815,6.4,knots,OK,188.0,degrees,OK,24.6,knots,OK,22.3,°C,OK,14.1,°C,OK,1014.0,hPa,OK,5617.0,meters,OK,1306.0,feet,OK,0.1,mm/hr,OK,1860.0,meters,OK,1682.0,meters,OK,1918.0,meters,OK
2025-01-26T20:19:26.540592,10.6,knots,OK,208.0,degrees,OK,18.1,knots,OK,23.1,°C,OK,12.3,°C,OK,1015.0,hPa,OK,5424.0,meters,OK,1177.0,feet,OK,0.5,mm/hr,OK,1675.0,meters,OK,1920.0,meters,OK,1881.0,meters,OK
2025-01-26T20:19:27.544070,13.1,knots,OK,323.0,degrees,OK,22.2,knots,OK,24.3,°C,OK,14.2,°C,OK,1014.6,hPa,OK,6059.0,meters,OK,1003.0,feet,OK,0.1,mm/hr,OK,1560.0,meters,OK,1541.0,meters,OK,1934.0,meters,OK
2025-01-26T20:19:28.547862,7.9,knots,OK,284.0,degrees,OK,21.0,knots,OK,16.8,°C,OK,18.5,°C,OK,1014.2,hPa,OK,5961.0,meters,OK,2061.0,feet,OK,0.3,mm/hr,OK,1674.0,meters,OK,1911.0,meters,OK,1994.0,meters,OK
2025-01-26T20:19:29.551350,5.2,knots,OK,135.0,degrees,OK,15.3,knots,OK,20.7,°C,OK,14.2,°C,OK,1015.0,hPa,OK,6367.0,meters,OK,2008.0,feet,OK,0.1,mm/hr,OK,1937.0,meters,OK,1770.0,meters,OK,1831.0,meters,OK
2025-01-26T20:19:30.555516,12.4,knots,OK,255.0,degrees,OK,18.2,knots,OK,16.2,°C,OK,19.6,°C,OK,1014.5,hPa,OK,9136.0,meters,OK,1990.0,feet,OK,0.1,mm/hr,OK,1502.0,meters,OK,1672.0,meters,OK,1820.0,meters,OK
2025-01-26T20:19:31.559897,8.6,knots,OK,262.0,degrees,OK,19.9,knots,OK,15.8,°C,OK,14.1,°C,OK,1013.8,hPa,OK,9361.0,meters,OK,2511.0,feet,OK,0.4,mm/hr,OK,1560.0,meters,OK,1657.0,meters,OK,1515.0,meters,OK
2025-01-26T20:19:32.564787,13.0,knots,OK,270.0,degrees,OK,15.7,knots,OK,24.9,°C,OK,11.5,°C,OK,1013.0,hPa,OK,7746.0,meters,OK,2951.0,feet,OK,0.1,mm/hr,OK,1889.0,meters,OK,1973.0,meters,OK,1656.0,meters,OK
2025-01-26T20:19:33.568867,7.9,knots,OK,134.0,degrees,OK,10.7,knots,OK,24.5,°C,OK,14.1,°C,OK,1013.8,hPa,OK,6711.0,meters,OK,2723.0,feet,OK,0.2,mm/hr,OK,1846.0,meters,OK,1627.0,meters,OK,1924.0,meters,OK
2025-01-26T20:19:34.571870,7.2,knots,OK,354.0,degrees,OK,21.0,knots,OK,15.2,°C,OK,16.2,°C,OK,1014.6,hPa,OK,7082.0,meters,OK,1542.0,feet,OK,0.1,mm/hr,OK,1692.0,meters,OK,1909.0,meters,OK,1905.0,meters,OK
2025-01-26T20:19:35.576135,9.4,knots,OK,106.0,degrees,OK,13.0,knots,OK,20.6,°C,OK,17.0,°C,OK,1014.4,hPa,OK,8464.0,meters,OK,2453.0,feet,OK,0.1,mm/hr,OK,1596.0,meters,OK,1751.0,meters,OK,1878.0,meters,OK
2025-01-26T20:19:36.580123,11.8,knots,OK,232.0,degrees,OK,20.0,knots,OK,17.4,°C,OK,14.4,°C,OK,1014.8,hPa,OK,9400.0,meters,OK,2595.0,feet,OK,0.2,mm/hr,OK,1941.0,meters,OK,1536.0,meters,OK,1923.0,meters,OK
2025-01-26T20:19:37.583724,6.9,knots,OK,190.0,degrees,OK,17.9,knots,OK,17.6,°C,OK,20.0,°C,OK,1014.3,hPa,OK,6816.0,meters,OK,1751.0,feet,OK,0.0,mm/hr,OK,1996.0,meters,OK,1913.0,meters,OK,1669.0,meters,OK
2025-01-26T20:19:38.587915,11.0,knots,OK,31.0,degrees,OK,16.8,knots,OK,16.6,°C,OK,11.7,°C,OK,1013.4,hPa,OK,9347.0,meters,OK,1760.0,feet,OK,0.2,mm/hr,OK,1722.0,meters,OK,1708.0,meters,OK,1523.0,meters,OK
2025-01-26T20:19:39.592976,9.4,knots,OK,43.0,degrees,OK,14.8,knots,OK,21.5,°C,OK,17.2,°C,OK,1014.7,hPa,OK,7833.0,meters,OK,1728.0,feet,OK,0.2,mm/hr,OK,1697.0,meters,OK,1973.0,meters,OK,1869.0,meters,OK
2025-01-26T20:19:40.598144,11.5,knots,OK,62.0,degrees,OK,10.3,knots,OK,15.2,°C,OK,10.3,°C,OK,1013.9,hPa,OK,5462.0,meters,OK,2744.0,feet,OK,0.1,mm/hr,OK,1537.0,meters,OK,1922.0,meters,OK,1685.0,meters,OK
2025-01-26T20:19:41.602786,5.8,knots,OK,267.0,degrees,OK,22.7,knots,OK,16.9,°C,OK,14.6,°C,OK,1014.3,hPa,OK,6348.0,meters,OK,2640.0,feet,OK,0.5,mm/hr,OK,1668.0,meters,OK,1552.0,meters,OK,1958.0,meters,OK
2025-01-26T20:19:42.607224,10.6,knots,OK,157.0,degrees,OK,24.2,knots,OK,17.1,°C,OK,17.2,°C,OK,1013.2,hPa,OK,8985.0,meters,OK,2127.0,feet,OK,0.4,mm/hr,OK,1623.0,meters,OK,1746.0,meters,OK,1640.0,meters,OK
2025-01-26T20:19:43.611552,6.9,knots,OK,223.0,degrees,OK,23.9,knots,OK,23.9,°C,OK,11.8,°C,OK,1013.3,hPa,OK,8957.0,meters,OK,1621.0,feet,OK,0.1,mm/hr,OK,1666.0,meters,OK,1749.0,meters,OK,1873.0,meters,OK
2025-01-26T20:19:44.614684,11.5,knots,OK,203.0,degrees,OK,11.9,knots,OK,17.8,°C,OK,12.8,°C,OK,1014.5,hPa,OK,8667.0,meters,OK,1758.0,feet,OK,0.1,mm/hr,OK,1714.0,meters,OK,1928.0,meters,OK,1673.0,meters,OK
2025-01-26T20:19:45.619774,7.4,knots,OK,98.0,degrees,OK,18.7,knots,OK,17.5,°C,OK,14.0,°C,OK,1013.6,hPa,OK,5784.0,meters,OK,1073.0,feet,OK,0.4,mm/hr,OK,1853.0,meters,OK,1542.0,meters,OK,1898.0,meters,OK
2025-01-26T20:19:46.624234,9.6,knots,OK,83.0,degrees,OK,13.1,knots,OK,17.3,°C,OK,15.6,°C,OK,1014.1,hPa,OK,9285.0,meters,OK,1357.0,feet,OK,0.1,mm/hr,OK,1671.0,meters,OK,1545.0,meters,OK,1658.0,meters,OK
2025-01-26T20:19:47.629031,11.3,knots,OK,275.0,degrees,OK,14.7,knots,OK,24.5,°C,OK,10.3,°C,OK,1015.0,hPa,OK,6684.0,meters,OK,2280.0,feet,OK,0.4,mm/hr,OK,1854.0,meters,OK,1730.0,meters,OK,1514.0,meters,OK
2025-01-26T20:19:48.633598,10.6,knots,OK,140.0,degrees,OK,20.9,knots,OK,24.3,°C,OK,14.2,°C,OK,1014.4,hPa,OK,7703.0,meters,OK,2149.0,feet,OK,0.4,mm/hr,OK,1549.0,meters,OK,1625.0,meters,OK,1711.0,meters,OK
2025-01-26T20:19:49.637796,13.1,knots,OK,7.0,degrees,OK,12.1,knots,OK,17.1,°C,OK,18.1,°C,OK,1013.3,hPa,OK,6982.0,meters,OK,1213.0,feet,OK,0.3,mm/hr,OK,1823.0,meters,OK,1520.0,meters,OK,1670.0,meters,OK
2025-01-26T20:19:50.642210,10.2,knots,OK,31.0,degrees,OK,12.9,knots,OK,19.1,°C,OK,14.8,°C,OK,1013.4,hPa,OK,6585.0,meters,OK,2374.0,feet,OK,0.4,mm/hr,OK,1787.0,meters,OK,1748.0,meters,OK,1695.0,meters,OK
2025-01-26T20:19:51.645981,12.5,knots,OK,312.0,degrees,OK,20.1,knots,OK,18.8,°C,OK,15.0,°C,OK,1013.1,hPa,OK,6977.0,meters,OK,2993.0,feet,OK,0.2,mm/hr,OK,1792.0,meters,OK,1820.0,meters,OK,1536.0,meters,OK
2025-01-26T20:19:52.650894,10.0,knots,OK,308.0,degrees,OK,10.6,knots,OK,24.3,°C,OK,12.1,°C,OK,1014.2,hPa,OK,8261.0,meters,OK,1158.0,feet,OK,0.2,mm/hr,OK,1684.0,meters,OK,1748.0,meters,OK,1671.0,meters,OK
2025-01-26T20:19:53.655158,13.9,knots,OK,305.0,degrees,OK,14.6,knots,OK,15.5,°C,OK,17.9,°C,OK,1014.2,hPa,OK,9040.0,meters,OK,1990.0,feet,OK,0.2,mm/hr,OK,1680.0,meters,OK,1642.0,meters,OK,1566.0,meters,OK
2025-01-26T20:19:54.659548,10.7,knots,OK,14.0,degrees,OK,17.9,knots,OK,24.5,°C,OK,14.2,°C,OK,1014.9,hPa,OK,7770.0,meters,OK,2272.0,feet,OK,0.2,mm/hr,OK,1619.0,meters,OK,1995.0,meters,OK,1628.0,meters,OK
2025-01-26T20:19:55.663715,9.0,knots,OK,78.0,degrees,OK,14.2,knots,OK,17.4,°C,OK,10.3,°C,OK,1014.1,hPa,OK,5443.0,meters,OK,2418.0,feet,OK,0.4,mm/hr,OK,1558.0,meters,OK,1513.0,meters,OK,1989.0,meters,OK
2025-01-26T20:19:56.667740,13.8,knots,OK,349.0,degrees,OK,21.2,knots,OK,24.7,°C,OK,12.5,°C,OK,1015.0,hPa,OK,9242.0,meters,OK,2994.0,feet,OK,0.3,mm/hr,OK,1897.0,meters,OK,1672.0,meters,OK,1609.0,meters,OK
2025-01-26T20:19:57.672446,8.9,knots,OK,234.0,degrees,OK,20.7,knots,OK,20.2,°C,OK,12.1,°C,OK,1013.7,hPa,OK,8047.0,meters,OK,2186.0,feet,OK,0.4,mm/hr,OK,1778.0,meters,OK,1884.0,meters,OK,1742.0,meters,OK
2025-01-26T20:19:58.677746,9.2,knots,OK,268.0,degrees,OK,15.0,knots,OK,15.2,°C,OK,17.6,°C,OK,1014.1,hPa,OK,5911.0,meters,OK,1340.0,feet,OK,0.4,mm/hr,OK,1511.0,meters,OK,1624.0,meters,OK,1890.0,meters,OK
2025-01-26T20:19:59.682045,5.7,knots,OK,320.0,degrees,OK,15.0,knots,OK,19.1,°C,OK,15.9,°C,OK,1013.6,hPa,OK,6923.0,meters,OK,1578.0,feet,OK,0.5,mm/hr,OK,1598.0,meters,OK,1854.0,meters,OK,1657.0,meters,OK
2025-01-26T20:20:00.686266,13.8,knots,OK,60.0,degrees,OK,23.1,knots,OK,17.2,°C,OK,10.3,°C,OK,1014.7,hPa,OK,7635.0,meters,OK,2292.0,feet,OK,0.1,mm/hr,OK,1662.0,meters,OK,1827.0,meters,OK,1765.0,meters,OK
2025-01-26T20:20:01.690154,13.6,knots,OK,66.0,degrees,OK,15.4,knots,OK,18.4,°C,OK,11.6,°C,OK,1013.0,hPa,OK,7379.0,meters,OK,1580.0,feet,OK,0.2,mm/hr,OK,1659.0,meters,OK,1583.0,meters,OK,1883.0,meters,OK
2025-01-26T20:20:02.693469,7.2,knots,OK,308.0,degrees,OK,12.2,knots,OK,23.1,°C,OK,18.4,°C,OK,1013.4,hPa,OK,7214.0,meters,OK,2836.0,feet,OK,0.3,mm/hr,OK,1682.0,meters,OK,1784.0,meters,OK,1846.0,meters,OK
2025-01-26T20:20:03.696621,14.0,knots,OK,287.0,degrees,OK,24.5,knots,OK,18.1,°C,OK,14.3,°C,OK,1014.5,hPa,OK,6641.0,meters,OK,1609.0,feet,OK,0.3,mm/hr,OK,1533.0,meters,OK,1801.0,meters,OK,1891.0,meters,OK
2025-01-26T20:20:04.700494,12.4,knots,OK,268.0,degrees,OK,15.5,knots,OK,17.6,°C,OK,11.5,°C,OK,1013.5,hPa,OK,8694.0,meters,OK,2522.0,feet,OK,0.5,mm/hr,OK,1935.0,meters,OK,1837.0,meters,OK,1892.0,meters,OK
2025-01-26T20:20:05.705421,7.6,knots,OK,199.0,degrees,OK,20.8,knots,OK,16.1,°C,OK,19.1,°C,OK,1013.7,hPa,OK,8588.0,meters,OK,1085.0,feet,OK,0.4,mm/hr,OK,1827.0,meters,OK,1775.0,meters,OK,1698.0,meters,OK
2025-01-26T20:20:06.710402,7.0,knots,OK,228.0,degrees,OK,24.9,knots,OK,16.3,°C,OK,17.6,°C,OK,1014.4,hPa,OK,6886.0,meters,OK,2773.0,feet,OK,0.0,mm/hr,OK,1767.0,meters,OK,1660.0,meters,OK,1508.0,meters,OK
2025-01-26T20:20:07.714954,14.1,knots,OK,251.0,degrees,OK,24.8,knots,OK,21.4,°C,OK,14.8,°C,OK,1014.5,hPa,OK,7265.0,meters,OK,2808.0,feet,OK,0.1,mm/hr,OK,1941.0,meters,OK,1861.0,meters,OK,1939.0,meters,OK
2025-01-26T20:20:08.719672,5.6,knots,OK,121.0,degrees,OK,10.6,knots,OK,21.2,°C,OK,17.8,°C,OK,1014.8,hPa,OK,9158.0,meters,OK,2343.0,feet,OK,0.3,mm/hr,OK,1999.0,meters,OK,1931.0,meters,OK,1691.0,meters,OK
2025-01-26T20:20:09.722985,12.0,knots,OK,68.0,degrees,OK,12.9,knots,OK,22.2,°C,OK,13.2,°C,OK,1013.5,hPa,OK,5179.0,meters,OK,1156.0,feet,OK,0.5,mm/hr,OK,1796.0,meters,OK,1830.0,meters,OK,1653.0,meters,OK
2025-01-26T20:20:10.727686,12.9,knots,OK,98.0,degrees,OK,14.8,knots,OK,19.9,°C,OK,10.3,°C,OK,1014.9,hPa,OK,7766.0,meters,OK,2641.0,feet,OK,0.0,mm/hr,OK,1699.0,meters,OK,1504.0,meters,OK,1681.0,meters,OK
2025-01-26T20:20:11.731485,6.7,knots,OK,79.0,degrees,OK,15.1,knots,OK,15.7,°C,OK,17.1,°C,OK,1014.4,hPa,OK,7249.0,meters,OK,1116.0,feet,OK,0.2,mm/hr,OK,1712.0,meters,OK,1503.0,meters,OK,1773.0,meters,OK
2025-01-26T20:20:12.735441,8.2,knots,OK,35.0,degrees,OK,12.2,knots,OK,19.3,°C,OK,10.6,°C,OK,1014.5,hPa,OK,7021.0,meters,OK,2434.0,feet,OK,0.1,mm/hr,OK,1967.0,meters,OK,1635.0,meters,OK,1624.0,meters,OK
2025-01-26T20:20:13.740157,6.1,knots,OK,282.0,degrees,OK,16.6,knots,OK,19.4,°C,OK,10.5,°C,OK,1013.2,hPa,OK,5095.0,meters,OK,1180.0,feet,OK,0.1,mm/hr,OK,1698.0,meters,OK,1708.0,meters,OK,1785.0,meters,OK
2025-01-26T20:20:14.744313,8.5,knots,OK,280.0,degrees,OK,10.5,knots,OK,24.4,°C,OK,11.9,°C,OK,1014.4,hPa,OK,6407.0,meters,OK,2973.0,feet,OK,0.2,mm/hr,OK,1749.0,meters,OK,1784.0,meters,OK,1670.0,meters,OK
2025-01-26T20:20:15.748445,8.0,knots,OK,97.0,degrees,OK,22.9,knots,OK,24.6,°C,OK,11.6,°C,OK,1013.5,hPa,OK,7791.0,meters,OK,2671.0,feet,OK,0.0,mm/hr,OK,1797.0,meters,OK,1785.0,meters,OK,1579.0,meters,OK
2025-01-26T20:20:16.752587,11.4,knots,OK,182.0,degrees,OK,13.5,knots,OK,23.8,°C,OK,10.9,°C,OK,1013.9,hPa,OK,6377.0,meters,OK,2836.0,feet,OK,0.3,mm/hr,OK,1938.0,meters,OK,1876.0,meters,OK,1846.0,meters,OK
2025-01-26T20:20:17.757527,13.2,knots,OK,102.0,degrees,OK,18.2,knots,OK,18.0,°C,OK,12.6,°C,OK,1013.3,hPa,OK,7343.0,meters,OK,2551.0,feet,OK,0.1,mm/hr,OK,1860.0,meters,OK,1549.0,meters,OK,1886.0,meters,OK
2025-01-26T20:20:18.761902,10.4,knots,OK,52.0,degrees,OK,15.4,knots,OK,23.8,°C,OK,12.5,°C,OK,1014.4,hPa,OK,7525.0,meters,OK,1318.0,feet,OK,0.4,mm/hr,OK,1506.0,meters,OK,1508.0,meters,OK,1553.0,meters,OK
2025-01-26T20:20:19.765491,9.3,knots,OK,290.0,degrees,OK,11.1,knots,OK,20.3,°C,OK,19.3,°C,OK,1013.2,hPa,OK,9821.0,meters,OK,1795.0,feet,OK,0.1,mm/hr,OK,1531.0,meters,OK,1808.0,meters,OK,1527.0,meters,OK
2025-01-26T20:20:20.769669,9.6,knots,OK,343.0,degrees,OK,24.2,knots,OK,23.8,°C,OK,18.8,°C,OK,1014.0,hPa,OK,7423.0,meters,OK,2398.0,feet,OK,0.4,mm/hr,OK,1564.0,meters,OK,1714.0,meters,OK,1793.0,meters,OK
2025-01-26T20:20:21.774153,8.5,knots,OK,216.0,degrees,OK,21.0,knots,OK,23.0,°C,OK,12.7,°C,OK,1014.9,hPa,OK,5379.0,meters,OK,1157.0,feet,OK,0.2,mm/hr,OK,1836.0,meters,OK,1761.0,meters,OK,1750.0,meters,OK
2025-01-26T20:20:22.778053,5.9,knots,OK,291.0,degrees,OK,16.5,knots,OK,21.6,°C,OK,14.0,°C,OK,1013.7,hPa,OK,5042.0,meters,OK,1473.0,feet,OK,0.3,mm/hr,OK,1523.0,meters,OK,1705.0,meters,OK,1986.0,meters,OK
2025-01-26T20:20:23.782303,10.3,knots,OK,74.0,degrees,OK,10.8,knots,OK,15.3,°C,OK,15.4,°C,OK,1013.4,hPa,OK,7562.0,meters,OK,1921.0,feet,OK,0.2,mm/hr,OK,1702.0,meters,OK,1663.0,meters,OK,1796.0,meters,OK
2025-01-26T20:20:24.786634,6.0,knots,OK,17.0,degrees,OK,24.8,knots,OK,19.0,°C,OK,19.7,°C,OK,1014.6,hPa,OK,5845.0,meters,OK,1407.0,feet,OK,0.2,mm/hr,OK,1873.0,meters,OK,1651.0,meters,OK,1889.0,meters,OK
2025-01-26T20:20:25.790940,14.5,knots,OK,313.0,degrees,OK,20.6,knots,OK,22.2,°C,OK,15.8,°C,OK,1014.2,hPa,OK,5829.0,meters,OK,2750.0,feet,OK,0.3,mm/hr,OK,1670.0,meters,OK,1624.0,meters,OK,1673.0,meters,OK
2025-01-26T20:20:26.795759,6.2,knots,OK,43.0,degrees,OK,22.5,knots,OK,21.9,°C,OK,14.8,°C,OK,1013.6,hPa,OK,9597.0,meters,OK,1838.0,feet,OK,0.4,mm/hr,OK,1902.0,meters,OK,1755.0,meters,OK,1975.0,meters,OK
2025-01-26T20:20:27.800982,14.0,knots,OK,306.0,degrees,OK,13.7,knots,OK,22.2,°C,OK,18.8,°C,OK,1014.5,hPa,OK,9580.0,meters,OK,1914.0,feet,OK,0.5,mm/hr,OK,1897.0,meters,OK,1674.0,meters,OK,1527.0,meters,OK
2025-01-26T20:20:28.805829,8.5,knots,OK,239.0,degrees,OK,21.2,knots,OK,15.3,°C,OK,18.0,°C,OK,1013.1,hPa,OK,8667.0,meters,OK,1217.0,feet,OK,0.5,mm/hr,OK,1627.0,meters,OK,1850.0,meters,OK,1640.0,meters,OK
2025-01-26T20:20:29.810159,10.6,knots,OK,295.0,degrees,OK,10.2,knots,OK,16.7,°C,OK,17.8,°C,OK,1013.5,hPa,OK,9148.0,meters,OK,1756.0,feet,OK,0.4,mm/hr,OK,1783.0,meters,OK,1920.0,meters,OK,1872.0,meters,OK
2025-01-26T20:20:30.814791,8.8,knots,OK,58.0,degrees,OK,20.7,knots,OK,18.9,°C,OK,12.3,°C,OK,1014.8,hPa,OK,5234.0,meters,OK,2279.0,feet,OK,0.1,mm/hr,OK,1912.0,meters,OK,1656.0,meters,OK,1906.0,meters,OK
2025-01-26T20:20:31.819646,11.8,knots,OK,151.0,degrees,OK,12.9,knots,OK,18.5,°C,OK,17.3,°C,OK,1014.2,hPa,OK,7171.0,meters,OK,1727.0,feet,OK,0.3,mm/hr,OK,1674.0,meters,OK,1691.0,meters,OK,1686.0,meters,OK
2025-01-26T20:20:32.823856,9.3,knots,OK,128.0,degrees,OK,18.8,knots,OK,24.8,°C,OK,14.6,°C,OK,1014.3,hPa,OK,8894.0,meters,OK,1756.0,feet,OK,0.4,mm/hr,OK,1784.0,meters,OK,1544.0,meters,OK,1674.0,meters,OK
2025-01-26T20:20:33.828103,11.2,knots,OK,148.0,degrees,OK,14.3,knots,OK,18.7,°C,OK,12.2,°C,OK,1013.3,hPa,OK,6453.0,meters,OK,1320.0,feet,OK,0.1,mm/hr,OK,1624.0,meters,OK,1988.0,meters,OK,1664.0,meters,OK
2025-01-26T20:20:34.831655,10.6,knots,OK,227.0,degrees,OK,10.7,knots,OK,23.6,°C,OK,15.0,°C,OK,1014.4,hPa,OK,8383.0,meters,OK,2182.0,feet,OK,0.2,mm/hr,OK,1941.0,meters,OK,1689.0,meters,OK,1886.0,meters,OK
2025-01-26T20:20:35.835372,8.2,knots,OK,11.0,degrees,OK,12.9,knots,OK,18.6,°C,OK,14.8,°C,OK,1014.2,hPa,OK,6446.0,meters,OK,2514.0,feet,OK,0.2,mm/hr,OK,1862.0,meters,OK,1798.0,meters,OK,1567.0,meters,OK
2025-01-26T20:20:36.840704,13.7,knots,OK,75.0,degrees,OK,10.0,knots,OK,16.6,°C,OK,16.1,°C,OK,1014.5,hPa,OK,6740.0,meters,OK,2183.0,feet,OK,0.1,mm/hr,OK,1758.0,meters,OK,1867.0,meters,OK,1697.0,meters,OK
2025-01-26T20:20:37.844539,7.7,knots,OK,140.0,degrees,OK,11.0,knots,OK,21.1,°C,OK,13.3,°C,OK,1013.9,hPa,OK,6798.0,meters,OK,1486.0,feet,OK,0.5,mm/hr,OK,1614.0,meters,OK,1834.0,meters,OK,1584.0,meters,OK
2025-01-26T20:20:38.848980,11.4,knots,OK,143.0,degrees,OK,14.9,knots,OK,19.2,°C,OK,13.2,°C,OK,1014.4,hPa,OK,6769.0,meters,OK,1299.0,feet,OK,0.2,mm/hr,OK,1727.0,meters,OK,1660.0,meters,OK,1535.0,meters,OK
2025-01-26T20:20:39.853112,14.0,knots,OK,271.0,degrees,OK,22.5,knots,OK,18.3,°C,OK,11.1,°C,OK,1013.5,hPa,OK,7198.0,meters,OK,1731.0,feet,OK,0.3,mm/hr,OK,1894.0,meters,OK,1704.0,meters,OK,1912.0,meters,OK
2025-01-26T20:20:40.856637,6.6,knots,OK,124.0,degrees,OK,12.2,knots,OK,15.3,°C,OK,15.1,°C,OK,1013.6,hPa,OK,6684.0,meters,OK,2462.0,feet,OK,0.0,mm/hr,OK,1827.0,meters,OK,1889.0,meters,OK,1764.0,meters,OK
2025-01-26T20:20:41.859468,5.7,knots,OK,359.0,degrees,OK,11.7,knots,OK,22.4,°C,OK,10.5,°C,OK,1014.9,hPa,OK,6170.0,meters,OK,2258.0,feet,OK,0.2,mm/hr,OK,1673.0,meters,OK,1814.0,meters,OK,1712.0,meters,OK
2025-01-26T20:20:42.863154,11.5,knots,OK,68.0,degrees,OK,11.9,knots,OK,22.9,°C,OK,19.0,°C,OK,1013.5,hPa,OK,7647.0,meters,OK,1984.0,feet,OK,0.1,mm/hr,OK,1879.0,meters,OK,1955.0,meters,OK,1982.0,meters,OK
2025-01-26T20:20:43.867408,12.6,knots,OK,115.0,degrees,OK,18.0,knots,OK,20.8,°C,OK,11.7,°C,OK,1013.9,hPa,OK,6604.0,meters,OK,2466.0,feet,OK,0.5,mm/hr,OK,1965.0,meters,OK,1686.0,meters,OK,1521.0,meters,OK
2025-01-26T20:20:44.871650,9.1,knots,OK,344.0,degrees,OK,18.6,knots,OK,24.7,°C,OK,15.6,°C,OK,1014.2,hPa,OK,5256.0,meters,OK,1091.0,feet,OK,0.1,mm/hr,OK,1811.0,meters,OK,1897.0,meters,OK,1896.0,meters,OK
2025-01-26T20:20:45.875183,12.7,knots,OK,69.0,degrees,OK,20.0,knots,OK,19.5,°C,OK,14.4,°C,OK,1013.9,hPa,OK,5796.0,meters,OK,2309.0,feet,OK,0.0,mm/hr,OK,1589.0,meters,OK,1905.0,meters,OK,1826.0,meters,OK
2025-01-26T20:20:46.878359,11.9,knots,OK,34.0,degrees,OK,14.0,knots,OK,15.9,°C,OK,18.1,°C,OK,1013.8,hPa,OK,9671.0,meters,OK,2076.0,feet,OK,0.3,mm/hr,OK,1505.0,meters,OK,1647.0,meters,OK,1531.0,meters,OK
2025-01-26T20:20:47.881751,6.9,knots,OK,317.0,degrees,OK,12.3,knots,OK,21.5,°C,OK,15.1,°C,OK,1014.1,hPa,OK,9584.0,meters,OK,1243.0,feet,OK,0.4,mm/hr,OK,1627.0,meters,OK,1748.0,meters,OK,1964.0,meters,OK
2025-01-26T20:20:48.885769,14.0,knots,OK,103.0,degrees,OK,24.1,knots,OK,18.7,°C,OK,14.6,°C,OK,1013.5,hPa,OK,5833.0,meters,OK,1221.0,feet,OK,0.3,mm/hr,OK,1820.0,meters,OK,1532.0,meters,OK,1727.0,meters,OK
