timestamp,wind_speed_value,wind_speed_unit,wind_speed_status,wind_direction_value,wind_direction_unit,wind_direction_status,wind_gust_value,wind_gust_unit,wind_gust_status,temperature_value,temperature_unit,temperature_status,dewpoint_value,dewpoint_unit,dewpoint_status,pressure_value,pressure_unit,pressure_status,visibility_value,visibility_unit,visibility_status,ceiling_value,ceiling_unit,ceiling_status,precipitation_value,precipitation_unit,precipitation_status,rvr_touchdown_value,rvr_touchdown_unit,rvr_touchdown_status,rvr_midpoint_value,rvr_midpoint_unit,rvr_midpoint_status,rvr_rollout_value,rvr_rollout_unit,rvr_rollout_status
2025-01-26T19:36:31.864083,7.4,knots,OK,249.0,degrees,OK,12.6,knots,OK,24.9,°C,OK,19.5,°C,OK,1014.5,hPa,OK,7444.0,meters,OK,2136.0,feet,OK,0.2,mm/hr,OK,1592.0,meters,OK,1630.0,meters,OK,1976.0,meters,OK
2025-01-26T19:36:32.868561,6.3,knots,OK,111.0,degrees,OK,16.0,knots,OK,20.0,°C,OK,12.5,°C,OK,1013.5,hPa,OK,5198.0,meters,OK,1420.0,feet,OK,0.1,mm/hr,OK,1713.0,meters,OK,1816.0,meters,OK,1872.0,meters,OK
2025-01-26T19:36:33.872571,13.5,knots,OK,12.0,degrees,OK,11.2,knots,OK,19.7,°C,OK,12.5,°C,OK,1013.8,hPa,OK,5545.0,meters,OK,2012.0,feet,OK,0.3,mm/hr,OK,1649.0,meters,OK,1778.0,meters,OK,1845.0,meters,OK
2025-01-26T19:36:34.876117,9.0,knots,OK,227.0,degrees,OK,12.3,knots,OK,18.6,°C,OK,18.1,°C,OK,1014.9,hPa,OK,9807.0,meters,OK,1435.0,feet,OK,0.2,mm/hr,OK,1818.0,meters,OK,1710.0,meters,OK,1899.0,meters,OK
2025-01-26T19:36:35.878818,12.8,knots,OK,171.0,degrees,OK,15.9,knots,OK,15.7,°C,OK,11.7,°C,OK,1014.2,hPa,OK,9720.0,meters,OK,1957.0,feet,OK,0.1,mm/hr,OK,1690.0,meters,OK,1728.0,meters,OK,1529.0,meters,OK
2025-01-26T19:36:36.883098,5.8,knots,OK,111.0,degrees,OK,24.7,knots,OK,18.2,°C,OK,12.5,°C,OK,1014.1,hPa,OK,6266.0,meters,OK,1912.0,feet,OK,0.3,mm/hr,OK,1719.0,meters,OK,1928.0,meters,OK,1949.0,meters,OK
2025-01-26T19:36:37.887502,8.0,knots,OK,24.0,degrees,OK,18.4,knots,OK,15.6,°C,OK,14.0,°C,OK,1013.4,hPa,OK,9569.0,meters,OK,2233.0,feet,OK,0.0,mm/hr,OK,1821.0,meters,OK,1893.0,meters,OK,1508.0,meters,OK
2025-01-26T19:36:38.891602,7.6,knots,OK,41.0,degrees,OK,17.1,knots,OK,15.7,°C,OK,12.4,°C,OK,1014.7,hPa,OK,7253.0,meters,OK,1101.0,feet,OK,0.3,mm/hr,OK,1965.0,meters,OK,1612.0,meters,OK,1531.0,meters,OK
2025-01-26T19:36:39.894664,11.5,knots,OK,177.0,degrees,OK,14.7,knots,OK,20.2,°C,OK,10.8,°C,OK,1013.8,hPa,OK,6949.0,meters,OK,1045.0,feet,OK,0.3,mm/hr,OK,1887.0,meters,OK,1851.0,meters,OK,1794.0,meters,OK
2025-01-26T19:36:40.899119,11.5,knots,OK,66.0,degrees,OK,11.6,knots,OK,15.7,°C,OK,12.0,°C,OK,1013.9,hPa,OK,5722.0,meters,OK,1714.0,feet,OK,0.4,mm/hr,OK,1831.0,meters,OK,1727.0,meters,OK,1883.0,meters,OK
2025-01-26T19:36:41.902965,14.6,knots,OK,30.0,degrees,OK,21.7,knots,OK,18.7,°C,OK,11.9,°C,OK,1013.2,hPa,OK,9120.0,meters,OK,2166.0,feet,OK,0.5,mm/hr,OK,1642.0,meters,OK,1867.0,meters,OK,1556.0,meters,OK
2025-01-26T19:36:42.907308,5.6,knots,OK,117.0,degrees,OK,16.6,knots,OK,21.6,°C,OK,16.2,°C,OK,1013.3,hPa,OK,7753.0,meters,OK,2491.0,feet,OK,0.4,mm/hr,OK,1515.0,meters,OK,1572.0,meters,OK,1985.0,meters,OK
2025-01-26T19:36:43.911036,7.4,knots,OK,80.0,degrees,OK,14.1,knots,OK,23.4,°C,OK,12.3,°C,OK,1013.3,hPa,OK,5262.0,meters,OK,2515.0,feet,OK,0.1,mm/hr,OK,1532.0,meters,OK,1587.0,meters,OK,1533.0,meters,OK
2025-01-26T19:36:44.916632,14.7,knots,OK,328.0,degrees,OK,16.5,knots,OK,15.9,°C,OK,10.8,°C,OK,1014.4,hPa,OK,5373.0,meters,OK,2125.0,feet,OK,0.4,mm/hr,OK,1924.0,meters,OK,1788.0,meters,OK,1598.0,meters,OK
2025-01-26T19:36:45.921427,11.1,knots,OK,45.0,degrees,OK,23.3,knots,OK,17.5,°C,OK,12.1,°C,OK,1014.9,hPa,OK,9411.0,meters,OK,2588.0,feet,OK,0.4,mm/hr,OK,1899.0,meters,OK,1556.0,meters,OK,1542.0,meters,OK
2025-01-26T19:36:46.926642,11.4,knots,OK,83.0,degrees,OK,18.0,knots,OK,23.4,°C,OK,13.3,°C,OK,1014.5,hPa,OK,8093.0,meters,OK,1042.0,feet,OK,0.3,mm/hr,OK,1962.0,meters,OK,1848.0,meters,OK,1743.0,meters,OK
2025-01-26T19:36:47.932165,14.6,knots,OK,241.0,degrees,OK,19.1,knots,OK,23.0,°C,OK,18.5,°C,OK,1014.4,hPa,OK,8212.0,meters,OK,2431.0,feet,OK,0.1,mm/hr,OK,1800.0,meters,OK,1702.0,meters,OK,1718.0,meters,OK
2025-01-26T19:36:48.936455,7.5,knots,OK,136.0,degrees,OK,18.3,knots,OK,21.6,°C,OK,16.7,°C,OK,1013.5,hPa,OK,5829.0,meters,OK,1530.0,feet,OK,0.3,mm/hr,OK,1505.0,meters,OK,1741.0,meters,OK,1597.0,meters,OK
2025-01-26T19:36:49.940953,6.1,knots,OK,28.0,degrees,OK,13.4,knots,OK,22.8,°C,OK,16.5,°C,OK,1013.6,hPa,OK,9673.0,meters,OK,2270.0,feet,OK,0.5,mm/hr,OK,1627.0,meters,OK,1521.0,meters,OK,1699.0,meters,OK
2025-01-26T19:36:50.945518,9.6,knots,OK,253.0,degrees,OK,12.8,knots,OK,17.4,°C,OK,16.0,°C,OK,1013.7,hPa,OK,8696.0,meters,OK,1928.0,feet,OK,0.3,mm/hr,OK,1959.0,meters,OK,1503.0,meters,OK,1893.0,meters,OK
2025-01-26T19:36:51.949540,11.4,knots,OK,108.0,degrees,OK,11.8,knots,OK,18.9,°C,OK,19.1,°C,OK,1015.0,hPa,OK,7277.0,meters,OK,1957.0,feet,OK,0.0,mm/hr,OK,1554.0,meters,OK,1982.0,meters,OK,1543.0,meters,OK
2025-01-26T19:36:52.954464,5.5,knots,OK,40.0,degrees,OK,10.0,knots,OK,15.1,°C,OK,11.1,°C,OK,1014.7,hPa,OK,6021.0,meters,OK,1372.0,feet,OK,0.0,mm/hr,OK,1525.0,meters,OK,1997.0,meters,OK,1729.0,meters,OK
2025-01-26T19:36:53.958512,11.7,knots,OK,303.0,degrees,OK,20.1,knots,OK,16.7,°C,OK,10.4,°C,OK,1014.7,hPa,OK,6589.0,meters,OK,2986.0,feet,OK,0.3,mm/hr,OK,1942.0,meters,OK,1941.0,meters,OK,1994.0,meters,OK
2025-01-26T19:36:54.962381,5.3,knots,OK,56.0,degrees,OK,22.5,knots,OK,17.1,°C,OK,13.9,°C,OK,1014.7,hPa,OK,5239.0,meters,OK,1090.0,feet,OK,0.4,mm/hr,OK,1891.0,meters,OK,1532.0,meters,OK,1958.0,meters,OK
2025-01-26T19:36:55.965828,5.6,knots,OK,127.0,degrees,OK,16.5,knots,OK,16.3,°C,OK,11.2,°C,OK,1014.6,hPa,OK,8921.0,meters,OK,1347.0,feet,OK,0.3,mm/hr,OK,1827.0,meters,OK,1893.0,meters,OK,1694.0,meters,OK
2025-01-26T19:36:56.969215,8.9,knots,OK,194.0,degrees,OK,13.1,knots,OK,15.5,°C,OK,19.7,°C,OK,1013.9,hPa,OK,5218.0,meters,OK,1125.0,feet,OK,0.2,mm/hr,OK,1637.0,meters,OK,1547.0,meters,OK,1903.0,meters,OK
2025-01-26T19:36:57.973145,14.9,knots,OK,124.0,degrees,OK,23.1,knots,OK,23.4,°C,OK,15.2,°C,OK,1014.8,hPa,OK,7399.0,meters,OK,2432.0,feet,OK,0.1,mm/hr,OK,1853.0,meters,OK,1806.0,meters,OK,1742.0,meters,OK
2025-01-26T19:36:58.976990,8.0,knots,OK,337.0,degrees,OK,23.9,knots,OK,15.1,°C,OK,16.5,°C,OK,1014.9,hPa,OK,5512.0,meters,OK,2487.0,feet,OK,0.2,mm/hr,OK,1880.0,meters,OK,1588.0,meters,OK,1997.0,meters,OK
2025-01-26T19:36:59.982263,7.6,knots,OK,239.0,degrees,OK,19.1,knots,OK,24.0,°C,OK,19.5,°C,OK,1014.4,hPa,OK,5599.0,meters,OK,1653.0,feet,OK,0.2,mm/hr,OK,1670.0,meters,OK,1952.0,meters,OK,1871.0,meters,OK
2025-01-26T19:37:00.987581,8.2,knots,OK,33.0,degrees,OK,21.5,knots,OK,16.0,°C,OK,15.4,°C,OK,1014.0,hPa,OK,9781.0,meters,OK,1500.0,feet,OK,0.3,mm/hr,OK,1880.0,meters,OK,1637.0,meters,OK,1661.0,meters,OK
2025-01-26T19:37:01.991955,11.7,knots,OK,267.0,degrees,OK,19.7,knots,OK,15.7,°C,OK,14.9,°C,OK,1013.5,hPa,OK,7353.0,meters,OK,1191.0,feet,OK,0.3,mm/hr,OK,1918.0,meters,OK,1729.0,meters,OK,1619.0,meters,OK
2025-01-26T19:37:02.996509,7.8,knots,OK,252.0,degrees,OK,20.3,knots,OK,22.4,°C,OK,11.7,°C,OK,1013.1,hPa,OK,6803.0,meters,OK,2576.0,feet,OK,0.2,mm/hr,OK,1854.0,meters,OK,1975.0,meters,OK,1699.0,meters,OK
2025-01-26T19:37:03.999787,12.0,knots,OK,91.0,degrees,OK,10.7,knots,OK,17.3,°C,OK,19.5,°C,OK,1013.5,hPa,OK,9245.0,meters,OK,1087.0,feet,OK,0.1,mm/hr,OK,1970.0,meters,OK,1530.0,meters,OK,1505.0,meters,OK
2025-01-26T19:37:05.004649,13.2,knots,OK,276.0,degrees,OK,24.3,knots,OK,18.3,°C,OK,14.8,°C,OK,1013.3,hPa,OK,9853.0,meters,OK,2132.0,feet,OK,0.4,mm/hr,OK,1988.0,meters,OK,1619.0,meters,OK,1557.0,meters,OK
2025-01-26T19:37:06.009082,11.9,knots,OK,149.0,degrees,OK,10.6,knots,OK,22.5,°C,OK,17.6,°C,OK,1015.0,hPa,OK,7727.0,meters,OK,2263.0,feet,OK,0.4,mm/hr,OK,1713.0,meters,OK,1620.0,meters,OK,1545.0,meters,OK
2025-01-26T19:37:07.013221,5.1,knots,OK,239.0,degrees,OK,22.0,knots,OK,22.0,°C,OK,19.7,°C,OK,1013.6,hPa,OK,6743.0,meters,OK,1557.0,feet,OK,0.1,mm/hr,OK,1792.0,meters,OK,1562.0,meters,OK,1737.0,meters,OK
2025-01-26T19:37:08.017846,14.7,knots,OK,209.0,degrees,OK,18.6,knots,OK,20.8,°C,OK,19.9,°C,OK,1014.3,hPa,OK,9116.0,meters,OK,2030.0,feet,OK,0.4,mm/hr,OK,1608.0,meters,OK,1620.0,meters,OK,1727.0,meters,OK
2025-01-26T19:37:09.021374,6.2,knots,OK,264.0,degrees,OK,19.5,knots,OK,15.3,°C,OK,17.9,°C,OK,1014.7,hPa,OK,5433.0,meters,OK,1724.0,feet,OK,0.0,mm/hr,OK,1751.0,meters,OK,1601.0,meters,OK,1643.0,meters,OK
2025-01-26T19:37:10.024789,13.3,knots,OK,157.0,degrees,OK,23.7,knots,OK,21.4,°C,OK,14.4,°C,OK,1014.1,hPa,OK,5301.0,meters,OK,2002.0,feet,OK,0.2,mm/hr,OK,1895.0,meters,OK,1806.0,meters,OK,1801.0,meters,OK
2025-01-26T19:37:11.028333,11.0,knots,OK,313.0,degrees,OK,21.1,knots,OK,20.7,°C,OK,12.7,°C,OK,1014.1,hPa,OK,7160.0,meters,OK,1522.0,feet,OK,0.5,mm/hr,OK,1903.0,meters,OK,1573.0,meters,OK,1570.0,meters,OK
2025-01-26T19:37:12.032853,10.9,knots,OK,206.0,degrees,OK,23.9,knots,OK,19.7,°C,OK,13.9,°C,OK,1013.1,hPa,OK,9052.0,meters,OK,2249.0,feet,OK,0.5,mm/hr,OK,1855.0,meters,OK,1904.0,meters,OK,1926.0,meters,OK
2025-01-26T19:37:13.037856,8.6,knots,OK,289.0,degrees,OK,19.9,knots,OK,24.7,°C,OK,10.4,°C,OK,1013.4,hPa,OK,5781.0,meters,OK,2283.0,feet,OK,0.0,mm/hr,OK,1875.0,meters,OK,1999.0,meters,OK,1501.0,meters,OK
2025-01-26T19:37:14.042341,13.0,knots,OK,139.0,degrees,OK,21.0,knots,OK,15.9,°C,OK,13.4,°C,OK,1013.6,hPa,OK,8619.0,meters,OK,1682.0,feet,OK,0.1,mm/hr,OK,1876.0,meters,OK,1844.0,meters,OK,1844.0,meters,OK
2025-01-26T19:37:15.047149,7.8,knots,OK,38.0,degrees,OK,23.9,knots,OK,18.5,°C,OK,16.2,°C,OK,1014.2,hPa,OK,6926.0,meters,OK,2243.0,feet,OK,0.0,mm/hr,OK,1561.0,meters,OK,1708.0,meters,OK,1660.0,meters,OK
2025-01-26T19:37:16.052288,13.5,knots,OK,334.0,degrees,OK,12.5,knots,OK,24.7,°C,OK,19.7,°C,OK,1014.2,hPa,OK,6344.0,meters,OK,2227.0,feet,OK,0.4,mm/hr,OK,1551.0,meters,OK,1862.0,meters,OK,1629.0,meters,OK
2025-01-26T19:37:17.056465,10.5,knots,OK,93.0,degrees,OK,21.3,knots,OK,16.0,°C,OK,12.3,°C,OK,1013.6,hPa,OK,7981.0,meters,OK,2277.0,feet,OK,0.0,mm/hr,OK,1542.0,meters,OK,1884.0,meters,OK,1831.0,meters,OK
2025-01-26T19:37:18.061749,14.4,knots,OK,100.0,degrees,OK,14.2,knots,OK,18.8,°C,OK,10.1,°C,OK,1013.1,hPa,OK,8214.0,meters,OK,2813.0,feet,OK,0.3,mm/hr,OK,1516.0,meters,OK,1868.0,meters,OK,1988.0,meters,OK
2025-01-26T19:37:19.068491,11.4,knots,OK,101.0,degrees,OK,20.3,knots,OK,20.2,°C,OK,14.1,°C,OK,1014.0,hPa,OK,6299.0,meters,OK,1731.0,feet,OK,0.5,mm/hr,OK,1722.0,meters,OK,1859.0,meters,OK,1944.0,meters,OK
2025-01-26T19:37:20.075832,8.6,knots,OK,357.0,degrees,OK,15.8,knots,OK,23.6,°C,OK,18.1,°C,OK,1014.4,hPa,OK,6711.0,meters,OK,1399.0,feet,OK,0.2,mm/hr,OK,1876.0,meters,OK,1597.0,meters,OK,1635.0,meters,OK
2025-01-26T19:37:21.081840,12.6,knots,OK,35.0,degrees,OK,19.9,knots,OK,18.3,°C,OK,13.8,°C,OK,1013.4,hPa,OK,8696.0,meters,OK,1785.0,feet,OK,0.4,mm/hr,OK,1804.0,meters,OK,1922.0,meters,OK,1780.0,meters,OK
2025-01-26T19:37:22.085849,12.6,knots,OK,6.0,degrees,OK,22.3,knots,OK,24.8,°C,OK,17.3,°C,OK,1013.9,hPa,OK,9803.0,meters,OK,2274.0,feet,OK,0.3,mm/hr,OK,1656.0,meters,OK,1843.0,meters,OK,1688.0,meters,OK
2025-01-26T19:37:23.090215,13.7,knots,OK,239.0,degrees,OK,18.7,knots,OK,19.3,°C,OK,13.4,°C,OK,1013.2,hPa,OK,9891.0,meters,OK,1519.0,feet,OK,0.3,mm/hr,OK,1999.0,meters,OK,1983.0,meters,OK,1655.0,meters,OK
2025-01-26T19:37:24.096858,7.0,knots,OK,214.0,degrees,OK,10.2,knots,OK,23.1,°C,OK,13.8,°C,OK,1015.0,hPa,OK,6440.0,meters,OK,1158.0,feet,OK,0.3,mm/hr,OK,1871.0,meters,OK,1904.0,meters,OK,1751.0,meters,OK
2025-01-26T19:37:25.102567,8.1,knots,OK,196.0,degrees,OK,14.0,knots,OK,16.3,°C,OK,11.0,°C,OK,1013.1,hPa,OK,5974.0,meters,OK,2793.0,feet,OK,0.5,mm/hr,OK,1597.0,meters,OK,1708.0,meters,OK,1879.0,meters,OK
2025-01-26T19:37:26.108688,10.6,knots,OK,157.0,degrees,OK,19.2,knots,OK,20.7,°C,OK,12.4,°C,OK,1014.8,hPa,OK,7112.0,meters,OK,1629.0,feet,OK,0.5,mm/hr,OK,1876.0,meters,OK,1504.0,meters,OK,1522.0,meters,OK
2025-01-26T19:37:27.115648,9.7,knots,OK,42.0,degrees,OK,22.1,knots,OK,22.6,°C,OK,15.4,°C,OK,1014.4,hPa,OK,8522.0,meters,OK,2737.0,feet,OK,0.4,mm/hr,OK,1834.0,meters,OK,1527.0,meters,OK,1894.0,meters,OK
2025-01-26T19:37:28.120925,5.8,knots,OK,5.0,degrees,OK,17.7,knots,OK,19.8,°C,OK,17.8,°C,OK,1013.9,hPa,OK,8497.0,meters,OK,2000.0,feet,OK,0.4,mm/hr,OK,1639.0,meters,OK,1700.0,meters,OK,1998.0,meters,OK
2025-01-26T19:37:29.125046,9.5,knots,OK,20.0,degrees,OK,21.6,knots,OK,22.4,°C,OK,14.8,°C,OK,1013.4,hPa,OK,7714.0,meters,OK,1975.0,feet,OK,0.4,mm/hr,OK,1747.0,meters,OK,1818.0,meters,OK,1614.0,meters,OK
2025-01-26T19:37:30.130108,12.0,knots,OK,273.0,degrees,OK,13.6,knots,OK,24.5,°C,OK,19.4,°C,OK,1013.4,hPa,OK,6463.0,meters,OK,2792.0,feet,OK,0.3,mm/hr,OK,1748.0,meters,OK,1880.0,meters,OK,1707.0,meters,OK
2025-01-26T19:37:31.135791,7.6,knots,OK,299.0,degrees,OK,16.7,knots,OK,16.1,°C,OK,19.8,°C,OK,1013.1,hPa,OK,7962.0,meters,OK,1540.0,feet,OK,0.5,mm/hr,OK,1908.0,meters,OK,1571.0,meters,OK,1744.0,meters,OK
2025-01-26T19:37:32.142974,14.5,knots,OK,276.0,degrees,OK,21.9,knots,OK,21.6,°C,OK,14.0,°C,OK,1015.0,hPa,OK,8655.0,meters,OK,2732.0,feet,OK,0.2,mm/hr,OK,1801.0,meters,OK,1775.0,meters,OK,1521.0,meters,OK
2025-01-26T19:37:33.148817,13.9,knots,OK,289.0,degrees,OK,16.8,knots,OK,24.6,°C,OK,11.1,°C,OK,1014.7,hPa,OK,5222.0,meters,OK,2497.0,feet,OK,0.1,mm/hr,OK,1827.0,meters,OK,1877.0,meters,OK,1593.0,meters,OK
2025-01-26T19:37:34.154255,12.2,knots,OK,259.0,degrees,OK,24.3,knots,OK,23.7,°C,OK,17.0,°C,OK,1014.2,hPa,OK,6857.0,meters,OK,1093.0,feet,OK,0.2,mm/hr,OK,1989.0,meters,OK,1764.0,meters,OK,1756.0,meters,OK
2025-01-26T19:37:35.159351,8.6,knots,OK,74.0,degrees,OK,12.6,knots,OK,24.0,°C,OK,14.5,°C,OK,1013.9,hPa,OK,7445.0,meters,OK,1131.0,feet,OK,0.3,mm/hr,OK,1685.0,meters,OK,1624.0,meters,OK,1732.0,meters,OK
2025-01-26T19:37:36.163793,11.4,knots,OK,101.0,degrees,OK,20.0,knots,OK,19.0,°C,OK,16.8,°C,OK,1013.5,hPa,OK,8937.0,meters,OK,2293.0,feet,OK,0.5,mm/hr,OK,1914.0,meters,OK,1956.0,meters,OK,1840.0,meters,OK
2025-01-26T19:37:37.170851,6.4,knots,OK,112.0,degrees,OK,15.7,knots,OK,17.4,°C,OK,13.6,°C,OK,1014.3,hPa,OK,6310.0,meters,OK,1391.0,feet,OK,0.2,mm/hr,OK,1838.0,meters,OK,1551.0,meters,OK,1609.0,meters,OK
2025-01-26T19:37:38.178447,14.1,knots,OK,148.0,degrees,OK,14.1,knots,OK,18.0,°C,OK,13.2,°C,OK,1013.9,hPa,OK,8571.0,meters,OK,2694.0,feet,OK,0.0,mm/hr,OK,1609.0,meters,OK,1915.0,meters,OK,1732.0,meters,OK
2025-01-26T19:37:39.184503,13.6,knots,OK,241.0,degrees,OK,18.1,knots,OK,23.3,°C,OK,12.9,°C,OK,1014.9,hPa,OK,6211.0,meters,OK,1771.0,feet,OK,0.4,mm/hr,OK,1837.0,meters,OK,1832.0,meters,OK,1523.0,meters,OK
2025-01-26T19:37:40.189544,10.0,knots,OK,68.0,degrees,OK,10.3,knots,OK,23.6,°C,OK,14.5,°C,OK,1014.5,hPa,OK,7786.0,meters,OK,1721.0,feet,OK,0.4,mm/hr,OK,1553.0,meters,OK,1834.0,meters,OK,1857.0,meters,OK
2025-01-26T19:37:41.196066,9.3,knots,OK,30.0,degrees,OK,21.2,knots,OK,24.5,°C,OK,14.0,°C,OK,1014.9,hPa,OK,8018.0,meters,OK,2703.0,feet,OK,0.1,mm/hr,OK,1954.0,meters,OK,1564.0,meters,OK,1588.0,meters,OK
2025-01-26T19:37:42.201898,7.2,knots,OK,31.0,degrees,OK,10.9,knots,OK,21.8,°C,OK,15.2,°C,OK,1013.4,hPa,OK,5476.0,meters,OK,2747.0,feet,OK,0.4,mm/hr,OK,1995.0,meters,OK,1738.0,meters,OK,1588.0,meters,OK
2025-01-26T19:37:43.207900,10.1,knots,OK,137.0,degrees,OK,19.4,knots,OK,18.3,°C,OK,15.8,°C,OK,1014.1,hPa,OK,8357.0,meters,OK,2153.0,feet,OK,0.3,mm/hr,OK,1827.0,meters,OK,1970.0,meters,OK,1738.0,meters,OK
2025-01-26T19:37:44.214835,8.8,knots,OK,322.0,degrees,OK,16.7,knots,OK,15.3,°C,OK,18.7,°C,OK,1014.3,hPa,OK,6645.0,meters,OK,2352.0,feet,OK,0.1,mm/hr,OK,1850.0,meters,OK,1677.0,meters,OK,1748.0,meters,OK
2025-01-26T19:37:45.221356,10.3,knots,OK,282.0,degrees,OK,15.4,knots,OK,18.5,°C,OK,16.1,°C,OK,1014.2,hPa,OK,8034.0,meters,OK,2513.0,feet,OK,0.4,mm/hr,OK,1700.0,meters,OK,1826.0,meters,OK,1622.0,meters,OK
2025-01-26T19:37:46.227374,12.1,knots,OK,160.0,degrees,OK,10.4,knots,OK,20.3,°C,OK,15.9,°C,OK,1013.0,hPa,OK,6003.0,meters,OK,2453.0,feet,OK,0.0,mm/hr,OK,1898.0,meters,OK,1835.0,meters,OK,1517.0,meters,OK
2025-01-26T19:37:47.233608,13.6,knots,OK,308.0,degrees,OK,20.1,knots,OK,19.9,°C,OK,14.5,°C,OK,1013.3,hPa,OK,9732.0,meters,OK,2535.0,feet,OK,0.4,mm/hr,OK,1971.0,meters,OK,1807.0,meters,OK,1746.0,meters,OK
2025-01-26T19:37:48.239102,12.5,knots,OK,222.0,degrees,OK,22.6,knots,OK,16.6,°C,OK,13.7,°C,OK,1014.4,hPa,OK,5612.0,meters,OK,2967.0,feet,OK,0.4,mm/hr,OK,1929.0,meters,OK,1831.0,meters,OK,1905.0,meters,OK
2025-01-26T19:37:49.244790,5.2,knots,OK,143.0,degrees,OK,11.8,knots,OK,17.3,°C,OK,16.3,°C,OK,1014.4,hPa,OK,8236.0,meters,OK,1011.0,feet,OK,0.3,mm/hr,OK,1694.0,meters,OK,1700.0,meters,OK,1515.0,meters,OK
2025-01-26T19:37:50.251627,11.2,knots,OK,272.0,degrees,OK,17.9,knots,OK,22.5,°C,OK,13.0,°C,OK,1013.1,hPa,OK,5604.0,meters,OK,2544.0,feet,OK,0.3,mm/hr,OK,1706.0,meters,OK,1743.0,meters,OK,1860.0,meters,OK
2025-01-26T19:37:51.258003,9.6,knots,OK,71.0,degrees,OK,14.4,knots,OK,24.0,°C,OK,19.7,°C,OK,1014.4,hPa,OK,8371.0,meters,OK,2680.0,feet,OK,0.5,mm/hr,OK,1760.0,meters,OK,1636.0,meters,OK,1756.0,meters,OK
2025-01-26T19:37:52.264709,12.3,knots,OK,298.0,degrees,OK,18.7,knots,OK,16.7,°C,OK,15.5,°C,OK,1014.6,hPa,OK,9641.0,meters,OK,2703.0,feet,OK,0.3,mm/hr,OK,1715.0,meters,OK,1883.0,meters,OK,1859.0,meters,OK
2025-01-26T19:37:53.270852,14.7,knots,OK,211.0,degrees,OK,21.4,knots,OK,21.8,°C,OK,17.0,°C,OK,1013.4,hPa,OK,9597.0,meters,OK,2590.0,feet,OK,0.0,mm/hr,OK,1757.0,meters,OK,1928.0,meters,OK,1764.0,meters,OK
2025-01-26T19:37:54.276948,9.2,knots,OK,58.0,degrees,OK,17.5,knots,OK,16.6,°C,OK,12.4,°C,OK,1014.3,hPa,OK,7355.0,meters,OK,1818.0,feet,OK,0.3,mm/hr,OK,1888.0,meters,OK,1746.0,meters,OK,1778.0,meters,OK
2025-01-26T19:37:55.282977,9.9,knots,OK,43.0,degrees,OK,12.7,knots,OK,21.9,°C,OK,10.4,°C,OK,1013.3,hPa,OK,8208.0,meters,OK,1749.0,feet,OK,0.0,mm/hr,OK,1604.0,meters,OK,1845.0,meters,OK,1528.0,meters,OK
2025-01-26T19:37:56.290371,5.8,knots,OK,114.0,degrees,OK,12.6,knots,OK,20.7,°C,OK,19.8,°C,OK,1013.5,hPa,OK,6579.0,meters,OK,1856.0,feet,OK,0.1,mm/hr,OK,1607.0,meters,OK,1509.0,meters,OK,1651.0,meters,OK
2025-01-26T19:37:57.297440,8.3,knots,OK,355.0,degrees,OK,19.8,knots,OK,20.6,°C,OK,12.4,°C,OK,1014.8,hPa,OK,6406.0,meters,OK,2986.0,feet,OK,0.2,mm/hr,OK,1507.0,meters,OK,1773.0,meters,OK,1714.0,meters,OK
2025-01-26T19:37:58.304965,9.8,knots,OK,354.0,degrees,OK,24.2,knots,OK,17.1,°C,OK,19.6,°C,OK,1013.4,hPa,OK,7495.0,meters,OK,1029.0,feet,OK,0.0,mm/hr,OK,1658.0,meters,OK,1560.0,meters,OK,1693.0,meters,OK
2025-01-26T19:37:59.311934,10.6,knots,OK,207.0,degrees,OK,17.9,knots,OK,24.8,°C,OK,12.7,°C,OK,1013.8,hPa,OK,7321.0,meters,OK,2520.0,feet,OK,0.5,mm/hr,OK,1830.0,meters,OK,1815.0,meters,OK,1954.0,meters,OK
2025-01-26T19:38:00.318461,13.3,knots,OK,196.0,degrees,OK,16.8,knots,OK,21.2,°C,OK,13.1,°C,OK,1013.2,hPa,OK,6548.0,meters,OK,1175.0,feet,OK,0.0,mm/hr,OK,1633.0,meters,OK,1643.0,meters,OK,1739.0,meters,OK
2025-01-26T19:38:01.324845,10.4,knots,OK,176.0,degrees,OK,11.9,knots,OK,17.6,°C,OK,14.2,°C,OK,1013.3,hPa,OK,6758.0,meters,OK,2513.0,feet,OK,0.2,mm/hr,OK,1559.0,meters,OK,1950.0,meters,OK,1505.0,meters,OK
2025-01-26T19:38:02.332552,5.9,knots,OK,358.0,degrees,OK,13.8,knots,OK,21.9,°C,OK,17.7,°C,OK,1014.7,hPa,OK,7498.0,meters,OK,2108.0,feet,OK,0.5,mm/hr,OK,1814.0,meters,OK,1662.0,meters,OK,1574.0,meters,OK
2025-01-26T19:38:03.340353,11.8,knots,OK,104.0,degrees,OK,15.3,knots,OK,15.8,°C,OK,10.7,°C,OK,1014.6,hPa,OK,7463.0,meters,OK,2263.0,feet,OK,0.3,mm/hr,OK,1563.0,meters,OK,1710.0,meters,OK,1624.0,meters,OK
2025-01-26T19:38:04.347010,8.4,knots,OK,113.0,degrees,OK,24.7,knots,OK,17.7,°C,OK,13.7,°C,OK,1014.3,hPa,OK,5880.0,meters,OK,2617.0,feet,OK,0.2,mm/hr,OK,1725.0,meters,OK,1796.0,meters,OK,1805.0,meters,OK
2025-01-26T19:38:05.353690,12.6,knots,OK,142.0,degrees,OK,11.8,knots,OK,19.1,°C,OK,13.5,°C,OK,1013.6,hPa,OK,7308.0,meters,OK,2078.0,feet,OK,0.2,mm/hr,OK,1822.0,meters,OK,1734.0,meters,OK,1656.0,meters,OK
2025-01-26T19:38:06.360588,8.2,knots,OK,170.0,degrees,OK,16.1,knots,OK,23.8,°C,OK,18.6,°C,OK,1014.7,hPa,OK,9274.0,meters,OK,1389.0,feet,OK,0.3,mm/hr,OK,1635.0,meters,OK,1803.0,meters,OK,1877.0,meters,OK
2025-01-26T19:38:07.367410,10.2,knots,OK,59.0,degrees,OK,23.4,knots,OK,18.4,°C,OK,17.2,°C,OK,1014.7,hPa,OK,8215.0,meters,OK,2950.0,feet,OK,0.2,mm/hr,OK,1595.0,meters,OK,1721.0,meters,OK,1827.0,meters,OK
2025-01-26T19:38:08.374855,10.4,knots,OK,102.0,degrees,OK,20.7,knots,OK,20.5,°C,OK,19.6,°C,OK,1014.2,hPa,OK,9159.0,meters,OK,2545.0,feet,OK,0.0,mm/hr,OK,1725.0,meters,OK,1653.0,meters,OK,1592.0,meters,OK
2025-01-26T19:38:09.381818,7.3,knots,OK,255.0,degrees,OK,24.8,knots,OK,24.9,°C,OK,14.4,°C,OK,1013.2,hPa,OK,6450.0,meters,OK,1164.0,feet,OK,0.3,mm/hr,OK,1760.0,meters,OK,1715.0,meters,OK,1798.0,meters,OK
2025-01-26T19:38:10.388530,10.3,knots,OK,52.0,degrees,OK,18.2,knots,OK,19.9,°C,OK,16.3,°C,OK,1014.8,hPa,OK,7361.0,meters,OK,2957.0,feet,OK,0.5,mm/hr,OK,1524.0,meters,OK,1738.0,meters,OK,1501.0,meters,OK
2025-01-26T19:38:11.394987,13.7,knots,OK,47.0,degrees,OK,14.6,knots,OK,24.9,°C,OK,14.1,°C,OK,1013.4,hPa,OK,6515.0,meters,OK,1969.0,feet,OK,0.1,mm/hr,OK,1995.0,meters,OK,1658.0,meters,OK,1887.0,meters,OK
2025-01-26T19:38:12.402470,8.3,knots,OK,357.0,degrees,OK,12.2,knots,OK,19.3,°C,OK,11.9,°C,OK,1013.1,hPa,OK,9426.0,meters,OK,2204.0,feet,OK,0.2,mm/hr,OK,1654.0,meters,OK,1724.0,meters,OK,1542.0,meters,OK
2025-01-26T19:38:13.408118,9.1,knots,OK,291.0,degrees,OK,13.8,knots,OK,16.4,°C,OK,10.6,°C,OK,1014.1,hPa,OK,5984.0,meters,OK,1336.0,feet,OK,0.2,mm/hr,OK,1893.0,meters,OK,1815.0,meters,OK,1785.0,meters,OK
2025-01-26T19:38:14.413480,14.9,knots,OK,340.0,degrees,OK,20.1,knots,OK,24.0,°C,OK,14.6,°C,OK,1014.2,hPa,OK,5030.0,meters,OK,1686.0,feet,OK,0.2,mm/hr,OK,1870.0,meters,OK,1784.0,meters,OK,1928.0,meters,OK
2025-01-26T19:38:15.420115,9.2,knots,OK,165.0,degrees,OK,18.2,knots,OK,24.8,°C,OK,13.6,°C,OK,1014.0,hPa,OK,8962.0,meters,OK,2299.0,feet,OK,0.2,mm/hr,OK,1835.0,meters,OK,1538.0,meters,OK,1920.0,meters,OK
2025-01-26T19:38:16.426553,5.1,knots,OK,161.0,degrees,OK,21.8,knots,OK,24.5,°C,OK,11.0,°C,OK,1014.3,hPa,OK,7705.0,meters,OK,2466.0,feet,OK,0.2,mm/hr,OK,1794.0,meters,OK,1975.0,meters,OK,1643.0,meters,OK
2025-01-26T19:38:17.433396,14.0,knots,OK,86.0,degrees,OK,10.4,knots,OK,22.4,°C,OK,17.3,°C,OK,1013.0,hPa,OK,7298.0,meters,OK,1640.0,feet,OK,0.0,mm/hr,OK,1847.0,meters,OK,1697.0,meters,OK,1955.0,meters,OK
2025-01-26T19:38:18.440427,11.4,knots,OK,269.0,degrees,OK,24.8,knots,OK,21.0,°C,OK,10.7,°C,OK,1013.7,hPa,OK,8666.0,meters,OK,2182.0,feet,OK,0.2,mm/hr,OK,1516.0,meters,OK,1803.0,meters,OK,1553.0,meters,OK
2025-01-26T19:38:19.446790,10.4,knots,OK,347.0,degrees,OK,16.2,knots,OK,24.0,°C,OK,17.3,°C,OK,1013.8,hPa,OK,7294.0,meters,OK,1925.0,feet,OK,0.0,mm/hr,OK,1764.0,meters,OK,1941.0,meters,OK,1943.0,meters,OK
2025-01-26T19:38:20.454246,11.1,knots,OK,324.0,degrees,OK,20.4,knots,OK,23.1,°C,OK,13.7,°C,OK,1013.5,hPa,OK,8718.0,meters,OK,1930.0,feet,OK,0.1,mm/hr,OK,1598.0,meters,OK,1729.0,meters,OK,1610.0,meters,OK
2025-01-26T19:38:21.460987,10.2,knots,OK,80.0,degrees,OK,24.9,knots,OK,23.8,°C,OK,10.4,°C,OK,1014.5,hPa,OK,7492.0,meters,OK,2397.0,feet,OK,0.4,mm/hr,OK,1749.0,meters,OK,1649.0,meters,OK,1867.0,meters,OK
2025-01-26T19:38:22.466992,11.3,knots,OK,43.0,degrees,OK,15.5,knots,OK,21.2,°C,OK,18.8,°C,OK,1013.3,hPa,OK,6409.0,meters,OK,2183.0,feet,OK,0.4,mm/hr,OK,1871.0,meters,OK,1770.0,meters,OK,1974.0,meters,OK
2025-01-26T19:38:23.473440,14.9,knots,OK,32.0,degrees,OK,13.8,knots,OK,17.5,°C,OK,18.8,°C,OK,1014.9,hPa,OK,9202.0,meters,OK,1684.0,feet,OK,0.4,mm/hr,OK,1672.0,meters,OK,1597.0,meters,OK,1754.0,meters,OK
2025-01-26T19:38:24.480387,8.1,knots,OK,107.0,degrees,OK,14.0,knots,OK,17.2,°C,OK,13.2,°C,OK,1015.0,hPa,OK,9240.0,meters,OK,1820.0,feet,OK,0.4,mm/hr,OK,1946.0,meters,OK,1595.0,meters,OK,1663.0,meters,OK
2025-01-26T19:38:25.487208,10.6,knots,OK,50.0,degrees,OK,15.5,knots,OK,18.5,°C,OK,17.7,°C,OK,1014.4,hPa,OK,5826.0,meters,OK,1944.0,feet,OK,0.4,mm/hr,OK,1735.0,meters,OK,1890.0,meters,OK,1754.0,meters,OK
2025-01-26T19:38:26.492895,10.1,knots,OK,346.0,degrees,OK,21.4,knots,OK,16.7,°C,OK,15.8,°C,OK,1014.3,hPa,OK,9327.0,meters,OK,1948.0,feet,OK,0.5,mm/hr,OK,1919.0,meters,OK,1673.0,meters,OK,1981.0,meters,OK
2025-01-26T19:38:27.498976,11.0,knots,OK,212.0,degrees,OK,10.1,knots,OK,17.9,°C,OK,19.7,°C,OK,1013.3,hPa,OK,8965.0,meters,OK,2217.0,feet,OK,0.1,mm/hr,OK,1937.0,meters,OK,1949.0,meters,OK,1852.0,meters,OK
2025-01-26T19:38:28.504879,6.6,knots,OK,82.0,degrees,OK,14.6,knots,OK,16.3,°C,OK,10.9,°C,OK,1014.6,hPa,OK,8431.0,meters,OK,1569.0,feet,OK,0.1,mm/hr,OK,1951.0,meters,OK,1952.0,meters,OK,1625.0,meters,OK
2025-01-26T19:38:29.512411,8.1,knots,OK,173.0,degrees,OK,19.1,knots,OK,15.2,°C,OK,16.3,°C,OK,1013.0,hPa,OK,9621.0,meters,OK,2309.0,feet,OK,0.4,mm/hr,OK,1684.0,meters,OK,1991.0,meters,OK,1842.0,meters,OK
2025-01-26T19:38:30.519584,7.9,knots,OK,254.0,degrees,OK,22.9,knots,OK,20.1,°C,OK,19.4,°C,OK,1014.4,hPa,OK,7314.0,meters,OK,1269.0,feet,OK,0.0,mm/hr,OK,1955.0,meters,OK,1880.0,meters,OK,1788.0,meters,OK
2025-01-26T19:38:31.527044,10.5,knots,OK,295.0,degrees,OK,16.2,knots,OK,16.1,°C,OK,12.0,°C,OK,1013.5,hPa,OK,5518.0,meters,OK,1372.0,feet,OK,0.5,mm/hr,OK,1813.0,meters,OK,1558.0,meters,OK,1738.0,meters,OK
2025-01-26T19:38:32.532235,5.1,knots,OK,276.0,degrees,OK,23.7,knots,OK,20.6,°C,OK,15.5,°C,OK,1014.9,hPa,OK,6167.0,meters,OK,2809.0,feet,OK,0.1,mm/hr,OK,1835.0,meters,OK,1681.0,meters,OK,1809.0,meters,OK
2025-01-26T19:38:33.539285,14.1,knots,OK,4.0,degrees,OK,18.1,knots,OK,21.8,°C,OK,12.9,°C,OK,1014.3,hPa,OK,6605.0,meters,OK,2673.0,feet,OK,0.2,mm/hr,OK,1584.0,meters,OK,1847.0,meters,OK,1501.0,meters,OK
2025-01-26T19:38:34.546739,5.1,knots,OK,15.0,degrees,OK,17.7,knots,OK,22.2,°C,OK,12.6,°C,OK,1013.5,hPa,OK,8481.0,meters,OK,1310.0,feet,OK,0.0,mm/hr,OK,1733.0,meters,OK,1739.0,meters,OK,1919.0,meters,OK
2025-01-26T19:38:35.553380,15.0,knots,OK,193.0,degrees,OK,14.9,knots,OK,20.0,°C,OK,19.7,°C,OK,1013.1,hPa,OK,8355.0,meters,OK,1563.0,feet,OK,0.1,mm/hr,OK,1660.0,meters,OK,1768.0,meters,OK,1723.0,meters,OK
2025-01-26T19:38:36.560574,8.9,knots,OK,107.0,degrees,OK,24.4,knots,OK,21.7,°C,OK,13.3,°C,OK,1014.2,hPa,OK,5261.0,meters,OK,1520.0,feet,OK,0.1,mm/hr,OK,1930.0,meters,OK,1731.0,meters,OK,1906.0,meters,OK
2025-01-26T19:38:37.567881,7.9,knots,OK,51.0,degrees,OK,13.1,knots,OK,24.4,°C,OK,11.8,°C,OK,1014.6,hPa,OK,8320.0,meters,OK,2179.0,feet,OK,0.4,mm/hr,OK,1780.0,meters,OK,1739.0,meters,OK,1553.0,meters,OK
2025-01-26T19:38:38.573214,13.6,knots,OK,336.0,degrees,OK,14.1,knots,OK,23.7,°C,OK,18.6,°C,OK,1013.0,hPa,OK,9661.0,meters,OK,1587.0,feet,OK,0.3,mm/hr,OK,1817.0,meters,OK,1794.0,meters,OK,1588.0,meters,OK
2025-01-26T19:38:39.580610,6.7,knots,OK,341.0,degrees,OK,13.0,knots,OK,23.4,°C,OK,10.1,°C,OK,1013.9,hPa,OK,8938.0,meters,OK,2665.0,feet,OK,0.1,mm/hr,OK,1530.0,meters,OK,1787.0,meters,OK,1771.0,meters,OK
2025-01-26T19:38:40.587495,5.6,knots,OK,195.0,degrees,OK,18.1,knots,OK,24.7,°C,OK,15.1,°C,OK,1014.3,hPa,OK,6838.0,meters,OK,1961.0,feet,OK,0.5,mm/hr,OK,1778.0,meters,OK,1653.0,meters,OK,1506.0,meters,OK
2025-01-26T19:38:41.595036,13.3,knots,OK,246.0,degrees,OK,20.1,knots,OK,21.9,°C,OK,18.6,°C,OK,1013.6,hPa,OK,9343.0,meters,OK,2809.0,feet,OK,0.4,mm/hr,OK,1715.0,meters,OK,1606.0,meters,OK,1660.0,meters,OK
2025-01-26T19:38:42.600510,7.9,knots,OK,264.0,degrees,OK,21.2,knots,OK,15.9,°C,OK,10.8,°C,OK,1013.5,hPa,OK,5772.0,meters,OK,1266.0,feet,OK,0.4,mm/hr,OK,1975.0,meters,OK,1565.0,meters,OK,1954.0,meters,OK
2025-01-26T19:38:43.607911,14.7,knots,OK,219.0,degrees,OK,19.3,knots,OK,20.1,°C,OK,11.3,°C,OK,1013.3,hPa,OK,8191.0,meters,OK,1431.0,feet,OK,0.1,mm/hr,OK,1920.0,meters,OK,1838.0,meters,OK,1829.0,meters,OK
2025-01-26T19:38:44.615101,6.5,knots,OK,317.0,degrees,OK,17.8,knots,OK,16.9,°C,OK,12.0,°C,OK,1013.3,hPa,OK,8561.0,meters,OK,2210.0,feet,OK,0.4,mm/hr,OK,1928.0,meters,OK,1547.0,meters,OK,1941.0,meters,OK
2025-01-26T19:38:45.622040,13.6,knots,OK,346.0,degrees,OK,23.1,knots,OK,21.2,°C,OK,16.5,°C,OK,1013.0,hPa,OK,7246.0,meters,OK,1975.0,feet,OK,0.3,mm/hr,OK,1583.0,meters,OK,1991.0,meters,OK,1745.0,meters,OK
2025-01-26T19:38:46.629860,11.7,knots,OK,145.0,degrees,OK,16.1,knots,OK,16.6,°C,OK,17.4,°C,OK,1013.4,hPa,OK,5894.0,meters,OK,1333.0,feet,OK,0.1,mm/hr,OK,1611.0,meters,OK,1547.0,meters,OK,1928.0,meters,OK
2025-01-26T19:38:47.637907,13.9,knots,OK,201.0,degrees,OK,12.1,knots,OK,15.1,°C,OK,16.8,°C,OK,1014.1,hPa,OK,5079.0,meters,OK,1927.0,feet,OK,0.0,mm/hr,OK,1588.0,meters,OK,1942.0,meters,OK,1929.0,meters,OK
2025-01-26T19:38:48.645974,11.1,knots,OK,164.0,degrees,OK,16.3,knots,OK,21.1,°C,OK,13.8,°C,OK,1013.9,hPa,OK,5279.0,meters,OK,2502.0,feet,OK,0.4,mm/hr,OK,1872.0,meters,OK,1899.0,meters,OK,1948.0,meters,OK
2025-01-26T19:38:49.653366,5.8,knots,OK,274.0,degrees,OK,14.6,knots,OK,16.7,°C,OK,13.8,°C,OK,1014.7,hPa,OK,9131.0,meters,OK,2361.0,feet,OK,0.5,mm/hr,OK,1926.0,meters,OK,1776.0,meters,OK,1984.0,meters,OK
2025-01-26T19:38:50.670697,11.3,knots,OK,40.0,degrees,OK,15.5,knots,OK,19.8,°C,OK,12.2,°C,OK,1014.8,hPa,OK,8402.0,meters,OK,2375.0,feet,OK,0.2,mm/hr,OK,1907.0,meters,OK,1632.0,meters,OK,1718.0,meters,OK
2025-01-26T19:38:51.677966,14.0,knots,OK,201.0,degrees,OK,15.8,knots,OK,23.1,°C,OK,12.1,°C,OK,1014.7,hPa,OK,7042.0,meters,OK,1330.0,feet,OK,0.0,mm/hr,OK,1530.0,meters,OK,1817.0,meters,OK,1812.0,meters,OK
2025-01-26T19:38:52.684509,11.4,knots,OK,322.0,degrees,OK,13.0,knots,OK,24.8,°C,OK,17.7,°C,OK,1013.4,hPa,OK,5822.0,meters,OK,1695.0,feet,OK,0.2,mm/hr,OK,1906.0,meters,OK,1737.0,meters,OK,1806.0,meters,OK
2025-01-26T19:38:53.692375,13.9,knots,OK,17.0,degrees,OK,24.5,knots,OK,23.0,°C,OK,19.4,°C,OK,1015.0,hPa,OK,5305.0,meters,OK,2436.0,feet,OK,0.0,mm/hr,OK,1558.0,meters,OK,1784.0,meters,OK,1622.0,meters,OK
2025-01-26T19:38:54.699823,9.3,knots,OK,41.0,degrees,OK,12.2,knots,OK,17.3,°C,OK,18.3,°C,OK,1013.9,hPa,OK,7612.0,meters,OK,2300.0,feet,OK,0.3,mm/hr,OK,1826.0,meters,OK,1814.0,meters,OK,1694.0,meters,OK
2025-01-26T19:38:55.706974,9.0,knots,OK,95.0,degrees,OK,16.8,knots,OK,19.5,°C,OK,19.6,°C,OK,1014.9,hPa,OK,9628.0,meters,OK,1606.0,feet,OK,0.3,mm/hr,OK,1747.0,meters,OK,1959.0,meters,OK,1788.0,meters,OK
2025-01-26T19:38:56.713406,8.5,knots,OK,143.0,degrees,OK,18.2,knots,OK,15.4,°C,OK,19.0,°C,OK,1014.7,hPa,OK,7435.0,meters,OK,2204.0,feet,OK,0.2,mm/hr,OK,1984.0,meters,OK,1907.0,meters,OK,1905.0,meters,OK
2025-01-26T19:38:57.720755,5.4,knots,OK,151.0,degrees,OK,19.4,knots,OK,21.9,°C,OK,19.9,°C,OK,1014.8,hPa,OK,6892.0,meters,OK,1385.0,feet,OK,0.4,mm/hr,OK,1989.0,meters,OK,1810.0,meters,OK,1767.0,meters,OK
2025-01-26T19:38:58.728120,11.1,knots,OK,12.0,degrees,OK,15.0,knots,OK,17.1,°C,OK,19.4,°C,OK,1014.1,hPa,OK,8016.0,meters,OK,1900.0,feet,OK,0.5,mm/hr,OK,1828.0,meters,OK,1540.0,meters,OK,1816.0,meters,OK
2025-01-26T19:38:59.735670,12.5,knots,OK,224.0,degrees,OK,12.8,knots,OK,22.8,°C,OK,11.1,°C,OK,1013.5,hPa,OK,9448.0,meters,OK,2405.0,feet,OK,0.1,mm/hr,OK,1923.0,meters,OK,1861.0,meters,OK,1806.0,meters,OK
2025-01-26T19:39:00.742991,6.9,knots,OK,355.0,degrees,OK,11.2,knots,OK,19.4,°C,OK,15.1,°C,OK,1013.1,hPa,OK,6849.0,meters,OK,2047.0,feet,OK,0.2,mm/hr,OK,1758.0,meters,OK,1946.0,meters,OK,1825.0,meters,OK
2025-01-26T19:39:01.749921,6.4,knots,OK,167.0,degrees,OK,13.8,knots,OK,17.4,°C,OK,17.0,°C,OK,1013.6,hPa,OK,6875.0,meters,OK,1308.0,feet,OK,0.1,mm/hr,OK,1724.0,meters,OK,1758.0,meters,OK,1556.0,meters,OK
2025-01-26T19:39:02.757780,10.1,knots,OK,124.0,degrees,OK,15.6,knots,OK,21.9,°C,OK,12.8,°C,OK,1014.1,hPa,OK,8120.0,meters,OK,2928.0,feet,OK,0.3,mm/hr,OK,1579.0,meters,OK,1939.0,meters,OK,1921.0,meters,OK
2025-01-26T19:39:03.765420,10.9,knots,OK,76.0,degrees,OK,16.8,knots,OK,18.4,°C,OK,18.5,°C,OK,1013.5,hPa,OK,8557.0,meters,OK,1789.0,feet,OK,0.2,mm/hr,OK,1806.0,meters,OK,1769.0,meters,OK,1761.0,meters,OK
2025-01-26T19:39:04.773223,7.5,knots,OK,2.0,degrees,OK,20.5,knots,OK,21.1,°C,OK,14.6,°C,OK,1013.0,hPa,OK,8801.0,meters,OK,2134.0,feet,OK,0.4,mm/hr,OK,1895.0,meters,OK,1858.0,meters,OK,1889.0,meters,OK
2025-01-26T19:39:05.781476,11.9,knots,OK,116.0,degrees,OK,13.0,knots,OK,21.7,°C,OK,14.8,°C,OK,1014.7,hPa,OK,9283.0,meters,OK,2799.0,feet,OK,0.2,mm/hr,OK,1654.0,meters,OK,1702.0,meters,OK,1512.0,meters,OK
2025-01-26T19:39:06.787961,9.3,knots,OK,28.0,degrees,OK,17.6,knots,OK,18.3,°C,OK,15.5,°C,OK,1013.4,hPa,OK,7566.0,meters,OK,1607.0,feet,OK,0.5,mm/hr,OK,1672.0,meters,OK,1920.0,meters,OK,1927.0,meters,OK
2025-01-26T19:39:07.796210,9.6,knots,OK,18.0,degrees,OK,12.7,knots,OK,21.4,°C,OK,16.4,°C,OK,1014.4,hPa,OK,5154.0,meters,OK,2289.0,feet,OK,0.4,mm/hr,OK,1541.0,meters,OK,1570.0,meters,OK,1990.0,meters,OK
2025-01-26T19:39:08.804463,6.3,knots,OK,334.0,degrees,OK,19.8,knots,OK,23.5,°C,OK,17.4,°C,OK,1014.7,hPa,OK,8414.0,meters,OK,1341.0,feet,OK,0.4,mm/hr,OK,1700.0,meters,OK,1701.0,meters,OK,1625.0,meters,OK
2025-01-26T19:39:09.810426,11.3,knots,OK,110.0,degrees,OK,18.8,knots,OK,21.8,°C,OK,11.8,°C,OK,1013.8,hPa,OK,9490.0,meters,OK,1124.0,feet,OK,0.0,mm/hr,OK,1719.0,meters,OK,1725.0,meters,OK,1528.0,meters,OK
2025-01-26T19:39:10.819001,6.8,knots,OK,226.0,degrees,OK,21.4,knots,OK,20.4,°C,OK,13.4,°C,OK,1013.6,hPa,OK,5211.0,meters,OK,2625.0,feet,OK,0.2,mm/hr,OK,1746.0,meters,OK,1771.0,meters,OK,1942.0,meters,OK
2025-01-26T19:39:11.822700,11.9,knots,OK,34.0,degrees,OK,24.9,knots,OK,22.6,°C,OK,18.4,°C,OK,1013.3,hPa,OK,9721.0,meters,OK,1140.0,feet,OK,0.0,mm/hr,OK,1991.0,meters,OK,1672.0,meters,OK,1504.0,meters,OK
2025-01-26T19:39:12.825890,13.2,knots,OK,80.0,degrees,OK,15.8,knots,OK,24.4,°C,OK,10.3,°C,OK,1014.1,hPa,OK,5300.0,meters,OK,2589.0,feet,OK,0.3,mm/hr,OK,1896.0,meters,OK,1830.0,meters,OK,1607.0,meters,OK
2025-01-26T19:39:13.830392,5.3,knots,OK,189.0,degrees,OK,11.3,knots,OK,15.6,°C,OK,14.1,°C,OK,1014.3,hPa,OK,8299.0,meters,OK,1540.0,feet,OK,0.3,mm/hr,OK,1842.0,meters,OK,1614.0,meters,OK,1582.0,meters,OK
2025-01-26T19:39:14.834746,12.4,knots,OK,107.0,degrees,OK,12.9,knots,OK,24.3,°C,OK,11.7,°C,OK,1013.5,hPa,OK,6062.0,meters,OK,2004.0,feet,OK,0.2,mm/hr,OK,1816.0,meters,OK,1531.0,meters,OK,1985.0,meters,OK
2025-01-26T19:39:15.838726,9.5,knots,OK,200.0,degrees,OK,24.7,knots,OK,17.6,°C,OK,18.6,°C,OK,1014.5,hPa,OK,6579.0,meters,OK,1493.0,feet,OK,0.4,mm/hr,OK,1853.0,meters,OK,1750.0,meters,OK,1985.0,meters,OK
2025-01-26T19:39:16.843070,9.2,knots,OK,17.0,degrees,OK,19.1,knots,OK,22.1,°C,OK,11.6,°C,OK,1014.9,hPa,OK,7242.0,meters,OK,1692.0,feet,OK,0.4,mm/hr,OK,1784.0,meters,OK,1743.0,meters,OK,1967.0,meters,OK
2025-01-26T19:39:17.847964,6.6,knots,OK,129.0,degrees,OK,22.7,knots,OK,16.8,°C,OK,11.9,°C,OK,1013.7,hPa,OK,5065.0,meters,OK,1841.0,feet,OK,0.4,mm/hr,OK,1766.0,meters,OK,1650.0,meters,OK,1998.0,meters,OK
2025-01-26T19:39:18.852071,10.6,knots,OK,136.0,degrees,OK,10.0,knots,OK,21.4,°C,OK,12.1,°C,OK,1014.6,hPa,OK,6286.0,meters,OK,2958.0,feet,OK,0.2,mm/hr,OK,1592.0,meters,OK,1534.0,meters,OK,1807.0,meters,OK
2025-01-26T19:39:19.855122,14.2,knots,OK,18.0,degrees,OK,18.6,knots,OK,23.9,°C,OK,11.6,°C,OK,1013.2,hPa,OK,6938.0,meters,OK,2950.0,feet,OK,0.3,mm/hr,OK,1593.0,meters,OK,1969.0,meters,OK,1817.0,meters,OK
2025-01-26T19:39:20.858505,13.1,knots,OK,1.0,degrees,OK,21.0,knots,OK,16.0,°C,OK,13.4,°C,OK,1013.7,hPa,OK,8311.0,meters,OK,1997.0,feet,OK,0.3,mm/hr,OK,1828.0,meters,OK,1719.0,meters,OK,1745.0,meters,OK
2025-01-26T19:39:21.861937,8.0,knots,OK,186.0,degrees,OK,14.3,knots,OK,22.7,°C,OK,13.8,°C,OK,1014.5,hPa,OK,8594.0,meters,OK,2194.0,feet,OK,0.0,mm/hr,OK,1635.0,meters,OK,1865.0,meters,OK,1598.0,meters,OK
2025-01-26T19:39:22.865810,12.9,knots,OK,263.0,degrees,OK,17.2,knots,OK,22.0,°C,OK,19.4,°C,OK,1013.3,hPa,OK,9033.0,meters,OK,1873.0,feet,OK,0.3,mm/hr,OK,1655.0,meters,OK,1726.0,meters,OK,1744.0,meters,OK
2025-01-26T19:39:23.869867,11.3,knots,OK,180.0,degrees,OK,21.5,knots,OK,15.7,°C,OK,19.4,°C,OK,1013.5,hPa,OK,7907.0,meters,OK,1994.0,feet,OK,0.1,mm/hr,OK,1852.0,meters,OK,1583.0,meters,OK,1589.0,meters,OK
2025-01-26T19:39:24.873574,7.0,knots,OK,193.0,degrees,OK,14.0,knots,OK,20.3,°C,OK,15.0,°C,OK,1013.1,hPa,OK,9384.0,meters,OK,1768.0,feet,OK,0.1,mm/hr,OK,1748.0,meters,OK,1976.0,meters,OK,1904.0,meters,OK
2025-01-26T19:39:25.878027,8.2,knots,OK,109.0,degrees,OK,23.8,knots,OK,22.1,°C,OK,12.0,°C,OK,1014.2,hPa,OK,8856.0,meters,OK,1539.0,feet,OK,0.2,mm/hr,OK,1753.0,meters,OK,1622.0,meters,OK,1817.0,meters,OK
2025-01-26T19:39:26.881950,14.9,knots,OK,83.0,degrees,OK,19.5,knots,OK,20.7,°C,OK,12.2,°C,OK,1014.6,hPa,OK,6255.0,meters,OK,1229.0,feet,OK,0.3,mm/hr,OK,1883.0,meters,OK,1587.0,meters,OK,1503.0,meters,OK
2025-01-26T19:39:27.885628,10.3,knots,OK,123.0,degrees,OK,23.9,knots,OK,21.5,°C,OK,19.7,°C,OK,1014.5,hPa,OK,6643.0,meters,OK,1351.0,feet,OK,0.4,mm/hr,OK,1865.0,meters,OK,1887.0,meters,OK,1603.0,meters,OK
2025-01-26T19:39:28.889951,13.2,knots,OK,201.0,degrees,OK,18.8,knots,OK,21.0,°C,OK,16.2,°C,OK,1014.6,hPa,OK,7477.0,meters,OK,2245.0,feet,OK,0.4,mm/hr,OK,1954.0,meters,OK,1742.0,meters,OK,1667.0,meters,OK
2025-01-26T19:39:29.893795,10.9,knots,OK,284.0,degrees,OK,19.1,knots,OK,20.0,°C,OK,18.9,°C,OK,1014.5,hPa,OK,8713.0,meters,OK,1038.0,feet,OK,0.3,mm/hr,OK,1517.0,meters,OK,1584.0,meters,OK,1710.0,meters,OK
2025-01-26T19:39:30.898463,9.8,knots,OK,49.0,degrees,OK,17.8,knots,OK,15.0,°C,OK,17.8,°C,OK,1013.4,hPa,OK,8694.0,meters,OK,1012.0,feet,OK,0.2,mm/hr,OK,1849.0,meters,OK,1575.0,meters,OK,1626.0,meters,OK
2025-01-26T19:39:31.902340,10.8,knots,OK,187.0,degrees,OK,19.8,knots,OK,19.6,°C,OK,17.4,°C,OK,1013.7,hPa,OK,7381.0,meters,OK,2484.0,feet,OK,0.4,mm/hr,OK,1863.0,meters,OK,1937.0,meters,OK,1645.0,meters,OK
2025-01-26T19:39:32.906680,7.8,knots,OK,92.0,degrees,OK,19.5,knots,OK,21.4,°C,OK,18.0,°C,OK,1014.1,hPa,OK,6721.0,meters,OK,2351.0,feet,OK,0.4,mm/hr,OK,1975.0,meters,OK,1532.0,meters,OK,1603.0,meters,OK
2025-01-26T19:39:33.911271,7.4,knots,OK,102.0,degrees,OK,20.6,knots,OK,22.6,°C,OK,16.4,°C,OK,1014.2,hPa,OK,5446.0,meters,OK,1058.0,feet,OK,0.5,mm/hr,OK,1767.0,meters,OK,1880.0,meters,OK,1738.0,meters,OK
2025-01-26T19:39:34.914553,12.9,knots,OK,82.0,degrees,OK,23.5,knots,OK,24.5,°C,OK,19.5,°C,OK,1014.8,hPa,OK,9503.0,meters,OK,1498.0,feet,OK,0.2,mm/hr,OK,1934.0,meters,OK,1975.0,meters,OK,1713.0,meters,OK
2025-01-26T19:39:35.917783,5.4,knots,OK,294.0,degrees,OK,16.8,knots,OK,17.5,°C,OK,11.5,°C,OK,1014.7,hPa,OK,7628.0,meters,OK,2282.0,feet,OK,0.3,mm/hr,OK,1626.0,meters,OK,1558.0,meters,OK,1705.0,meters,OK
2025-01-26T19:39:36.922413,9.7,knots,OK,347.0,degrees,OK,18.6,knots,OK,17.6,°C,OK,11.7,°C,OK,1013.8,hPa,OK,6495.0,meters,OK,2682.0,feet,OK,0.2,mm/hr,OK,1769.0,meters,OK,1837.0,meters,OK,1845.0,meters,OK
2025-01-26T19:39:37.926756,8.7,knots,OK,58.0,degrees,OK,10.6,knots,OK,16.7,°C,OK,15.5,°C,OK,1013.5,hPa,OK,7144.0,meters,OK,1875.0,feet,OK,0.0,mm/hr,OK,1598.0,meters,OK,1928.0,meters,OK,1981.0,meters,OK
2025-01-26T19:39:38.931114,14.8,knots,OK,64.0,degrees,OK,25.0,knots,OK,21.5,°C,OK,19.3,°C,OK,1014.0,hPa,OK,9220.0,meters,OK,1098.0,feet,OK,0.1,mm/hr,OK,1572.0,meters,OK,1598.0,meters,OK,1835.0,meters,OK
2025-01-26T19:39:39.935939,8.3,knots,OK,330.0,degrees,OK,21.4,knots,OK,19.4,°C,OK,17.1,°C,OK,1013.3,hPa,OK,5003.0,meters,OK,1466.0,feet,OK,0.2,mm/hr,OK,1736.0,meters,OK,1734.0,meters,OK,1802.0,meters,OK
2025-01-26T19:39:40.940968,11.2,knots,OK,214.0,degrees,OK,16.6,knots,OK,15.7,°C,OK,17.1,°C,OK,1014.8,hPa,OK,6771.0,meters,OK,2427.0,feet,OK,0.0,mm/hr,OK,1518.0,meters,OK,1940.0,meters,OK,1621.0,meters,OK
2025-01-26T19:39:41.945099,5.9,knots,OK,356.0,degrees,OK,19.7,knots,OK,18.7,°C,OK,16.0,°C,OK,1014.1,hPa,OK,5091.0,meters,OK,2229.0,feet,OK,0.4,mm/hr,OK,1674.0,meters,OK,1562.0,meters,OK,1845.0,meters,OK
2025-01-26T19:39:42.950086,10.1,knots,OK,238.0,degrees,OK,14.2,knots,OK,17.7,°C,OK,15.9,°C,OK,1014.4,hPa,OK,5940.0,meters,OK,1862.0,feet,OK,0.4,mm/hr,OK,2000.0,meters,OK,1985.0,meters,OK,1875.0,meters,OK
2025-01-26T19:39:43.954825,6.8,knots,OK,101.0,degrees,OK,15.7,knots,OK,17.8,°C,OK,15.9,°C,OK,1013.5,hPa,OK,9430.0,meters,OK,1880.0,feet,OK,0.1,mm/hr,OK,1982.0,meters,OK,1897.0,meters,OK,1799.0,meters,OK
2025-01-26T19:39:44.958634,10.2,knots,OK,211.0,degrees,OK,15.5,knots,OK,16.7,°C,OK,13.6,°C,OK,1013.5,hPa,OK,8260.0,meters,OK,1275.0,feet,OK,0.5,mm/hr,OK,1679.0,meters,OK,1667.0,meters,OK,1560.0,meters,OK
2025-01-26T19:39:45.961609,6.3,knots,OK,137.0,degrees,OK,10.8,knots,OK,17.3,°C,OK,12.1,°C,OK,1014.2,hPa,OK,8300.0,meters,OK,1789.0,feet,OK,0.1,mm/hr,OK,1627.0,meters,OK,1882.0,meters,OK,1603.0,meters,OK
2025-01-26T19:39:46.971814,13.6,knots,OK,255.0,degrees,OK,23.7,knots,OK,20.5,°C,OK,14.1,°C,OK,1013.5,hPa,OK,7294.0,meters,OK,2542.0,feet,OK,0.1,mm/hr,OK,1698.0,meters,OK,1684.0,meters,OK,1823.0,meters,OK
2025-01-26T19:39:47.976789,12.1,knots,OK,66.0,degrees,OK,14.9,knots,OK,15.9,°C,OK,13.1,°C,OK,1013.2,hPa,OK,6773.0,meters,OK,2730.0,feet,OK,0.3,mm/hr,OK,1963.0,meters,OK,1861.0,meters,OK,1779.0,meters,OK
2025-01-26T19:39:48.981192,11.7,knots,OK,101.0,degrees,OK,23.7,knots,OK,24.3,°C,OK,18.0,°C,OK,1014.5,hPa,OK,6329.0,meters,OK,1952.0,feet,OK,0.4,mm/hr,OK,1696.0,meters,OK,1688.0,meters,OK,1978.0,meters,OK
2025-01-26T19:39:49.985927,13.8,knots,OK,16.0,degrees,OK,21.7,knots,OK,19.6,°C,OK,19.0,°C,OK,1013.8,hPa,OK,5070.0,meters,OK,1637.0,feet,OK,0.3,mm/hr,OK,1913.0,meters,OK,1875.0,meters,OK,1740.0,meters,OK
2025-01-26T19:39:50.990116,14.5,knots,OK,104.0,degrees,OK,16.5,knots,OK,16.4,°C,OK,11.2,°C,OK,1014.0,hPa,OK,8460.0,meters,OK,1785.0,feet,OK,0.5,mm/hr,OK,1662.0,meters,OK,1774.0,meters,OK,1732.0,meters,OK
2025-01-26T19:39:51.994351,10.9,knots,OK,192.0,degrees,OK,24.8,knots,OK,16.8,°C,OK,11.2,°C,OK,1014.7,hPa,OK,5481.0,meters,OK,1439.0,feet,OK,0.3,mm/hr,OK,1835.0,meters,OK,1554.0,meters,OK,1978.0,meters,OK
2025-01-26T19:39:52.998295,9.0,knots,OK,291.0,degrees,OK,15.1,knots,OK,21.4,°C,OK,18.4,°C,OK,1013.5,hPa,OK,5179.0,meters,OK,1247.0,feet,OK,0.4,mm/hr,OK,1531.0,meters,OK,1691.0,meters,OK,1879.0,meters,OK
2025-01-26T19:39:54.002952,9.1,knots,OK,298.0,degrees,OK,21.2,knots,OK,15.9,°C,OK,18.4,°C,OK,1013.2,hPa,OK,7701.0,meters,OK,1714.0,feet,OK,0.3,mm/hr,OK,1916.0,meters,OK,1826.0,meters,OK,1935.0,meters,OK
2025-01-26T19:39:55.007307,7.2,knots,OK,259.0,degrees,OK,12.1,knots,OK,23.2,°C,OK,16.7,°C,OK,1013.3,hPa,OK,8469.0,meters,OK,1246.0,feet,OK,0.5,mm/hr,OK,1636.0,meters,OK,1501.0,meters,OK,1994.0,meters,OK
2025-01-26T19:39:56.011243,9.5,knots,OK,215.0,degrees,OK,10.8,knots,OK,16.1,°C,OK,17.1,°C,OK,1014.7,hPa,OK,9157.0,meters,OK,1807.0,feet,OK,0.1,mm/hr,OK,1944.0,meters,OK,1847.0,meters,OK,1974.0,meters,OK
2025-01-26T19:39:57.015077,9.3,knots,OK,237.0,degrees,OK,13.6,knots,OK,19.8,°C,OK,15.4,°C,OK,1013.9,hPa,OK,5275.0,meters,OK,1791.0,feet,OK,0.4,mm/hr,OK,1813.0,meters,OK,1761.0,meters,OK,1972.0,meters,OK
2025-01-26T19:39:58.018864,11.9,knots,OK,273.0,degrees,OK,23.6,knots,OK,22.5,°C,OK,12.9,°C,OK,1014.2,hPa,OK,5905.0,meters,OK,1559.0,feet,OK,0.3,mm/hr,OK,1767.0,meters,OK,1923.0,meters,OK,1518.0,meters,OK
2025-01-26T19:39:59.022573,9.5,knots,OK,352.0,degrees,OK,10.9,knots,OK,21.3,°C,OK,12.3,°C,OK,1014.3,hPa,OK,7890.0,meters,OK,2320.0,feet,OK,0.5,mm/hr,OK,1734.0,meters,OK,1650.0,meters,OK,1724.0,meters,OK
2025-01-26T19:40:00.026965,7.7,knots,OK,36.0,degrees,OK,22.3,knots,OK,18.7,°C,OK,15.7,°C,OK,1013.4,hPa,OK,9162.0,meters,OK,2291.0,feet,OK,0.2,mm/hr,OK,1579.0,meters,OK,1858.0,meters,OK,1995.0,meters,OK
2025-01-26T19:40:01.030839,10.2,knots,OK,82.0,degrees,OK,12.4,knots,OK,20.4,°C,OK,14.7,°C,OK,1014.1,hPa,OK,5950.0,meters,OK,1219.0,feet,OK,0.3,mm/hr,OK,1734.0,meters,OK,1563.0,meters,OK,1609.0,meters,OK
2025-01-26T19:40:02.035094,6.0,knots,OK,239.0,degrees,OK,20.4,knots,OK,20.0,°C,OK,15.2,°C,OK,1013.2,hPa,OK,8888.0,meters,OK,2004.0,feet,OK,0.3,mm/hr,OK,1622.0,meters,OK,1742.0,meters,OK,1755.0,meters,OK
2025-01-26T19:40:03.039362,13.7,knots,OK,153.0,degrees,OK,14.5,knots,OK,16.6,°C,OK,11.1,°C,OK,1014.2,hPa,OK,5994.0,meters,OK,2440.0,feet,OK,0.3,mm/hr,OK,1641.0,meters,OK,1746.0,meters,OK,1802.0,meters,OK
2025-01-26T19:40:04.043513,9.3,knots,OK,167.0,degrees,OK,21.7,knots,OK,19.4,°C,OK,16.7,°C,OK,1013.8,hPa,OK,7322.0,meters,OK,2777.0,feet,OK,0.4,mm/hr,OK,1997.0,meters,OK,1601.0,meters,OK,1729.0,meters,OK
2025-01-26T19:40:05.047996,7.0,knots,OK,122.0,degrees,OK,13.4,knots,OK,23.0,°C,OK,17.9,°C,OK,1013.5,hPa,OK,5566.0,meters,OK,1677.0,feet,OK,0.4,mm/hr,OK,1641.0,meters,OK,1676.0,meters,OK,1725.0,meters,OK
2025-01-26T19:40:06.052305,9.8,knots,OK,207.0,degrees,OK,25.0,knots,OK,20.9,°C,OK,17.9,°C,OK,1014.9,hPa,OK,5723.0,meters,OK,1828.0,feet,OK,0.2,mm/hr,OK,1659.0,meters,OK,1872.0,meters,OK,1963.0,meters,OK
2025-01-26T19:40:07.055800,8.5,knots,OK,152.0,degrees,OK,15.2,knots,OK,16.2,°C,OK,17.2,°C,OK,1013.3,hPa,OK,7337.0,meters,OK,2105.0,feet,OK,0.3,mm/hr,OK,1592.0,meters,OK,1887.0,meters,OK,1860.0,meters,OK
2025-01-26T19:40:08.060200,13.2,knots,OK,183.0,degrees,OK,13.6,knots,OK,19.7,°C,OK,17.8,°C,OK,1013.7,hPa,OK,5567.0,meters,OK,1504.0,feet,OK,0.4,mm/hr,OK,1646.0,meters,OK,1744.0,meters,OK,1723.0,meters,OK
2025-01-26T19:40:09.063840,12.1,knots,OK,245.0,degrees,OK,22.5,knots,OK,24.8,°C,OK,16.5,°C,OK,1014.3,hPa,OK,6565.0,meters,OK,1529.0,feet,OK,0.1,mm/hr,OK,1648.0,meters,OK,1585.0,meters,OK,1931.0,meters,OK
2025-01-26T19:40:10.068251,8.4,knots,OK,152.0,degrees,OK,14.8,knots,OK,15.5,°C,OK,15.4,°C,OK,1014.7,hPa,OK,8671.0,meters,OK,1128.0,feet,OK,0.5,mm/hr,OK,1835.0,meters,OK,1866.0,meters,OK,1795.0,meters,OK
2025-01-26T19:40:11.071409,10.6,knots,OK,300.0,degrees,OK,19.7,knots,OK,16.1,°C,OK,15.5,°C,OK,1013.2,hPa,OK,5182.0,meters,OK,1435.0,feet,OK,0.5,mm/hr,OK,1866.0,meters,OK,1525.0,meters,OK,1826.0,meters,OK
2025-01-26T19:40:12.075736,8.6,knots,OK,278.0,degrees,OK,16.4,knots,OK,23.1,°C,OK,19.2,°C,OK,1014.8,hPa,OK,9274.0,meters,OK,1742.0,feet,OK,0.1,mm/hr,OK,1927.0,meters,OK,1636.0,meters,OK,1551.0,meters,OK
2025-01-26T19:40:13.079812,10.2,knots,OK,272.0,degrees,OK,20.6,knots,OK,17.7,°C,OK,10.8,°C,OK,1014.2,hPa,OK,6680.0,meters,OK,1819.0,feet,OK,0.2,mm/hr,OK,1943.0,meters,OK,1658.0,meters,OK,1679.0,meters,OK
2025-01-26T19:40:14.084486,8.2,knots,OK,185.0,degrees,OK,18.9,knots,OK,17.5,°C,OK,11.4,°C,OK,1013.4,hPa,OK,5400.0,meters,OK,2030.0,feet,OK,0.3,mm/hr,OK,1645.0,meters,OK,1598.0,meters,OK,1744.0,meters,OK
2025-01-26T19:40:15.089217,6.2,knots,OK,28.0,degrees,OK,16.0,knots,OK,23.8,°C,OK,17.6,°C,OK,1014.4,hPa,OK,6538.0,meters,OK,1108.0,feet,OK,0.1,mm/hr,OK,1758.0,meters,OK,1969.0,meters,OK,1821.0,meters,OK
2025-01-26T19:40:16.093958,12.1,knots,OK,355.0,degrees,OK,15.2,knots,OK,24.7,°C,OK,14.0,°C,OK,1015.0,hPa,OK,6526.0,meters,OK,2803.0,feet,OK,0.5,mm/hr,OK,1597.0,meters,OK,1635.0,meters,OK,1612.0,meters,OK
2025-01-26T19:40:17.098823,12.9,knots,OK,225.0,degrees,OK,17.8,knots,OK,15.3,°C,OK,19.8,°C,OK,1013.6,hPa,OK,7646.0,meters,OK,1937.0,feet,OK,0.2,mm/hr,OK,1529.0,meters,OK,1945.0,meters,OK,1812.0,meters,OK
2025-01-26T19:40:18.104120,9.2,knots,OK,43.0,degrees,OK,19.9,knots,OK,17.6,°C,OK,16.1,°C,OK,1014.9,hPa,OK,7499.0,meters,OK,2731.0,feet,OK,0.5,mm/hr,OK,1923.0,meters,OK,1964.0,meters,OK,1722.0,meters,OK
2025-01-26T19:40:19.109189,11.1,knots,OK,276.0,degrees,OK,14.2,knots,OK,18.0,°C,OK,15.9,°C,OK,1013.7,hPa,OK,6624.0,meters,OK,1091.0,feet,OK,0.3,mm/hr,OK,1784.0,meters,OK,1786.0,meters,OK,1921.0,meters,OK
2025-01-26T19:40:20.113021,9.2,knots,OK,128.0,degrees,OK,15.2,knots,OK,23.6,°C,OK,11.3,°C,OK,1013.1,hPa,OK,7311.0,meters,OK,1871.0,feet,OK,0.3,mm/hr,OK,1914.0,meters,OK,1550.0,meters,OK,1734.0,meters,OK
2025-01-26T19:40:21.117675,8.2,knots,OK,195.0,degrees,OK,15.2,knots,OK,24.3,°C,OK,16.4,°C,OK,1014.7,hPa,OK,8322.0,meters,OK,1100.0,feet,OK,0.3,mm/hr,OK,1955.0,meters,OK,1770.0,meters,OK,1837.0,meters,OK
2025-01-26T19:40:22.121816,9.4,knots,OK,285.0,degrees,OK,17.8,knots,OK,23.2,°C,OK,16.7,°C,OK,1014.3,hPa,OK,9529.0,meters,OK,1332.0,feet,OK,0.2,mm/hr,OK,1874.0,meters,OK,1916.0,meters,OK,1793.0,meters,OK
2025-01-26T19:40:23.126956,7.7,knots,OK,9.0,degrees,OK,23.6,knots,OK,23.0,°C,OK,19.0,°C,OK,1014.9,hPa,OK,9620.0,meters,OK,2565.0,feet,OK,0.0,mm/hr,OK,1947.0,meters,OK,1685.0,meters,OK,1510.0,meters,OK
2025-01-26T19:40:24.131022,13.7,knots,OK,9.0,degrees,OK,13.1,knots,OK,22.2,°C,OK,15.7,°C,OK,1014.6,hPa,OK,5069.0,meters,OK,2399.0,feet,OK,0.2,mm/hr,OK,1866.0,meters,OK,1927.0,meters,OK,1574.0,meters,OK
2025-01-26T19:40:25.135044,12.4,knots,OK,59.0,degrees,OK,10.6,knots,OK,19.6,°C,OK,19.1,°C,OK,1013.4,hPa,OK,6363.0,meters,OK,2749.0,feet,OK,0.2,mm/hr,OK,1596.0,meters,OK,1695.0,meters,OK,1814.0,meters,OK
2025-01-26T19:40:26.139557,11.2,knots,OK,82.0,degrees,OK,20.4,knots,OK,15.6,°C,OK,13.0,°C,OK,1013.9,hPa,OK,7113.0,meters,OK,1477.0,feet,OK,0.0,mm/hr,OK,1825.0,meters,OK,1765.0,meters,OK,1860.0,meters,OK
2025-01-26T19:40:27.153749,14.4,knots,OK,325.0,degrees,OK,20.2,knots,OK,21.4,°C,OK,12.7,°C,OK,1013.4,hPa,OK,5556.0,meters,OK,1821.0,feet,OK,0.3,mm/hr,OK,1502.0,meters,OK,1815.0,meters,OK,1513.0,meters,OK
2025-01-26T19:40:28.159436,5.8,knots,OK,269.0,degrees,OK,21.7,knots,OK,21.3,°C,OK,15.1,°C,OK,1014.3,hPa,OK,6237.0,meters,OK,2818.0,feet,OK,0.2,mm/hr,OK,1990.0,meters,OK,1945.0,meters,OK,1602.0,meters,OK
2025-01-26T19:40:29.164219,6.4,knots,OK,329.0,degrees,OK,11.3,knots,OK,19.6,°C,OK,18.0,°C,OK,1013.2,hPa,OK,8549.0,meters,OK,2673.0,feet,OK,0.1,mm/hr,OK,1946.0,meters,OK,1501.0,meters,OK,1768.0,meters,OK
2025-01-26T19:40:30.168899,5.9,knots,OK,216.0,degrees,OK,12.3,knots,OK,19.6,°C,OK,11.6,°C,OK,1014.2,hPa,OK,6798.0,meters,OK,2197.0,feet,OK,0.4,mm/hr,OK,1556.0,meters,OK,1604.0,meters,OK,1962.0,meters,OK
2025-01-26T19:40:31.173734,13.1,knots,OK,340.0,degrees,OK,17.8,knots,OK,19.5,°C,OK,11.8,°C,OK,1014.6,hPa,OK,8149.0,meters,OK,2488.0,feet,OK,0.4,mm/hr,OK,1638.0,meters,OK,1852.0,meters,OK,1777.0,meters,OK
2025-01-26T19:40:32.177150,6.3,knots,OK,110.0,degrees,OK,16.0,knots,OK,15.2,°C,OK,14.2,°C,OK,1013.6,hPa,OK,9849.0,meters,OK,2895.0,feet,OK,0.2,mm/hr,OK,1725.0,meters,OK,1538.0,meters,OK,1842.0,meters,OK
2025-01-26T19:40:33.180657,11.4,knots,OK,80.0,degrees,OK,16.1,knots,OK,17.1,°C,OK,14.1,°C,OK,1013.6,hPa,OK,5561.0,meters,OK,2465.0,feet,OK,0.2,mm/hr,OK,1923.0,meters,OK,1942.0,meters,OK,1982.0,meters,OK
2025-01-26T19:40:34.185114,5.4,knots,OK,340.0,degrees,OK,16.2,knots,OK,23.3,°C,OK,10.8,°C,OK,1013.1,hPa,OK,9169.0,meters,OK,2880.0,feet,OK,0.3,mm/hr,OK,1539.0,meters,OK,1930.0,meters,OK,1575.0,meters,OK
2025-01-26T19:40:35.189646,10.2,knots,OK,55.0,degrees,OK,21.1,knots,OK,15.2,°C,OK,16.3,°C,OK,1014.3,hPa,OK,7352.0,meters,OK,1099.0,feet,OK,0.1,mm/hr,OK,1643.0,meters,OK,1980.0,meters,OK,1700.0,meters,OK
2025-01-26T19:40:36.194805,10.6,knots,OK,53.0,degrees,OK,20.3,knots,OK,19.1,°C,OK,17.0,°C,OK,1013.9,hPa,OK,6591.0,meters,OK,1355.0,feet,OK,0.1,mm/hr,OK,1505.0,meters,OK,1947.0,meters,OK,1910.0,meters,OK
2025-01-26T19:40:37.199626,8.5,knots,OK,270.0,degrees,OK,15.7,knots,OK,18.7,°C,OK,11.2,°C,OK,1014.8,hPa,OK,8576.0,meters,OK,1006.0,feet,OK,0.1,mm/hr,OK,1545.0,meters,OK,1628.0,meters,OK,1892.0,meters,OK
2025-01-26T19:40:38.203404,7.0,knots,OK,191.0,degrees,OK,10.3,knots,OK,22.0,°C,OK,10.9,°C,OK,1013.8,hPa,OK,9502.0,meters,OK,2932.0,feet,OK,0.1,mm/hr,OK,1698.0,meters,OK,1501.0,meters,OK,1699.0,meters,OK
2025-01-26T19:40:39.207592,7.4,knots,OK,104.0,degrees,OK,23.3,knots,OK,21.0,°C,OK,18.8,°C,OK,1013.9,hPa,OK,6709.0,meters,OK,1419.0,feet,OK,0.3,mm/hr,OK,1802.0,meters,OK,1892.0,meters,OK,1997.0,meters,OK
2025-01-26T19:40:40.211416,13.9,knots,OK,212.0,degrees,OK,11.4,knots,OK,22.1,°C,OK,19.7,°C,OK,1013.3,hPa,OK,9682.0,meters,OK,2638.0,feet,OK,0.4,mm/hr,OK,1693.0,meters,OK,1924.0,meters,OK,1812.0,meters,OK
2025-01-26T19:40:41.215407,7.0,knots,OK,218.0,degrees,OK,15.2,knots,OK,17.5,°C,OK,11.7,°C,OK,1014.7,hPa,OK,8604.0,meters,OK,2161.0,feet,OK,0.2,mm/hr,OK,1885.0,meters,OK,1518.0,meters,OK,1707.0,meters,OK
2025-01-26T19:40:42.219695,14.9,knots,OK,44.0,degrees,OK,22.3,knots,OK,22.0,°C,OK,10.2,°C,OK,1014.7,hPa,OK,8268.0,meters,OK,1952.0,feet,OK,0.1,mm/hr,OK,1844.0,meters,OK,1805.0,meters,OK,1782.0,meters,OK
2025-01-26T19:40:43.223706,14.9,knots,OK,133.0,degrees,OK,15.2,knots,OK,17.9,°C,OK,11.3,°C,OK,1014.0,hPa,OK,7420.0,meters,OK,2893.0,feet,OK,0.2,mm/hr,OK,1592.0,meters,OK,1650.0,meters,OK,1768.0,meters,OK
